
873 
SAUS70 KWBC 180000
METAR
KBCT 172353Z 14010G18KT 6SM -RA OVC030 21/17 A3006=
KGUL 172345Z AUTO 21008KT 10SM SCT024 SCT029 22/18 A2993 RMK
     A01=
KIKT 172345Z AUTO 15016KT 10SM OVC050 19/11 A3001 RMK A01=
KMCX 172355Z AUTO 19010G15KT 10SM CLR 05/M02 A2967 RMK AO2
     T00521021 10065 20035=
KC62 172355Z AUTO 18012G17KT 10SM CLR 02/M02 A2967 RMK AO2
     T00221028=


138 
SAUS70 KWBC 180000
METAR
KBCT 172353Z COR 14010G18KT 6SM -RA OVC020 21/17 A3006=
KSWF 172345Z 29004KT 10SM OVC045 02/M05 A3007=


263 
SAMX55 MMMY 180000
METAR MMCV 172340Z 17008KT 10SM  SCT070 BKN200 25/14 A2982 
      RMK SLP094 57010 999 8/038=





TX_OPMET


631 
SAUS70 KWBC 180000
METAR
KFMH 172345Z 00000KT 10SM CLR M04/M08 A3013=
KMWC 172345Z 23008KT 10SM CLR 08/M03 A2949=
K1S5 172355Z AUTO 00000KT 10SM CLR 07/M03 A3037 RMK AO2 T00661031
     10068 21032=
KCNW 172355Z 16010G20KT 10SM BKN120 16/09 A2971=
KMFV 172355Z AUTO 16004KT 10SM CLR M02/M05 A3018 RMK AO2 T10171054
     10060 21017=
KNQA 172350Z 20009KT 10SM SCT120 12/M01 A2984=


230 
SAUS80 KWBC 180000
METAR
KESN 172345Z 13004KT 10SM CLR 02/M06 A3015=


234 
SAUS70 KWBC 180000
METAR
KMMU 172345Z 24004KT 10SM BKN050 M01/M05 A3012=
KJVL 172345Z 21007KT 10SM SCT150 04/M02 A2949=
KLWB 172345Z 03006KT 10SM CLR M01/M06 A3000=
KOMN 172350Z 00000KT 7SM CLR 12/11 A3011 RMK LAST=


411 
SAUS14 KAWN 180000 RRX
METAR K1S5 172355Z AUTO 00000KT 10SM CLR 07/M03 A3037 RMK AO2 T00661031
      10068 21032=
METAR KCNW 172355Z 16010G20KT 10SM BKN120 16/09 A2971=
METAR KGUL 172345Z AUTO 21008KT 10SM SCT024 SCT029 22/18 A2993 RMK
      A01=
METAR KIKT 172345Z AUTO 15016KT 10SM OVC050 19/11 A3001 RMK A01=


509 
SAUS70 KWBC 180000
METAR
KBAK 172345Z 16008KT 10SM CLR 04/M02 A2977=
KOLV 172350Z 19013G19KT 10SM VCSH SCT060 BKN070 OVC110 12/M04
     A2983=
PAKU 172345Z 13009KT 10SM R06/P6000FT SKC M27/M30 A3019=
KC62 172355Z AUTO 18012G17KT 10SM CLR 02/M02 A2967 RMK AO2
     T00221028=
KFMH 172345Z 00000KT 10SM CLR M04/M08 A3013=
KIKT 172345Z AUTO 15016KT 10SM OVC050 19/11 A3001 RMK A01=
KMCX 172355Z AUTO 19010G15KT 10SM CLR 05/M02 A2967 RMK AO2
     T00521021 10065 20035=
KMMU 172345Z 24004KT 10SM BKN050 M01/M05 A3012=
KMWC 172345Z 23008KT 10SM CLR 08/M03 A2949=
KSWF 172345Z 29004KT 10SM OVC045 02/M05 A3007=
K1S5 172355Z AUTO 00000KT 10SM CLR 07/M03 A3037 RMK AO2 T00661031
     10068 21032=
KCNW 172355Z 16010G20KT 10SM BKN120 16/09 A2971=
KGUL 172345Z AUTO 21008KT 10SM SCT024 SCT029 22/18 A2993 RMK
     A01=
KIKT 172345Z AUTO 15016KT 10SM OVC050 19/11 A3001 RMK A01=
PAKU 172345Z 13009KT 10SM R06/P6000FT SKC M27/M30 A3019=
KBFR 172355Z AUTO 14007KT 10SM CLR 05/M01 A2976 RMK AO2=
KCGF 172345Z 17013G20KT 10SM CLR 02/M05 A2983=
KCHD 172345Z 26004KT 10SM CLR 18/M06 A3005=
KDYA 172355Z AUTO 00000KT 10SM BKN100 14/01 A2997 RMK AO2
     T01410008 10176 20140=
KLOT 172345Z 20014G24KT 10SM CLR 05/01 A2957=
KOUN 172345Z 15010KT 10SM CLR 13/03 A2950=
KASG 172348Z 15012G19KT 10SM FEW045 SCT070 BKN075 07/07 A2959=
KFWS 172346Z 17011KT 10SM CLR 15/06 A2965=
KTZR 172345Z 16009KT 10SM CLR 02/M04 A2987=
K8W2 172355Z AUTO 23005KT 10SM CLR 03/M06 A3004 RMK AO1 T00281062
     10053 20015=
KATW 172345Z 25008KT 10SM BKN070 06/M01 A2943=
KBBG 172345Z 19005KT 10SM FEW060 OVC070 08/03 A2964=
KD50 172355Z AUTO 32018G23KT 10SM SCT006 SCT012 SCT023 M15/M19
     A3019 RMK AO2=
KGYH 172347Z 15004KT 10SM CLR 09/M04 A3006=
KSAW 172347Z 20008KT 10SM SCT047 M01/M04 A2931=
KSUA 172348Z VRB03KT 3SM -DZBR BKN011 OVC023 18/18 A3006=
KW63 172355Z AUTO 00000KT 10SM CLR 03/M03 A3011 RMK AO1=


697 
SAXX70 KAWN 180000 RRT
METAR KQEP 172350Z AUTO 16001KT 4800 CLR M06/M08 A3035 RMK A02 TSNO=
METAR KQEQ 172350Z AUTO 00000KT 6000 CLR M09/M11 A3037 RMK A02 TSNO=
METAR KQEW 172350Z AUTO 00000KT 9999 // CLR M01/M10 A3030 RMK A02 TSNO=
METAR KQFU 172350Z AUTO 16001KT 6000 HZ CLR M08/M11 A3035 RMK A02 TSNO=
METAR KQFV 172350Z AUTO 11001KT 6000 HZ CLR M12/M15 A3033 RMK A02 TSNO=
METAR KQFX 172350Z AUTO 00000KT M0400 FZFG BKN001 M08/M09 A3033 RMK
      A02 TSNO=


698 
SAZZ40 KAWN 180000 RRT
METAR KFMH 172345Z 00000KT 10SM CLR M04/M08 A3013=


700 
SAUS17 KAWN 180000 RRK
METAR KFMH 172345Z 00000KT 10SM CLR M04/M08 A3013=


113 
SATV31 NGFU 180000
 

METAR NGFU 180000Z 08010KT 9999 FEW016CB SCT020 BKN110 31/25 Q1008=


284 
SAVN31 SVVA 180000
METAR SVVA 180000Z /////KT 9999 SCT016 27/20 Q1014=


920 
SAHO31 MHTG 180000
METAR MHCA 180000Z 08003KT 9999 FEW030 28/19 Q1017=


436 
SAMH31 PKMR 180000
METAR PKMR 172350Z 07013KT 20SM FEW016 FEW300 30/24 A2980 RMK SLP091
 8/101 T03040239 10304 20281 58007


914 
SAPQ50 KWBC 180000
METAR
PKMR 172350Z 07013KT 20SM FEW016 FEW300 30/24 A2980 RMK SLP091
     8/101 T03040239 10304 20281 58007=


919 
SAUS70 KWBC 180000
METAR
KFMH 172345Z 00000KT 10SM CLR M04/M08 A3013=
KFMH 172345Z 00000KT 10SM CLR M04/M08 A3013=
KHSA 172347Z 11005KT 10SM BKN040 14/06 A2998=
KPMH 172346Z AUTO 00000KT 10SM CLR 03/M04 A2991 RMK AO2=
KRHV 172347Z 30006KT 8SM HZ SKC 14/06 A3020=
KSQL 172347Z 34007KT 10SM CLR 12/08 A3021=
KSUN 172347Z 14007KT 10SM SCT010 SCT040 M06/M08 A3001=
KTRK 172347Z 26010KT 10SM FEW160 08/M06 A3016=
KWDG 172345Z 34020G26KT 10SM SCT060 10/02 A2957=
KEMV 172355Z AUTO 00000KT 10SM CLR M03/M05 A3016 RMK AO2 T10271052
     10097 21027=
KEZM 172355Z AUTO 00000KT 10SM CLR 10/00 A3010 RMK AO2=
KFDK 172347Z 00000KT 10SM CLR 01/M05 A3009=
KGYR 172347Z 26007KT 10SM SKC 18/M02 A3005=
KIWA 172347Z 21005KT 10SM CLR 17/M05 A3006=
KRYN 172345Z 26010KT 10SM CLR 16/M10 A3006=
K08D 172355Z AUTO 33015G25KT 10SM -SN OVC020 M13/M16 A3011 RMK
     AO2=
K4I3 172347Z AUTO 16007KT 10SM CLR 01/M05 A2986 RMK AO2=
KCPF 172355Z AUTO 16003KT 10SM CLR 07/M08 A2992 RMK AO2=
KIFP 172347Z 21007KT 10SM CLR 20/M07 A2999=
KJWN 172350Z 17009KT 10SM FEW055 13/M02 A2985=
KL18 172355Z AUTO 22006KT 10SM SCT031 13/07 A3016 RMK AO2=
KLDJ 172355Z AUTO 00000KT 10SM SCT055 03/M05 A3013 RMK AO2
     T00251055 10057 20025=
KTIX 172347Z 04004KT 7SM SCT090 16/09 A3010=
KVQQ 172350Z VRB04KT 10SM CLR 11/02 A3011=


485 
SAXX70 KAWN 180000 RRU
METAR KQEI 172350Z AUTO 00000KT 6000 CLR M10/M12 A3032 RMK A02 TSNO=
METAR KQEJ 172350Z AUTO 05001KT 4800 OVC004 M12/M14 A3031 RMK A02 TSNO=
METAR KQEX 172350Z AUTO 04003KT 6000 HZ CLR M05/M08 A3025 RMK A02 TSNO=
METAR KQFB 172350Z AUTO 34002KT 4800 CLR M07/M09 A3037 RMK A02 TSNO=


589 
SAEU31 BKPR 180000
METAR BKPR 180000Z 34007KT 9999 OVC004 M03/M03 Q1035 NOSIG=


315 
SAIQ01 ORNI 180000
METAR ORNI 180000Z 27006KT 6000 NSC 09/05 Q1019 =


316 
SAUS80 KWBC 180000
METAR
KJQF 172359Z 00000KT 10SM CLR 08/M04 A3012=
KESN 172345Z 13004KT 10SM CLR 02/M06 A3015=
KCBE 172345Z AUTO 33004KT 10SM CLR 00/M05 A3006 RMK AO2 T10001050
     10053 21001 400531001=
KJNX 172350Z AUTO 00000KT 10SM CLR 01/M02 A3013 RMK AO2=
KAID 172355Z AUTO 18010G17KT 10SM CLR 04/M02 A2973 RMK AO2
     T00391025 10046 20026=


317 
SAUS70 KWBC 180000 RRA
METAR
KMQI 172350Z AUTO 00000KT 10SM CLR 00/M03 A3021 RMK AO2 T00031034
     10064 20003=
KMWK 172350Z AUTO 00000KT 10SM CLR 05/M04 A3008 RMK AO2 T00461042
     10099 20036=
KONX 172350Z AUTO 00000KT 10SM CLR 01/M02 A3020 RMK AO2 T00071022
     10071 21066=
KPGV 172350Z AUTO 15009KT 10SM CLR 06/00 A3018 RMK AO2=
KRCZ 172345Z AUTO 12003KT 10SM CLR 07/M03 A3011 RMK AO2
     T00661027=
KRUQ 172345Z AUTO 12004KT 10SM CLR 07/M05 A3007 RMK AO2
     T00701048=
KSIF 172345Z AUTO 28003KT 10SM CLR 01/M05 A3009 RMK AO2
     T00131048=
KSUT 172349Z AUTO 05003KT 10SM CLR 05/01 A3016 RMK AO2=
KSVH 172345Z AUTO 00000KT 10SM CLR 05/M05 A3009 RMK AO2
     T00531049=
KTDF 172350Z AUTO 00000KT 10SM CLR 02/M05 A3012 RMK AO2=
KTOA 172348Z 00000KT 10SM SCT032 15/07 A3016=
KTTA 172350Z AUTO 00000KT 10SM CLR 03/M04 A3012 RMK AO2 T00251039
     10121 20025=
KUAO 172349Z AUTO 04005KT 10SM SCT017 04/01 A3043 RMK AO2 SLP305
     T00440006 10044 20017 55001=
KUKF 172350Z AUTO 15004KT 10SM CLR 06/M05 A3011 RMK AO2=
KVUJ 172350Z AUTO 00000KT 10SM CLR 01/M04 A3014 RMK AO2 T00061041
     10128 20006=
KW29 172345Z AUTO 14006KT 10SM CLR 01/M05 A3014 RMK AO2 T00091046
     10055 20006 400551022=
K2C8 172355Z AUTO 33020G29KT 2SM BR FEW019 FEW029 M13/M14 A3001
     RMK AO2=
KANQ 172355Z AUTO 15009KT 10SM CLR 01/M01 A2966 RMK AO2=
KCCO 172355Z AUTO 19003KT 10SM CLR 12/M06 A3005 RMK AO2 T01211062
     10160 20120=
KGPH 172355Z AUTO 34008KT 10SM CLR 06/00 A2962 RMK AO2=
KGYI 172350Z 15010G17KT 10SM CLR 14/04 A2960=
KHUM 172347Z 12005KT 7SM BKN026 OVC039 17/11 A2998=
KJYO 172355Z AUTO 15005KT 10SM CLR 02/M03 A3010 RMK AO2=
KLBE 172347Z 00000KT 10SM CLR M02/M05 A2996=
KMCJ 172355Z AUTO 18014G22KT 10SM CLR 18/14 A2977 RMK A01=
KPSK 172355Z AUTO 13004KT 10SM CLR 04/M06 A3002 RMK AO2 T00411057
     10080 20041=
TJBQ 172350Z 09011G16KT 10SM CLR 25/21 A3010=


325 
SAXX60 KWBC 180000
METAR
KAQV 172347Z AUTO 17008G20KT 120V230 10SM CLR 12/07 A2974 RMK AO2
     RAB04E30 SLPNO P0000 6//// T01220067 58056=


326 
SAUS70 KWBC 180000
METAR
KCWA 172350Z 27007KT 10SM BKN034 01/M02 A2943=
KMWA 172345Z 20014G26KT 10SM OVC120 11/00 A2972=
KANE 172350Z 30018G26KT 10SM OVC037 M02/M07 A2962=
KBEA 172355Z AUTO 19012G16KT 10SM CLR 20/13 A2980 RMK AO2
     T02000126 10217 20192=
KIUA 172355Z AUTO 16003KT 10SM CLR 01/M05 A2990 RMK AO2 T00051050
     10018 20005=
KLAL 172350Z 07003KT 10SM BKN085 17/07 A3009=
KPLD 172355Z AUTO 18013G19KT 10SM CLR 04/M06 A2973 RMK AO2=
KRYY 172349Z 15006KT 10SM CLR 13/M08 A3003 RMK AO2 SLP169
     T01281083 10156 20117 53000 $=
K08D 172355Z AUTO 33015G25KT 10SM -SN OVC020 M13/M16 A3011 RMK
     AO2=
K4I3 172347Z AUTO 16007KT 10SM CLR 01/M05 A2986 RMK AO2=
KATW 172345Z 25008KT 10SM BKN070 06/M01 A2943=
KBAK 172345Z 16008KT 10SM CLR 04/M02 A2977=
KBFR 172355Z AUTO 14007KT 10SM CLR 05/M01 A2976 RMK AO2=
KCGF 172345Z 17013G20KT 10SM CLR 02/M05 A2983=
KD50 172355Z AUTO 32018G23KT 10SM SCT006 SCT012 SCT023 M15/M19
     A3019 RMK AO2=
KFDK 172347Z 00000KT 10SM CLR 01/M05 A3009=
KJVL 172345Z 21007KT 10SM SCT150 04/M02 A2949=
KLDJ 172355Z AUTO 00000KT 10SM SCT055 03/M05 A3013 RMK AO2
     T00251055 10057 20025=
KLOT 172345Z 20014G24KT 10SM CLR 05/01 A2957=
KLWB 172345Z 03006KT 10SM CLR M01/M06 A3000=
KPMH 172346Z AUTO 00000KT 10SM CLR 03/M04 A2991 RMK AO2=
KSAW 172347Z 20008KT 10SM SCT047 M01/M04 A2931=
KTZR 172345Z 16009KT 10SM CLR 02/M04 A2987=
K0W3 172345Z AUTO 16005KT 10SM CLR 00/M05 A3011 RMK AO2 T00021053
     $=
K1A5 172350Z AUTO 16004KT 10SM CLR 08/M06 A3005 RMK AO2 T00761058
     10143 20061=
K24A 172350Z AUTO 16011KT 10SM CLR 06/M06 A3001 RMK AO2 T00601064
     10119 20060 401191024=
K2G4 172345Z AUTO 17011KT 10SM CLR M02/M06 A2991 RMK AO2=
K2W6 172350Z AUTO 12003KT 10SM CLR 01/M04 A3017 RMK AO1=
KAFP 172357Z AUTO 00000KT 10SM CLR 04/M03 A3011 RMK AO2
     T00351030=
KALN 172350Z 17012KT 10SM -RA BKN075 OVC110 08/M01 A2964=
KASJ 172345Z AUTO 12005KT 10SM CLR 03/M03 A3017 RMK AO2
     T00311031=
KCGE 172345Z AUTO 00000KT 10SM CLR M02/M05 A3016 RMK A01=
KCGS 172345Z AUTO 00000KT 10SM CLR M01/M04 A3013 RMK AO2 T10081040
     10063 21009 400631052=
KCPC 172350Z AUTO 14004KT 10SM CLR 07/M01 A3017 RMK AO2 T00701011
     10136 20070=
KCTZ 172345Z AUTO 12003KT 10SM CLR 07/00 A3015 RMK AO2
     T00671002=
KDMW 172345Z AUTO 16004KT 10SM CLR 02/M05 A3007 RMK AO2=
KDPL 172350Z AUTO 15005KT 10SM CLR 06/M01 A3017 RMK AO2=
KEDE 172345Z AUTO 13006KT 10SM CLR 04/01 A3021 RMK AO2
     T00430008=
KEHO 172355Z AUTO 00000KT 10SM CLR 08/M05 A3008 RMK AO2 T00831055
     10123 20083=
KEXX 172345Z AUTO 00000KT 10SM CLR 07/M04 A3009 RMK AO2
     T00671045=
KEYF 172345Z AUTO 15007KT 10SM CLR 07/M01 A3016 RMK AO2 T00701012
     10134 20069 401341018=
KFFA 172345Z AUTO 00000KT 10SM CLR 02/M03 A3019 RMK AO2
     T00191029=
KFME 172349Z AUTO 14004KT 10SM CLR M01/M04 A3015 RMK AO1=
KFQD 172345Z AUTO 00000KT 10SM CLR 07/M06 A3008 RMK AO2=
KGEV 172350Z AUTO 18005KT 10SM CLR 03/M06 A3002 RMK AO2 T00261065
     10076 20026=
KGWW 172355Z AUTO 16006KT 10SM CLR 06/M02 A3016 RMK AO2 T00611021
     10116 20029=
KHBI 172350Z AUTO 00000KT 10SM CLR 05/M05 A3012 RMK AO2 T00461048
     10114 20045=
KHNZ 172345Z AUTO 15003KT 10SM CLR 04/M06 A3012 RMK AO2
     T00391060=
KHRJ 172350Z AUTO 10003KT 10SM CLR 04/M03 A3014 RMK AO2 T00381030
     10124 20037 401241038=
KIPJ 172345Z AUTO 00000KT 10SM CLR 03/M03 A3008 RMK AO2
     T00301033=
KIXA 180000Z AUTO 15003KT 10SM CLR 05/M01 A3015 RMK AO2=
KLHZ 172350Z AUTO 00000KT 10SM CLR 03/M04 A3014 RMK AO2=
KMCZ 172345Z AUTO 12003KT 10SM CLR 04/M01 A3017 RMK AO2 T00391009
     10108 20037 401081026=


386 
SAUS14 KAWN 180000 RRX
METAR KBEA 172355Z AUTO 19012G16KT 10SM CLR 20/13 A2980 RMK AO2 T02000126
      10217 20192=
METAR KCHD 172345Z 26004KT 10SM CLR 18/M06 A3005=
METAR KFWS 172346Z 17011KT 10SM CLR 15/06 A2965=
METAR KGYR 172347Z 26007KT 10SM SKC 18/M02 A3005=
METAR KIFP 172347Z 21007KT 10SM CLR 20/M07 A2999=
METAR KIWA 172347Z 21005KT 10SM CLR 17/M05 A3006=
METAR KL18 172355Z AUTO 22006KT 10SM SCT031 13/07 A3016 RMK AO2=
METAR KRHV 172347Z 30006KT 8SM HZ SKC 14/06 A3020=
METAR KRYN 172345Z 26010KT 10SM CLR 16/M10 A3006=
METAR KSQL 172347Z 34007KT 10SM CLR 12/08 A3021=
METAR KSUN 172347Z 14007KT 10SM SCT010 SCT040 M06/M08 A3001=
METAR KTRK 172347Z 26010KT 10SM FEW160 08/M06 A3016=


523 
SAXX70 KAWN 180000 RRV
METAR KQEV 172350Z AUTO 00000KT 4800 HZ CLR M06/M09 A3031 RMK A02 TSNO=
METAR KQFT 172350Z AUTO 04002KT 6000 CLR M08/M09 A3033 RMK A02 TSNO=


976 
SAMO31 ZMUB 180000
METAR ZMUB 180000Z 00000MPS 6000 NSC M25/M28 Q1016 NOSIG RMK QFE654.7
 73 NT=

158 
SAIQ01 ORSU 180000
METAR ORSU 180000Z 13007KT CAVOK 07/M03 Q1020=


235 
SAZZ40 KAWN 180000 RRU
METAR EEEI 172350Z AUTO 26015G26KT 9999 FEW015/// 05/03 Q1013=
METAR EFOU 172350Z AUTO 27017G28KT CAVOK 06/M00 Q0992=
METAR LLBG 172350Z VRB02KT 9999 FEW035 10/09 Q1023 NOSIG=
METAR MHCA 180000Z 08003KT 9999 FEW030 28/19 Q1017=
METAR NGFU 180000Z 08010KT 9999 FEW016CB SCT020 BKN110 31/25 Q1008=
METAR OJAI 180000Z 00000KT 4000 BR NSC 03/01 Q1024 NOSIG=
METAR OJAQ 180000Z 36010KT 5000 HZ NSC 14/07 Q1023 NOSIG=
METAR ORMM 180000Z 28010KT 7000 NSC 10/05 Q1016 NOSIG=


601 
SAVN22 SVMI 180000
METAR SVMI 180000Z 09004KT 9999 SCT016 27/23 Q1015=


602 
SAKA31 PTPN 180000
METAR PTPN 172351Z 08007KT 15SM SCT018 BKN300 30/26 A2982


826 
SAMO31 ZMUB 180000
METAR ZMUB 180000Z 00000MPS 6000 NSC M25/M28 Q1016 NOSIG=

233 
SAKA31 PTRO 180000
METAR PTRO 172350Z 07007G15KT 14SM SCT016TCU BKN130 BKN310 29/25 
A2981 RMK HZ ALQDS TCU ALQDS


683 
SAUS70 KWBC 180000 RRA
METAR
KCLE 172351Z 18014G24KT 10SM FEW250 03/M06 A2980 RMK AO2 SLP115
     4/002 T00281056 10044 20028 56021=
KCMH 172351Z 15006KT 10SM SCT250 03/M04 A2986 RMK AO2 SLP120
     T00281039 10044 20022 56018 $=
KCSG 172351Z 17003KT 10SM CLR 14/M01 A3003 RMK AO2 SLP170
     T01391011 10172 20133 55001=
KD55 172355Z AUTO 35015G20KT 10SM CLR M14/M14 A2998 RMK AO2=
KDAW 172351Z AUTO 00000KT 10SM CLR M03/M09 A3006 RMK AO2 SLP181
     T10281089 10017 21033 51015 $=
KEFD 172354Z 17014G26KT 10SM BKN030 BKN046 18/14 A2979=
KEOE 172355Z AUTO 00000KT 10SM 05/M02 A3011 RMK AO2=
KERI 172351Z 17017G27KT 10SM CLR 02/M04 A2982 RMK AO2 PK WND
     18027/2350 SLP107 T00221044 10033 20022 58020=
KEWR 172351Z 20004KT 10SM FEW055 SCT100 SCT250 03/M06 A3012 RMK
     AO2 SLP200 T00331056 10072 20028 51018=
KFDW 172355Z AUTO 12004KT 10SM CLR 08/M02 A3008 RMK AO1=
KSMO 172351Z 22006KT 10SM CLR 14/08 A3016 RMK AO2 SLP210 T01390078
     10156 20128 56013=
KSTL 172351Z 18009KT 10SM -RA OVC070 11/M02 A2962 RMK AO2 RAB32
     SLP035 4/002 P0000 60000 T01061022 10133 20083 55003=
KUGN 172351Z 22013KT 10SM CLR 05/M01 A2952 RMK AO2 SLP005
     T00501011 10094 20050 53008=
KVBW 172355Z AUTO 18004KT 10SM CLR 02/M06 A3004 RMK AO1 T00181056
     10050 20007=
KVNW 172355Z AUTO 19013G17KT 10SM CLR 02/M02 A2973 RMK AO2=
KVNY 172351Z 16007KT 10SM CLR 16/06 A3012 RMK AO2 SLP199 T01560056
     10167 20122 56015=
KW31 172355Z AUTO 00000KT 10SM CLR 02/M03 A3011 RMK AO1 T00241034
     10096 20024=
KW75 172355Z AUTO 14004KT 10SM CLR 01/M05 A3017 RMK AO1 T00061053
     10064 20001=
KW96 172355Z AUTO 12003KT 10SM CLR 03/M05 A3014 RMK AO1 T00281051
     10083 20028=
KXWA 172351Z AUTO 34020KT 10SM CLR M16/M18 A3015 RMK AO2 PK WND
     34030/2331 SLP271 60001 T11561178 11111 21156 51010=
KAQP 172353Z 33021G32KT 7SM M08/M11 A2986 RMK AO2 TSNO=
KEVB 172347Z 00000KT 10SM CLR 12/10 A3011=
KFOZ 172353Z AUTO 32014G23KT 2 1/2SM SCT016 BKN024 OVC031 M08/M12
     A2974 RMK AO2=
KMTN 172354Z 13005KT 10SM CLR 00/M01 A3015=
KORB 172353Z AUTO 32012G25KT 5SM -SN BKN029 OVC035 M09/M12 A2960
     RMK AO2=
KXVG 172353Z 32010G20KT 284V354 2 1/2SM -SN M08/M12 A2971 RMK
     AO2=


684 
SAUS80 KWBC 180000
METAR
KJDN 172348Z AUTO 31008KT M09/M13 A3022 RMK AO1 SLP277 T10891128
     11061 21089 51015=
KSNT 172351Z AUTO 31004KT M07/M17 A3001 RMK AO1 SLP180 T10671167
     11028 21067 52011=
KP59 172351Z AUTO 33009G24KT 03/M02 A2927 RMK AO1 SLP920 T00331022
     10050 20028 51016=
KHSE 172351Z AUTO 36003KT 10SM CLR 02/01 A3020 RMK AO2 SLP227
     T00220011 10072 20017 51010 $=
KHTS 172351Z 09004KT 10SM CLR 06/M06 A2990 RMK AO2 SLP129
     T00611056 10083 20044 58018=
KIGM 172351Z AUTO 23011KT 10SM CLR 13/M08 A3005 RMK AO2 SLPNO
     T01281078 10139 20111 53002=
KMYL 172351Z AUTO 02010KT 10SM BKN050 M04/M14 A3014 RMK AO2 SLP255
     T10441144 11022 21044 53013=
KORF 172351Z 15004KT 10SM CLR 03/M04 A3018 RMK AO2 SLP219
     T00331039 10067 20033 51011=
KOXR 172351Z 26008KT 10SM CLR 14/09 A3016 RMK AO2 SLP213 T01440089
     10167 20139 56011 $=
KPVD 172351Z 00000KT 10SM CLR M03/M08 A3012 RMK AO2 SLP199
     T10331078 10039 21033 51019=
KROW 172351Z 29016G23KT 6SM HZ CLR 16/M04 A2976 RMK AO2 PK WND
     27038/2254 SLP052 T01611039 10178 20156 53005=
KSAD 172351Z AUTO 30012G21KT 10SM CLR 14/M06 A3002 RMK AO2 SLP148
     T01391061 10150 20122 53001 TSNO=
KSAN 172351Z 21007KT 10SM SCT029 16/09 A3019 RMK AO2 SLP223
     T01560089 10167 20139 56010=
KSAT 172351Z 21004KT 10SM BKN160 BKN250 15/09 A2982 RMK AO2 SLP087
     60000 T01500094 10156 20122 58002=
KABE 172351Z 18003KT 10SM CLR 00/M06 A3008 RMK AO2 SLP192
     T00001061 10044 21017 53003 $=
KALB 172351Z 17005KT 10SM OVC042 00/M04 A3006 RMK AO2 SNE51 SLP184
     P0000 60000 T00001044 10006 21022 53008=
KBDL 172351Z 16004KT 10SM BKN055 01/M05 A3010 RMK AO2 SLP195
     T00061050 10044 20006 53012=
KBKW 172351Z AUTO 18006KT 10SM CLR 03/M06 A2995 RMK AO2 SLP167
     T00281061 10061 20022 56006=
KCAK 172351Z 17012KT 10SM FEW250 01/M06 A2985 RMK AO2 SLP121 4/004
     T00061056 10028 20006 58016=
KCON 172351Z AUTO 00000KT 10SM CLR M05/M09 A3006 RMK AO2 SLP188
     T10501089 10028 21056 51019=
KCRP 172351Z 17013KT 10SM FEW033 FEW140 BKN200 OVC250 20/17 A2981
     RMK AO2 SLP093 T02000167 10228 20200 55017=
KEKN 172351Z AUTO 00000KT 10SM CLR M04/M06 A2996 RMK AO2 SLP174
     T10441061 10056 21044 57001=
KELP 172351Z 29018G34KT 10SM CLR 14/M08 A2994 RMK AO2 PK WND
     25036/2257 SLP102 T01391078 10156 20133 53001=
KSMX 172351Z 29009KT 10SM CLR 12/08 A3020 RMK AO2 SLP230 T01220083
     10150 20106 55010=
KTEB 172351Z 22005KT 10SM BKN050 02/M06 A3011 RMK AO2 SLP195
     T00221061 10072 20022 51017=
KVCT 172351Z 19011KT 10SM CLR 20/16 A2980 RMK AO2 PK WND
     17027/2258 SLP089 T02000156 10222 20194 55012=


685 
SAXX60 KWBC 180000
METAR
KNBT 172351Z AUTO 07006KT 10SM CLR 05/03 A3020 RMK AO2 SLP229
     T00500028 10072 20050 51005=
KBKB 172349Z AUTO VRB04KT 10SM FEW080 BKN100 BKN110 13/06 A2976
     RMK AO2 SLP108 60001 T01280056 10144 20106 58038=
PHBK 172351Z AUTO 36015KT 10SM FEW017 24/17 A2993 RMK AO2 PK WND
     01026/2254 SLP136 T02440167 10250 20206 58016=


686 
SAUS70 KWBC 180000
METAR
KBEA 172355Z AUTO 19012G16KT 10SM CLR 20/13 A2980 RMK AO2
     T02000126 10217 20192=
KCHD 172345Z 26004KT 10SM CLR 18/M06 A3005=
KFWS 172346Z 17011KT 10SM CLR 15/06 A2965=
KGYR 172347Z 26007KT 10SM SKC 18/M02 A3005=
KIFP 172347Z 21007KT 10SM CLR 20/M07 A2999=
KIWA 172347Z 21005KT 10SM CLR 17/M05 A3006=
KL18 172355Z AUTO 22006KT 10SM SCT031 13/07 A3016 RMK AO2=
KRHV 172347Z 30006KT 8SM HZ SKC 14/06 A3020=
KRYN 172345Z 26010KT 10SM CLR 16/M10 A3006=
KSQL 172347Z 34007KT 10SM CLR 12/08 A3021=
KSUN 172347Z 14007KT 10SM SCT010 SCT040 M06/M08 A3001=
KTRK 172347Z 26010KT 10SM FEW160 08/M06 A3016=
KCIC 172352Z 00000KT 10SM CLR 15/00 A3019=
KDAG 172350Z AUTO 26017G27KT 10SM CLR 19/M09 A3002 RMK AO2 PK WND
     26027/2343 SLP157 T01941089 10200 20122 55012=
KFIN 172350Z 00000KT 10SM SCT046 11/07 A3012=
KLPC 172351Z AUTO 29011KT 10SM CLR 14/08 A3020 RMK AO2 SLP227
     T01390078 10156 20072 56010=
KOCF 172351Z 00000KT 10SM BKN042 BKN049 16/04 A3009 RMK AO2 SLP190
     T01560044 10206 20150 53002=
KTPL 172351Z AUTO 19016KT 10SM CLR 16/10 A2975 RMK AO2 SLP069
     60000 T01560100 10178 20128 58003=
KGAF 172355Z AUTO 33025G34KT 10SM FEW011 SCT018 SCT023 M11/M15
     A3000 RMK AO2 PWINO=
KHDO 172351Z AUTO 22003KT 10SM CLR 14/07 A2982 RMK AO2 SLP090
     T01440072 10161 20117 57009=
KHWY 172355Z AUTO 13004KT 10SM CLR 02/M07 A3010 RMK AO2 T00211068
     10079 21013=
KHXD 172350Z 00000KT 10SM CLR 06/04 A3013=
KILG 172351Z 10SM CLR 01/M07 A3015 RMK AO2 SLP209 T00111072 10067
     20011 51015 $=
KJCT 172351Z AUTO 28003KT 10SM CLR 21/06 A2976 RMK AO2 SLP051
     T02110056 10228 20156 55007=
KJFK 172351Z 22009KT 10SM SCT050 SCT250 03/M04 A3013 RMK AO2
     SLP202 T00281039 10067 20017 51016=
KLGU 172351Z AUTO 00000KT 10SM SCT048 BKN060 OVC080 01/M07 A2999
     RMK AO2 SLP176 60000 T00111072 10028 21011 52008=
KORD 172351Z 20015G22KT 10SM FEW055 FEW120 06/M01 A2954 RMK AO2 PK
     WND 20026/2327 SLP007 T00561011 10083 20056 55002=
KPHX 172351Z 27004KT 10SM CLR 18/M04 A3003 RMK AO2 SLP162
     T01831044 10200 20144 55008=
KPIT 172351Z 15005KT 10SM FEW250 02/M06 A2992 RMK AO2 SLP150
     T00171056 10044 20017 58009=
KPPF 172352Z AUTO 10SM FEW120 10/03 A2957 RMK AO2 SLP013 60000
     T01000033 10167 20100 53026 $=
KPWM 172351Z 00000KT 10SM CLR M03/M08 A3008 RMK AO2 SLP186
     T10331078 10006 21039 51013 $=
KRCM 172355Z AUTO 00000KT 10SM 07/00 A2958 RMK AO2=
KRDU 172351Z 14005KT 10SM FEW150 08/M04 A3012 RMK AO2 SLP201
     T00831044 10133 20078 52004=
KSJT 172351Z 26023G31KT 2 1/2SM BLDU CLR 19/M03 A2974 RMK AO2 PK
     WND 25036/2308 SLP061 T01941033 10228 20172 53005=
KSLK 172351Z AUTO 20009KT 10SM OVC023 M03/M06 A2987 RMK AO2 SLP143
     T10331056 11028 21039 50001=
K7W4 172355Z AUTO 00000KT 10SM CLR 02/M05 A3011 RMK AO1 T00181051
     10082 20017=
KACT 172351Z 19019G25KT 10SM CLR 16/09 A2970 RMK AO2 PK WND
     20027/2302 SLP053 T01610094 10183 20139 56014=
KADM 172350Z 13009KT 10SM CLR 11/03 A2956=
KAHN 172351Z 11003KT 10SM CLR 09/M06 A3005 RMK AO2 SLP181
     T00941056 10156 20089 53002=
KAVX 172351Z AUTO 01003KT 10SM CLR 11/08 A3015 RMK AO2 SLP214
     T01110078 10122 20100 56013=
KBAZ 172351Z 25006KT 10SM CLR 14/10 A2981 RMK AO2 SLP091 60000
     T01440100 10161 20128 54000=
KBED 172351Z 00000KT 10SM CLR M05/M10 A3009 RMK AO2 SLP208
     T10501100 10028 21061 51018=
KBGD 172351Z AUTO 36014G24KT 10SM CLR 14/M05 A2968 RMK AO2 PK WND
     36031/2315 SLP035 T01391050 10167 20139 53040=
KBHK 172351Z AUTO 32014KT 1 3/4SM -SN BR OVC023 M11/M13 A3013 RMK
     AO2 SNB34 SLP243 P0000 60000 T11111133 11072 21117 51034=


687 
SAPQ50 KWBC 180000
METAR
PGRO 172350Z 11011KT 7SM FEW012 27/23 A2990=
PGRO 172350Z 11011KT 7SM FEW012 27/23 A2990=
PTPN 172351Z 08007KT 15SM SCT018 BKN300 30/26 A2982=
PTRO 172350Z 07007G15KT 14SM SCT016TCU BKN130 BKN310 29/25 A2981
     RMK HZ ALQDS TCU ALQDS=


876 
SAUS14 KAWN 180000 RRX
METAR KBAZ 172351Z 25006KT 10SM CLR 14/10 A2981 RMK AO2 SLP091 60000
      T01440100 10161 20128 54000=
METAR KBHK 172351Z AUTO 32014KT 1 3/4SM -SN BR OVC023 M11/M13 A3013
      RMK AO2 SNB34 SLP243 P0000 60000 T11111133 11072 21117 51034=
METAR KCIC 172352Z 00000KT 10SM CLR 15/00 A3019=
METAR KCRP 172351Z 17013KT 10SM FEW033 FEW140 BKN200 OVC250 20/17 A2981
      RMK AO2 SLP093 T02000167 10228 20200 55017=
METAR KDAG 172350Z AUTO 26017G27KT 10SM CLR 19/M09 A3002 RMK AO2 PK
      WND 26027/2343 SLP157 T01941089 10200 20122 55012=
METAR KGYI 172350Z 15010G17KT 10SM CLR 14/04 A2960=
METAR KIGM 172351Z AUTO 23011KT 10SM CLR 13/M08 A3005 RMK AO2 SLPNO
      T01281078 10139 20111 53002=
METAR KLPC 172351Z AUTO 29011KT 10SM CLR 14/08 A3020 RMK AO2 SLP227
      T01390078 10156 20072 56010=
METAR KMCJ 172355Z AUTO 18014G22KT 10SM CLR 18/14 A2977 RMK A01=
METAR KMYL 172351Z AUTO 02010KT 10SM BKN050 M04/M14 A3014 RMK AO2 SLP255
      T10441144 11022 21044 53013=
METAR KOXR 172351Z 26008KT 10SM CLR 14/09 A3016 RMK AO2 SLP213 T01440089
      10167 20139 56011 $=
METAR KSAN 172351Z 21007KT 10SM SCT029 16/09 A3019 RMK AO2 SLP223 T01560089
      10167 20139 56010=
METAR KSMX 172351Z 29009KT 10SM CLR 12/08 A3020 RMK AO2 SLP230 T01220083
      10150 20106 55010=
METAR KTOA 172348Z 00000KT 10SM SCT032 15/07 A3016=
METAR KTPL 172351Z AUTO 19016KT 10SM CLR 16/10 A2975 RMK AO2 SLP069
      60000 T01560100 10178 20128 58003=
METAR KUAO 172349Z AUTO 04005KT 10SM SCT017 04/01 A3043 RMK AO2 SLP305
      T00440006 10044 20017 55001=
METAR KVNY 172351Z 16007KT 10SM CLR 16/06 A3012 RMK AO2 SLP199 T01560056
      10167 20122 56015=


877 
SAEW KAWN 180000 RRN
METAR EDDB 172350Z AUTO 29004KT 260V320 0700 0600 R24R/0800U R24L/0900D
      FZFG VV003 M02/M02 Q1036 TEMPO 0500 BKN001=
METAR EDDE 172350Z AUTO VRB01KT 0300 0250 R27/0325N FZFG VV003 M03/M03
      Q1035=
METAR EDDK 172350Z AUTO 12003KT 070V170 9999 OVC005 M01/M02 Q1035 NOSIG=
METAR EDDM 172350Z AUTO 08010KT 9999 OVC011 M00/M02 Q1033 NOSIG=
METAR EDDP 172350Z AUTO 18006KT 160V230 0350 0250 R26L/0400N R26R/0450N
      FZFG VV002 M02/M02 Q1036 TEMPO BKN001=
METAR EDDS 172350Z AUTO 08005KT 9999 OVC015 00/M02 Q1031=
METAR EKAH 172350Z AUTO 27009KT 7000 OVC006/// 06/05 Q1032=
METAR EKBI 172350Z AUTO 25011KT 6000 OVC004/// 05/05 Q1033=
METAR EKCH 172350Z 27010KT 5000 OVC004 04/03 Q1033 TEMPO 2500 BKN006=
METAR EKEB 172350Z AUTO 24010KT 7000 OVC006/// 05/05 Q1033=
METAR EKKA 172350Z AUTO 25010KT 5000 OVC004/// 06/05 Q1032=
METAR EKRK 172350Z AUTO 27012KT 3200 BR OVC003/// 04/03 Q1033=
METAR EKRN 172350Z AUTO 28013KT 5000 BR OVC002/// 03/03 Q1033=
METAR EKSB 172350Z AUTO 25009KT 4500 BR OVC006/// 04/03 Q1034=
METAR EKSP 172350Z 25011KT 5000 OVC006 05/04 Q1033=
METAR EKVD 172350Z AUTO 26014KT //// ///////// 05/04 Q1033=
METAR EKVG 172350Z AUTO 14015KT 7000 DZRA OVC010/// 07/07 Q1012 RMK
      OVC010/// WIND SKEID 12023KT=
METAR EKVJ 172350Z AUTO 24007KT 200V280 7000 OVC004/// 06/05 Q1033
      UNMONITORED=
METAR EKYT 172350Z AUTO 25016KT 1900 BR OVC003/// 06/06 Q1030=
METAR ETNG 172350Z AUTO 09009KT 4600 // OVC002/// M00/M01 Q1035=
METAR LSGG 172350Z AUTO 01004KT 9000 OVC018 01/M02 Q1030 NOSIG=
METAR LSZA 172350Z AUTO VRB01KT 9000 FEW006 M02/M03 Q1034=
METAR LSZB 172350Z AUTO VRB01KT 5000 OVC012 M01/M02 Q1030=
METAR LSZH 172350Z AUTO 10008KT 9999 BKN011 M00/M03 Q1032 NOSIG=


878 
SAUS17 KAWN 180000 RRL
METAR KIWA 172347Z 21005KT 10SM CLR 17/M05 A3006=


645 
SAMZ40 FQMA 180000
METAR FQLC 180000Z 24002KT 9999 BKN013 FEW020CB 18/17 Q1019 RMK CB TO
SE/S/NW AND DIST LIGHT=

830 
SAGC31 MWCR 180000
METAR MWCR 180000Z 12003KT 9999 FEW018 26/22 Q1016=
METAR MWCB 180000Z 00000KT 9999 BKN016 26/23 Q1017=


836 
SAUS14 KAWN 180000 RRX
METAR KACT 172351Z 19019G25KT 10SM CLR 16/09 A2970 RMK AO2 PK WND 20027/2302
      SLP053 T01610094 10183 20139 56014=
METAR KAQP 172353Z 33021G32KT 7SM M08/M11 A2986 RMK AO2 TSNO=
METAR KAVX 172351Z AUTO 01003KT 10SM CLR 11/08 A3015 RMK AO2 SLP214
      T01110078 10122 20100 56013=
METAR KBGD 172351Z AUTO 36014G24KT 10SM CLR 14/M05 A2968 RMK AO2 PK
      WND 36031/2315 SLP035 T01391050 10167 20139 53040=
METAR KEFD 172354Z 17014G26KT 10SM BKN030 BKN046 18/14 A2979=
METAR KELP 172351Z 29018G34KT 10SM CLR 14/M08 A2994 RMK AO2 PK WND
      25036/2257 SLP102 T01391078 10156 20133 53001=
METAR KHDO 172351Z AUTO 22003KT 10SM CLR 14/07 A2982 RMK AO2 SLP090
      T01440072 10161 20117 57009=
METAR KJCT 172351Z AUTO 28003KT 10SM CLR 21/06 A2976 RMK AO2 SLP051
      T02110056 10228 20156 55007=
METAR KLGU 172351Z AUTO 00000KT 10SM SCT048 BKN060 OVC080 01/M07 A2999
      RMK AO2 SLP176 60000 T00111072 10028 21011 52008=
METAR KPHX 172351Z 27004KT 10SM CLR 18/M04 A3003 RMK AO2 SLP162 T01831044
      10200 20144 55008=
METAR KROW 172351Z 29016G23KT 6SM HZ CLR 16/M04 A2976 RMK AO2 PK WND
      27038/2254 SLP052 T01611039 10178 20156 53005=
METAR KSAD 172351Z AUTO 30012G21KT 10SM CLR 14/M06 A3002 RMK AO2 SLP148
      T01391061 10150 20122 53001 TSNO=
METAR KSAT 172351Z 21004KT 10SM BKN160 BKN250 15/09 A2982 RMK AO2 SLP087
      60000 T01500094 10156 20122 58002=
METAR KSJT 172351Z 26023G31KT 2 1/2SM BLDU CLR 19/M03 A2974 RMK AO2
      PK WND 25036/2308 SLP061 T01941033 10228 20172 53005=
METAR KSMO 172351Z 22006KT 10SM CLR 14/08 A3016 RMK AO2 SLP210 T01390078
      10156 20128 56013=
METAR KVCT 172351Z 19011KT 10SM CLR 20/16 A2980 RMK AO2 PK WND 17027/2258
      SLP089 T02000156 10222 20194 55012=


614 
SAGU31 MGGT 180000
METAR MGGT 180000Z 03008KT 9999  FEW018 21/11 Q1022 A3018=


732 
SAKA31 PTSA 180000
METAR PTSA 172354Z 09011KT 10SM BKN022TCU BKN130 OVC300 30/24 A2978 
RMK TCU NE-SW


750 
SAXX70 KAWN 180000 RRW
METAR KQER 172350Z AUTO 19002KT 9999 // CLR M11/M13 A3027 RMK A02 TSNO=
METAR KQFW 172350Z AUTO 18001KT 4800 CLR M12/M13 A3017 RMK A02 TSNO=


751 
SACH01 SCEL 180000
METAR SCEL 180000Z 22018KT CAVOK 24/05 Q1016 NOSIG=


892 
SAUS14 KAWN 180000 RRX
METAR KABI 172352Z 23017G40KT 3SM HZ OVC040 19/M02 A2964 RMK AO2 PK
      WND 23040/2348 SLP025 T01941017 10222 20139 53007 $=
METAR KABQ 172352Z 30013KT 10SM FEW080 11/M08 A2987 RMK AO2 SLP105
      T01111078 10128 20061 53004=
METAR KALS 172352Z AUTO 06006KT 10SM CLR 04/M15 A2980 RMK AO2 SLP126
      T00441150 10078 20017 53003=
METAR KBLU 172352Z AUTO 27004KT 10SM CLR 07/M04 A3019 RMK AO2 SLP209
      T00721044 10083 20061 55001=
METAR KCLS 172355Z AUTO 36004KT 10SM FEW015 SCT020 SCT029 05/05 A3044
      RMK AO2=
METAR KGLS 172352Z AUTO 16022G34KT 10SM FEW090 SCT110 17/16 A2975 RMK
      AO2 PK WND 15034/2344 SLP075 T01670156 10189 20167 58055=
METAR KGNT 172355Z AUTO 28011G16KT 10SM CLR 07/M08 A2995 RMK AO2 T00651085
      10087 20055=
METAR KHRL 172352Z 17012KT 10SM CLR 21/16 A2984 RMK AO2 SLP104 60000
      T02110161 10250 20211 55002=
METAR KJDN 172348Z AUTO 31008KT M09/M13 A3022 RMK AO1 SLP277 T10891128
      11061 21089 51015=
METAR KLKV 172353Z AUTO 34007KT 10SM CLR 01/M06 A3019 RMK AO2 SLP256
      T00061056 10039 20000 53001 FZRANO=
METAR KMLF 172352Z AUTO 17004KT 10SM CLR 11/M11 A2991 RMK AO2 SLP136
      T01061106 10111 20044 55008=
METAR KMWH 172352Z 36012KT 10SM CLR 04/M07 A3034 RMK AO2 SLP288 T00441067
      10061 20006 53001=
METAR KOKB 172352Z AUTO 25007KT 10SM FEW021 14/ A3016 RMK AO2 SLP211
      T0144 10167 20133 56014=
METAR KSNT 172351Z AUTO 31004KT M07/M17 A3001 RMK AO1 SLP180 T10671167
      11028 21067 52011=
METAR KSPS 172352Z 24013KT 10SM BKN049 OVC110 21/00 A2950 RMK AO2 SLP984
      60001 T02110000 10228 20133 55008=


208 
SAFJ31 NFFN 180000
METAR NFFN 180000Z 30013KT 9999 FEW025TCU 31/25 Q1008 NOSIG=


858 
SAFJ31 NFNS 180000
METAR NFNS 180000Z 15005KT 9999 FEW020 30/24 Q1008=


073 
SAPM31 MPTO 180000
METAR MPPA 180000Z 36002KT 9999 SCT030 26/24 Q1011=


118 
SAZZ40 KAWN 180000 RRV
METAR BGBW 172350Z AUTO 24003KT 9999NDV NCD M17/M22 Q1012=
METAR BGKK 172350Z AUTO 23006KT 9999NDV NCD M15/M22 Q1014=
METAR BGSF 172350Z AUTO 04012KT 9999NDV FEW065/// SCT090/// BKN170///
      M12/M18 Q1012=
METAR EFKI 172350Z AUTO 23009KT 200V260 CAVOK 03/00 Q0993=
METAR EFKU 172350Z AUTO 26014KT CAVOK 03/M00 Q0998=
METAR K4MR 172355Z AUTO 29017G23KT 10SM CLR 13/M11 A2968 RMK AO2 PK
      WND 27034/09 SLP014 T01321106 10156 20131 53024 $=
METAR KBAF 172353Z 00000KT 10SM SCT050 M03/M07 A3009 RMK AO2 SLP198
      T10281067 10028 21028 53014=
METAR KDAA 172355Z AUTO 00000KT 10SM CLR M01/M07 A3010 RMK AO2 SLP196
      T10111068 10089 21012 51004 $=
METAR KFTK 172355Z AUTO 15008KT 10SM FEW180 08/M00 A2979 RMK AO2 SLP095
      T00751002 10100 20056 57012=
METAR KMUI 172355Z AUTO 00000KT 10SM CLR M00/M06 A3006 RMK AO2 SLP187
      T10041058 10049 21014 50009=
METAR KSAN 172351Z 21007KT 10SM SCT029 16/09 A3019 RMK AO2 SLP223 T01560089
      10167 20139 56010=
METAR KXMR 172355Z AUTO 36003KT 10SM BKN039 BKN090 14/10 A3006 RMK
      AO2 SLP182 T01370103 10200 20136 58002 $=
METAR MGGT 180000Z 03008KT 9999 FEW018 21/11 Q1022 A3018=
METAR ORER 180000Z 30005KT 4500 BR NSC 04/03 Q1020=
METAR ORNI 180000Z 27006KT 6000 NSC 09/05 Q1019=
METAR ORSU 180000Z 13007KT CAVOK 07/M03 Q1020=
METAR PABI 172353Z 11019G27KT 10SM FEW060 SCT110 BKN160 OVC200 M12/M16
      A3018 RMK AO2 PK WND 10027/2254 SLP270 DRSN ALQDS ACSL DSNT
      SW T11221161 11122 21144 55002=
METAR PHBK 172351Z AUTO 36015KT 10SM FEW017 24/17 A2993 RMK AO2 PK
      WND 01026/2254 SLP136 T02440167 10250 20206 58016=
METAR TJBQ 172350Z 09011G16KT 10SM CLR 25/21 A3010=


119 
SAUS17 KAWN 180000 RRM
METAR KBAB 172355Z AUTO 21006KT 10SM CLR 14/06 A3017 RMK AO2 SLP220
      T01380059 10154 20101 55007 $=
METAR KBYS 172355Z AUTO 18007KT 10SM CLR 18/M08 A2999 RMK AO2 SLP151
      T01791083 10184 20107 56010 $=
METAR KCBM 172355Z AUTO 20007KT 10SM CLR 14/02 A2990 RMK AO2 SLP128
      T01350015 10167 20135 57009 $=
METAR KCVS 172355Z AUTO 05009KT 10SM CLR 10/M06 A2972 RMK AO2 SLP051
      T00991056 10165 20099 53037 $=
METAR KDAA 172355Z AUTO 00000KT 10SM CLR M01/M07 A3010 RMK AO2 SLP196
      T10111068 10089 21012 51004 $=
METAR KDYS 172355Z 25016G28KT 3SM HZ BKN034 OVC040 19/M02 A2968 RMK
      A02A PK WND 25028/2318 SLP036 WND DATA ESTMD T01931023 10148
      20104 402170060 52006=
METAR KEFD 172354Z 17014G26KT 10SM BKN030 BKN046 18/14 A2979=
METAR KEND 172355Z AUTO 35022G29KT 10SM FEW150 10/M01 A2955 RMK AO2
      PK WND 34029/51 SLP011 T00971014 10171 20097 52038 $=
METAR KFTK 172355Z AUTO 15008KT 10SM FEW180 08/M00 A2979 RMK AO2 SLP095
      T00751002 10100 20056 57012=
METAR KGXF 172355Z AUTO 25010KT 8SM CLR 19/M05 A3006 RMK AO2 SLP175
      T01941055 10200 20158 55004 FZRANO $=
METAR KHMN 172355Z AUTO 24014KT 10SM CLR 14/M08 A2992 RMK AO2 SLP104
      T01421085 10161 20116 53004 $=
METAR KHRT 172355Z AUTO 15007KT 10SM OVC210 15/08 A3002 RMK AO2 SLP164
      T01520075 10175 20151 57011 $=
METAR KLHW 172355Z AUTO 13005KT 10SM CLR 09/01 A3007 RMK AO2 SLP186
      T00920009 10178 20088 52007 $=
METAR KLSV 172355Z AUTO 06007KT 10SM CLR 16/M11 A2996 RMK AO2 SLP145
      T01561110 10163 20091 56011 $=
METAR KMUI 172355Z AUTO 00000KT 10SM CLR M00/M06 A3006 RMK AO2 SLP187
      T10041058 10049 21014 50009=


120 
SAEW KAWN 180000 RRO
METAR EBAW 172350Z AUTO 10005KT 0900 R11/1100N R29/1300U FZFG VV002
      M00/M00 Q1035 REFZDZ=
METAR EBBR 172350Z 11003KT 0300 R25L/0900D R25R/1400N R01/1100U FZFG
      OVC001 M01/M01 Q1035 NOSIG=
METAR EBCI 172350Z 08004KT 060V120 0200 R24/0700N FZFG BKN001 M03/M03
      Q1034 NOSIG=
METAR EBLG 172350Z 09003KT 050V110 0200 R22L/0600N R22R/0600N R04R/0600N
      FZFG BKN001 M02/M02 Q1034 NOSIG=
METAR EBOS 172350Z 12003KT 070V160 0600 R08/1500U R26/1700D FG OVC001
      00/M00 Q1035 TEMPO 0300 FZFG=
METAR EDDC 172350Z AUTO 15004KT CAVOK M01/M02 Q1035=
METAR EDDF 172350Z AUTO 06008KT 9999 OVC008 00/M02 Q1035 NOSIG=
METAR EDDG 172350Z AUTO VRB02KT 0500 0450 R25/0650N FZFG VV003 M02/M03
      Q1035 NOSIG=
METAR EDDH 172350Z AUTO 27004KT 1200 1100 R23/1900N R33/1900N BR OVC001
      M01/M02 Q1036 TEMPO 0800 FZFG VV003=
METAR EDDL 172350Z AUTO 05004KT 020V090 0700 0600 R23R/0800N R23L/0900N
      FZFG OVC002 M00/M01 Q1035 NOSIG=
METAR EDDN 172350Z AUTO 08004KT 050V120 9999 OVC009 00/M02 Q1034=
METAR EDDR 172350Z AUTO 07005KT 030V100 9999 OVC008 M00/M02 Q1032=
METAR EDDV 172350Z AUTO VRB02KT 0500 0450 R27R/0650N R27L/0650N FZFG
      VV003 M02/M02 Q1035=
METAR EDDW 172350Z AUTO 17003KT 100V210 0900 R27/1300N FZFG OVC002
      M01/M01 Q1036=
METAR EGJJ 172350Z AUTO VRB02KT 9999 OVC006/// 02/01 Q1033=
METAR EHKD 172355Z AUTO 15007KT 0500 FG VV000 01/01 Q1035 RED=
METAR ELLX 172350Z 07007KT 040V100 0300 R24/0800U FZFG VV001 M02/M02
      Q1032 NOSIG=
METAR ETOU 172355Z AUTO 08006KT 9999 OVC007 00/M02 A3056 RMK AO2 SLP357
      T00021019 10012 20001 57011 FZRANO $=


121 
SAUS14 KAWN 180000 RRX
METAR K1DM 172355Z AUTO 29010KT 4SM BLSN BKN035 OVC065 M11/M13 M RMK
      AO2 SLPNO 60000 T11081133 11082 21110 $=
METAR KAMA 172353Z 35016G22KT 10SM CLR 12/M06 A2969 RMK AO2 SLP035
      T01171061 10178 20117 51045=
METAR KBAB 172355Z AUTO 21006KT 10SM CLR 14/06 A3017 RMK AO2 SLP220
      T01380059 10154 20101 55007 $=
METAR KCNM 172353Z AUTO 25029G41KT 7SM CLR 14/M06 A2981 RMK AO2 PK
      WND 26045/2307 SLP077 T01441061 10178 20144 53008 $=
METAR KCVS 172355Z AUTO 05009KT 10SM CLR 10/M06 A2972 RMK AO2 SLP051
      T00991056 10165 20099 53037 $=
METAR KDHT 172353Z AUTO 02016KT 10SM CLR 10/M07 A2972 RMK AO2 PK WND
      02031/2302 SLP052 T01001072 10144 20100 53030 $=
METAR KDMN 172353Z AUTO 28021G28KT 10SM CLR 12/M06 A2999 RMK AO2 PK
      WND 26032/2258 SLP128 T01171061 10139 20111 51004=
METAR KDYS 172355Z 25016G28KT 3SM HZ BKN034 OVC040 19/M02 A2968 RMK
      A02A PK WND 25028/2318 SLP036 WND DATA ESTMD T01931023 10148
      20104 402170060 52006=
METAR KGXF 172355Z AUTO 25010KT 8SM CLR 19/M05 A3006 RMK AO2 SLP175
      T01941055 10200 20158 55004 FZRANO $=
METAR KHMN 172355Z AUTO 24014KT 10SM CLR 14/M08 A2992 RMK AO2 SLP104
      T01421085 10161 20116 53004 $=
METAR KRQE 172353Z AUTO 27010G22KT 10SM CLR 06/M12 A2994 RMK AO2 PK
      WND 26026/2255 SLP114 T00611122 10083 20050 53002=
METAR KSHM 172355Z AUTO 03013KT 10SM FEW085 M01/M06 A2976 RMK AO2 SLP087
      T10071059 10125 21007 52023 $=
METAR KSUU 172355Z AUTO 24012KT 10SM CLR 13/07 A3016 RMK AO2 SLP220
      T01330073 10139 20103 55008 $=
METAR KTCS 172353Z AUTO 29015KT 10SM CLR 13/M06 A2990 RMK AO2 SLP092
      T01281056 10150 20111 53005=


122 
SAZZ40 KAWN 180000 RRW
METAR EGUL 172355Z AUTO 19006KT 9999 OVC008 03/00 A3053 RMK AO2 SLP342
      T00260002 10049 20025 400670025 55005 $=
METAR KBAB 172355Z AUTO 21006KT 10SM CLR 14/06 A3017 RMK AO2 SLP220
      T01380059 10154 20101 55007 $=
METAR KCBM 172355Z AUTO 20007KT 10SM CLR 14/02 A2990 RMK AO2 SLP128
      T01350015 10167 20135 57009 $=
METAR KCVS 172355Z AUTO 05009KT 10SM CLR 10/M06 A2972 RMK AO2 SLP051
      T00991056 10165 20099 53037 $=
METAR KEND 172355Z AUTO 35022G29KT 10SM FEW150 10/M01 A2955 RMK AO2
      PK WND 34029/51 SLP011 T00971014 10171 20097 52038 $=
METAR KGXF 172355Z AUTO 25010KT 8SM CLR 19/M05 A3006 RMK AO2 SLP175
      T01941055 10200 20158 55004 FZRANO $=
METAR KHMN 172355Z AUTO 24014KT 10SM CLR 14/M08 A2992 RMK AO2 SLP104
      T01421085 10161 20116 53004 $=
METAR KLHW 172355Z AUTO 13005KT 10SM CLR 09/01 A3007 RMK AO2 SLP186
      T00920009 10178 20088 52007 $=
METAR KLSV 172355Z AUTO 06007KT 10SM CLR 16/M11 A2996 RMK AO2 SLP145
      T01561110 10163 20091 56011 $=
METAR KSUU 172355Z AUTO 24012KT 10SM CLR 13/07 A3016 RMK AO2 SLP220
      T01330073 10139 20103 55008 $=
METAR KTBN 172355Z AUTO 16014G20KT 10SM SCT100 BKN120 10/M00 A2954
      RMK AO2 SLP010 60000 T01001002 10143 20100 57015=
METAR KTIK 172355Z AUTO 19012KT 10SM CLR 13/03 A2947 RMK AO2 SLP982
      60000 T01310029 10158 20096 53000=
METAR MWCR 180000Z 12003KT 9999 FEW018 26/22 Q1016=
METAR OKAS 172355Z AUTO 28007KT 9999 CLR 11/06 A3005 RMK AO2 LTG DSNT
      NE SLP175 T01060056 10142 20106 55002 $=
METAR PAFB 172355Z AUTO 00000KT 10SM BKN055 M13/M15 A3017 RMK AO2 SLP240
      T11291155 11129 21190 55000 $=


123 
SAUS14 KAWN 180000 RRX
METAR K1JM 172355Z AUTO 33004KT 9SM -SN BKN034 BKN080 OVC100 M13/M15
      A3023 RMK AO2 SLP313 P0000 60000 T11301149 11094 21130 52007 $=
METAR K1NM 172355Z AUTO 27013KT 10SM FEW140 M11/M16 A3013 RMK AO2 SLP276
      60000 T11111157 11076 21111 53004 $=
METAR K4MR 172355Z AUTO 29017G23KT 10SM CLR 13/M11 A2968 RMK AO2 PK
      WND 27034/09 SLP014 T01321106 10156 20131 53024 $=
METAR KAKO 172353Z AUTO 01013KT 8SM -SN OVC016 M03/M06 A2987 RMK AO2
      SNB31 SLP145 P0000 60000 T10281056 10056 21028 51034=
METAR KBLH 172352Z AUTO 24003KT 10SM CLR 21/M08 A3003 RMK AO2 SLP167
      T02061083 10206 20128 56008=
METAR KBNO 172354Z 35006KT 10SM FEW049 01/M08 A3023=
METAR KDGW 172353Z AUTO 35017G24KT 3SM -SN OVC023 M08/M11 A2997 RMK
      AO2 SLP182 P0000 60002 T10831111 11028 21083 51028=
METAR KGUP 172353Z AUTO 26016G25KT 10SM CLR 07/M12 A2995 RMK AO2 PK
      WND 26028/2309 SLP141 T00721117 10094 20050 53003=
METAR KITR 172353Z AUTO 02013G23KT 10SM CLR M01/M06 A2983 RMK AO2 PK
      WND 02034/2304 SLP118 T10061061 10094 21006 53038=
METAR KLHX 172353Z AUTO 05012KT 10SM CLR 04/M04 A2981 RMK AO2 PK WND
      05028/2257 SLP102 T00391044 10122 20039 53034=
METAR KLSV 172355Z AUTO 06007KT 10SM CLR 16/M11 A2996 RMK AO2 SLP145
      T01561110 10163 20091 56011 $=
METAR KRTN 172353Z AUTO 04017G24KT 10SM CLR 04/M08 A2976 RMK AO2 PK
      WND 03027/2256 SLP094 T00441078 10144 20044 53036=
METAR KSAF 172353Z 34008G19KT 10SM CLR 08/M15 A2985 RMK AO2 SLP083
      T00831150 10106 20072 53007=
METAR KSDL 172353Z 28004KT 10SM CLR 17/M04 A3006 RMK AO2 SLP168 T01671044
      10172 20139 55006=
METAR KSEE 172347Z 27008KT 10SM SKC 15/05 A3017=
METAR KTCC 172353Z AUTO 07007KT 10SM CLR 11/M11 A2970 RMK AO2 SLP042
      T01061106 10183 20106 53041=


396 
SAUS80 KWBC 180000 CCA
METAR
KP59 172351Z AUTO 33009G24KT 03/M02 A2927 RMK AO1 SLP920 T00331022
     10050 20028 51016=
KP59 172351Z AUTO 33009G24KT 03/M02 A2927 RMK AO1 SLP920 T00331022
     10050 20028 51016=


397 
SAUS70 KWBC 180000 RRR
METAR
KMGW 172353Z 17003KT 10SM CLR 00/M06 A2996 RMK AO2 SLP158
     T00001061 10044 20000 58010=
KMIE 172353Z 18013KT 10SM CLR 06/M03 A2972 RMK AO2 SLP068
     T00561028 10061 20033 58014=
KMNN 172353Z AUTO 17014G22KT 10SM CLR 02/M04 A2980 RMK AO2 SLP104
     T00221044 10028 20017 56023=
KMRB 172353Z 14005KT 10SM CLR 01/M06 A3004 RMK AO2 SLP179
     T00111056 10050 20011 58003=
KOVS 172353Z AUTO 29008KT 10SM SCT120 07/M02 A2953 RMK AO2 SLP006
     T00671022 10100 20067 53017=
KPKB 172353Z 14004KT 10SM CLR 03/M06 A2993 RMK AO2 SLP140
     T00281056 10056 20022 58016 $=
KWST 172353Z AUTO 00000KT 10SM CLR M03/M06 A3012 RMK AO2 SLP200
     T10331056 10033 21033 51016=
KAZO 172353Z 18015G25KT 10SM CLR 03/M03 A2961 RMK AO2 SLP038
     T00281028 10044 20011 56014=
KBTL 172353Z 19015G23KT 10SM CLR 04/M03 A2961 RMK AO2 SLP034
     T00391028 10050 20028 58015=
KBVY 172353Z 22004KT 10SM CLR M02/M09 A3009 RMK AO2 SLP187
     T10221089 10017 21028 52014=
KETH 172353Z AUTO 34024G32KT 10SM BKN022 M09/M13 A2992 RMK AO2=
KFLD 172353Z AUTO 23005KT 10SM BKN100 05/M02 A2945 RMK AO2 SLP981
     T00501022 10094 20050 53008=
KGFL 172353Z AUTO 21003KT 10SM OVC045 M02/M04 A3004 RMK AO2 SLP185
     T10171044 11011 21022 51008=
KHLG 172353Z 16007KT 10SM CLR 03/M06 A2990 RMK AO2 SLP139
     T00281061 10044 20028 58014=
KHUF 172353Z 18011KT 10SM CLR 06/00 A2971 RMK AO2 SLP067 T00610000
     10078 20044 56009=
KLEB 172353Z 18004KT 10SM OVC044 M02/M06 A3002 RMK AO2 SLP180
     T10171056 10017 21022 51014=
KLHQ 172353Z AUTO 15007KT 10SM CLR 03/M04 A2988 RMK AO2 SLP125
     T00331044 10056 20028 56016=
KLUK 172353Z 20005KT 10SM CLR 04/M02 A2985 RMK AO2 SLP112
     T00391022 10067 20039 58017=
KMIW 172353Z AUTO 33009KT 10SM CLR 04/M03 A2961 RMK AO2 SLP035
     T00391033 10094 20033 51031=
KOSU 172353Z 15010KT 10SM CLR 04/M04 A2984 RMK AO2 SLPNO T00391039
     10044 20033 56020=
KUUU 172353Z AUTO 00000KT 10SM CLR M03/M08 A3012 RMK AO2 SLP199
     T10281078 10033 21039 51020=
KBAF 172353Z 00000KT 10SM SCT050 M03/M07 A3009 RMK AO2 SLP198
     T10281067 10028 21028 53014=
TJBQ 172350Z 09011G16KT 10SM CLR 25/21 A3010=
KBIV 172353Z AUTO 19017G23KT 10SM CLR 05/M02 A2953 RMK AO2 PK WND
     20027/2314 SLP008 T00501022 10061 20033 58013=
KCMI 172353Z 17017KT 10SM BKN100 04/M01 A2964 RMK AO2 SLP044
     T00441006 10050 20039 56008=
KDUJ 172353Z AUTO 16003KT 10SM CLR M01/M07 A2991 RMK AO2 SLP147
     T10061067 10011 21006 58003=
KEWB 172353Z 00000KT 10SM CLR M04/M09 A3012 RMK AO2 SLP201
     T10441094 10039 21044 51022=
KEYE 172353Z AUTO 15008KT 10SM CLR 07/M02 A2971 RMK AO2 SLP067
     T00671017 10094 20061 56013=
KGEZ 172353Z AUTO 16016KT 10SM CLR 05/M02 A2974 RMK AO2 SLP078
     T00501017 10067 20039 56019=
KGSH 172353Z AUTO 18013G22KT 10SM CLR 03/M03 A2965 RMK AO2 SLP047
     T00281028 10033 20022 56016=
KHFD 172353Z 14004KT 10SM BKN060 01/M06 A3011 RMK AO2 SLP194
     T00061061 10033 21011 53013=
KLWV 172353Z AUTO 17009KT 10SM SCT120 04/00 A2974 RMK AO2 SLP073
     T00390000 10044 20028 56012 $=
KMDW 172353Z 20015G25KT 10SM FEW150 05/M01 A2957 RMK AO2 PK WND
     20026/2331 SLP021 T00501011 10078 20050 56005=
KMGY 172353Z AUTO 17009KT 10SM CLR 04/M03 A2982 RMK AO2 SLP104
     T00391033 10061 20033 56013=
KMSS 172353Z AUTO 18006KT 10SM OVC043 M01/M04 A2993 RMK AO2 SLP141
     T10061044 10000 21017 58010=
KRAC 172353Z AUTO 22008KT 10SM CLR 07/M01 A2951 RMK AO2 SLP999
     T00671011 10089 20061 53010=
KBYS 172355Z AUTO 18007KT 10SM CLR 18/M08 A2999 RMK AO2 SLP151
     T01791083 10184 20107 56010 $=


398 
SAUS70 KWBC 180000 RRS
METAR
KEFD 172354Z 17014G26KT 10SM BKN030 BKN046 18/14 A2979=
KAKO 172353Z AUTO 01013KT 8SM -SN OVC016 M03/M06 A2987 RMK AO2
     SNB31 SLP145 P0000 60000 T10281056 10056 21028 51034=
KBLH 172352Z AUTO 24003KT 10SM CLR 21/M08 A3003 RMK AO2 SLP167
     T02061083 10206 20128 56008=
KDGW 172353Z AUTO 35017G24KT 3SM -SN OVC023 M08/M11 A2997 RMK AO2
     SLP182 P0000 60002 T10831111 11028 21083 51028=
KGUP 172353Z AUTO 26016G25KT 10SM CLR 07/M12 A2995 RMK AO2 PK WND
     26028/2309 SLP141 T00721117 10094 20050 53003=
KITR 172353Z AUTO 02013G23KT 10SM CLR M01/M06 A2983 RMK AO2 PK WND
     02034/2304 SLP118 T10061061 10094 21006 53038=
KLHX 172353Z AUTO 05012KT 10SM CLR 04/M04 A2981 RMK AO2 PK WND
     05028/2257 SLP102 T00391044 10122 20039 53034=
KRTN 172353Z AUTO 04017G24KT 10SM CLR 04/M08 A2976 RMK AO2 PK WND
     03027/2256 SLP094 T00441078 10144 20044 53036=
KSAF 172353Z 34008G19KT 10SM CLR 08/M15 A2985 RMK AO2 SLP083
     T00831150 10106 20072 53007=
KSDL 172353Z 28004KT 10SM CLR 17/M04 A3006 RMK AO2 SLP168
     T01671044 10172 20139 55006=
KSEE 172347Z 27008KT 10SM SKC 15/05 A3017=
KTCC 172353Z AUTO 07007KT 10SM CLR 11/M11 A2970 RMK AO2 SLP042
     T01061106 10183 20106 53041=
KAMA 172353Z 35016G22KT 10SM CLR 12/M06 A2969 RMK AO2 SLP035
     T01171061 10178 20117 51045=
KCNM 172353Z AUTO 25029G41KT 7SM CLR 14/M06 A2981 RMK AO2 PK WND
     26045/2307 SLP077 T01441061 10178 20144 53008 $=
KDHT 172353Z AUTO 02016KT 10SM CLR 10/M07 A2972 RMK AO2 PK WND
     02031/2302 SLP052 T01001072 10144 20100 53030 $=
KAOH 172353Z AUTO 17015G24KT 10SM CLR 02/M03 A2976 RMK AO2 SLP086
     T00171033 10028 20011 58018=
KBEH 172353Z AUTO 19015G26KT 10SM CLR 07/M02 A2958 RMK AO2 PK WND
     18030/2310 SLP021 T00671022 10078 20044 56012=
KBGR 172353Z 00000KT 10SM CLR M09/M13 A3006 RMK AO2 SLP186
     T10941133 11011 21106 51017=
KBMG 172353Z 16006KT 10SM CLR 05/M02 A2974 RMK AO2 SLP078
     T00501017 10089 20050 56012=
KENW 172353Z 22014G21KT 10SM CLR 07/M01 A2950 RMK AO2 SLP996
     T00721006 10117 20072 53007=
KFVE 172353Z AUTO 18003KT 10SM OVC028 M06/M11 A2993 RMK AO2 SLP154
     T10561106 11050 21067 51015 $=
KHUL 172353Z AUTO 00000KT 10SM FEW044 M09/M11 A3000 RMK AO2 SLP170
     T10891111 11028 21089 51019=
KMHT 172353Z 17004KT 10SM FEW045 M03/M09 A3006 RMK AO2 SLP202
     T10281089 10028 21039 51020=
KMLT 172353Z AUTO 00000KT 10SM FEW045 M07/M12 A3003 RMK AO2 SLP183
     T10721122 11006 21072 51018=
KMMK 172353Z AUTO 00000KT 10SM FEW055 M02/M07 A3012 RMK AO2 SLP201
     T10221067 10050 21022 53016=
KOWD 172353Z 00000KT 10SM CLR M04/M09 A3011 RMK AO2 SLP196
     T10441094 10039 21056 51019=
KSBM 172353Z AUTO 23005KT 10SM CLR 03/M03 A2945 RMK AO2 SLP979
     T00281033 10106 20028 51008=
KUNV 172353Z 23006KT 10SM CLR M01/M06 A2999=
KXIF 172355Z AUTO 00000KT 10SM CLR M01/M05 A3004 RMK AO2 SLP187
     T10121054 10042 21014 50002 $=
KSJT 172351Z 26023G31KT 2 1/2SM BLDU CLR 19/M03 A2974 RMK AO2 PK
     WND 25036/2308 SLP061 T01941033 10228 20172 53005=
KCMH 172351Z 15006KT 10SM SCT250 03/M04 A2986 RMK AO2 SLP120
     T00281039 10044 20022 56018 $=
KERI 172351Z 17017G27KT 10SM CLR 02/M04 A2982 RMK AO2 PK WND
     18027/2350 SLP107 T00221044 10033 20022 58020=
KPIT 172351Z 15005KT 10SM FEW250 02/M06 A2992 RMK AO2 SLP150
     T00171056 10044 20017 58009=
KAHN 172351Z 11003KT 10SM CLR 09/M06 A3005 RMK AO2 SLP181
     T00941056 10156 20089 53002=


399 
SAXX60 KWBC 180000
METAR
KNHK 172352Z 16007KT 10SM CLR 03/M05 A3016 RMK AO2 SLP212
     T00331050 10067 20033 51008 $=
PABI 172353Z 11019G27KT 10SM FEW060 SCT110 BKN160 OVC200 M12/M16
     A3018 RMK AO2 PK WND 10027/2254 SLP270 DRSN ALQDS ACSL DSNT
     SW T11221161 11122 21144 55002=
KNRS 172353Z 21006KT 10SM CLR A3018 RMK AO2 SLP221 56011 $=
PABI 172353Z 11019G27KT 10SM FEW060 SCT110 BKN160 OVC200 M12/M16
     A3018 RMK AO2 PK WND 10027/2254 SLP270 DRSN ALQDS ACSL DSNT
     SW T11221161 11122 21144 55002=
KDTS 172353Z 14010KT 10SM CLR 16/07 A3004 RMK AO2 SLP170 T01610072
     10172 20156 55009=
KIAG 172353Z 19015KT 10SM BKN100 03/M05 A2983 RMK AO2 SLP113
     T00281050 10028 20022 58020=
KDAA 172355Z AUTO 00000KT 10SM CLR M01/M07 A3010 RMK AO2 SLP196
     T10111068 10089 21012 51004 $=
KFTK 172355Z AUTO 15008KT 10SM FEW180 08/M00 A2979 RMK AO2 SLP095
     T00751002 10100 20056 57012=
KMUI 172355Z AUTO 00000KT 10SM CLR M00/M06 A3006 RMK AO2 SLP187
     T10041058 10049 21014 50009=
KXMR 172355Z AUTO 36003KT 10SM BKN039 BKN090 14/10 A3006 RMK AO2
     SLP182 T01370103 10200 20136 58002 $=
PABI 172353Z 11019G27KT 10SM FEW060 SCT110 BKN160 OVC200 M12/M16
     A3018 RMK AO2 PK WND 10027/2254 SLP270 DRSN ALQDS ACSL DSNT
     SW T11221161 11122 21144 55002=
PHBK 172351Z AUTO 36015KT 10SM FEW017 24/17 A2993 RMK AO2 PK WND
     01026/2254 SLP136 T02440167 10250 20206 58016=
KMUI 172355Z AUTO 00000KT 10SM CLR M00/M06 A3006 RMK AO2 SLP187
     T10041058 10049 21014 50009=
KBAB 172355Z AUTO 21006KT 10SM CLR 14/06 A3017 RMK AO2 SLP220
     T01380059 10154 20101 55007 $=
KCBM 172355Z AUTO 20007KT 10SM CLR 14/02 A2990 RMK AO2 SLP128
     T01350015 10167 20135 57009 $=
KCVS 172355Z AUTO 05009KT 10SM CLR 10/M06 A2972 RMK AO2 SLP051
     T00991056 10165 20099 53037 $=
KDAA 172355Z AUTO 00000KT 10SM CLR M01/M07 A3010 RMK AO2 SLP196
     T10111068 10089 21012 51004 $=
KDYS 172355Z 25016G28KT 3SM HZ BKN034 OVC040 19/M02 A2968 RMK A02A
     PK WND 25028/2318 SLP036 WND DATA ESTMD T01931023 10148 20104
     402170060 52006=
KEND 172355Z AUTO 35022G29KT 10SM FEW150 10/M01 A2955 RMK AO2 PK
     WND 34029/51 SLP011 T00971014 10171 20097 52038 $=
KFTK 172355Z AUTO 15008KT 10SM FEW180 08/M00 A2979 RMK AO2 SLP095
     T00751002 10100 20056 57012=
KGXF 172355Z AUTO 25010KT 8SM CLR 19/M05 A3006 RMK AO2 SLP175
     T01941055 10200 20158 55004 FZRANO $=
KHMN 172355Z AUTO 24014KT 10SM CLR 14/M08 A2992 RMK AO2 SLP104
     T01421085 10161 20116 53004 $=
KHRT 172355Z AUTO 15007KT 10SM OVC210 15/08 A3002 RMK AO2 SLP164
     T01520075 10175 20151 57011 $=
KLHW 172355Z AUTO 13005KT 10SM CLR 09/01 A3007 RMK AO2 SLP186
     T00920009 10178 20088 52007 $=
KLSV 172355Z AUTO 06007KT 10SM CLR 16/M11 A2996 RMK AO2 SLP145
     T01561110 10163 20091 56011 $=
KMUI 172355Z AUTO 00000KT 10SM CLR M00/M06 A3006 RMK AO2 SLP187
     T10041058 10049 21014 50009=
KLSV 172355Z AUTO 06007KT 10SM CLR 16/M11 A2996 RMK AO2 SLP145
     T01561110 10163 20091 56011 $=
KBAB 172355Z AUTO 21006KT 10SM CLR 14/06 A3017 RMK AO2 SLP220
     T01380059 10154 20101 55007 $=
KCBM 172355Z AUTO 20007KT 10SM CLR 14/02 A2990 RMK AO2 SLP128
     T01350015 10167 20135 57009 $=
KCVS 172355Z AUTO 05009KT 10SM CLR 10/M06 A2972 RMK AO2 SLP051
     T00991056 10165 20099 53037 $=
KEND 172355Z AUTO 35022G29KT 10SM FEW150 10/M01 A2955 RMK AO2 PK
     WND 34029/51 SLP011 T00971014 10171 20097 52038 $=
KGXF 172355Z AUTO 25010KT 8SM CLR 19/M05 A3006 RMK AO2 SLP175
     T01941055 10200 20158 55004 FZRANO $=
KHMN 172355Z AUTO 24014KT 10SM CLR 14/M08 A2992 RMK AO2 SLP104
     T01421085 10161 20116 53004 $=


400 
SAUS80 KWBC 180000 RRC
METAR
KHVR 172353Z AUTO 32007KT 10SM SCT023 BKN090 OVC110 M09/M14 A3030
     RMK AO2 SLP304 60000 T10941139 11078 21094 53009=
KDRT 172353Z AUTO 14009KT 10SM CLR 20/06 A2979 RMK AO2 SLP085
     T02000061 10228 20150 55005=
KELY 172353Z AUTO 32009G17KT 10SM CLR 07/M09 A3000 RMK AO2 SLP168
     T00671094 10083 20056 53004=
KEMP 172353Z AUTO 34011KT 10SM CLR 04/M01 A2960 RMK AO2 SLP032
     T00391006 10089 20039 51029=
KGCC 172353Z AUTO 32015KT 7SM FEW017 BKN024 OVC029 M08/M11 A3003
     RMK AO2 SNE11 SLP209 P0000 60000 T10781106 11039 21078 51017
     $=
KGEG 172353Z 15005KT 10SM FEW010 FEW020 FEW055 M01/M05 A3028 RMK
     AO2 SLP281 T10111050 11011 21039 53004=
KJBR 172353Z AUTO 18011G18KT 10SM -RA OVC085 09/03 A2979 RMK AO2
     RAB20 SLP089 P0000 60000 T00940028 10139 20094 56011 $=
KJLN 172353Z 25008KT 8SM -RA BKN031 BKN038 OVC080 09/05 A2960 RMK
     AO2 PK WND 19027/2255 RAB23 SLP025 P0001 60001 T00890050
     10167 20089 53023=
KLAX 172353Z 23009KT 10SM FEW010 SCT035 14/07 A3016 RMK AO2 SLP212
     T01390067 10156 20139 56013=
KLBB 172353Z 28025G34KT 7SM FEW000 17/M06 A2966 RMK AO2 PK WND
     27040/2303 SLP019 BLDU FEW000 BLDU ALQDS T01671061 10194
     20167 53021=
KODX 172353Z AUTO 34025G34KT 10SM FEW029 OVC095 M01/M08 A2985 RMK
     AO2 PK WND 34040/2311 SLP133 T10111083 10083 21011 53043=
KPDX 172353Z 33005KT 10SM FEW007 BKN015 04/00 A3043 RMK AO2 SLP305
     T00440000 10050 20039 55002=
KLIT 172353Z 18004KT 10SM -RA OVC045 08/04 A2979 RMK AO2 RAB06
     SLP089 P0001 60001 T00780044 10133 20078 56016=
KLND 172353Z AUTO 09003KT 1/4SM SN FZFG VV012 M08/M10 A2998 RMK
     AO2 SLP205 P0004 60025 T10831100 11022 21083 53019=
KLWD 172353Z AUTO 35010KT 10SM CLR 04/M01 A2961 RMK AO2 SLP036
     T00441011 10100 20044 53027=
KLXV 172353Z AUTO 32007KT 10SM SCT055 OVC080 M04/M14 A2981 RMK AO2
     SLP082 T10441144 11006 21044 50002=
KMCN 172353Z 16003KT 10SM CLR 12/M03 A3007 RMK AO2 SLP182
     T01221033 10167 20122 53005=
KPGA 172353Z AUTO 00000KT 10SM CLR 09/M08 A2991 RMK AO2 SLP128
     T00941078 10094 20017 55007=
KPOF 172353Z AUTO 18009KT 10SM FEW080 BKN110 10/03 A2974 RMK AO2
     SLP076 T01000028 10133 20100 55010=
KMGM 172353Z 15004KT 10SM CLR 13/01 A3001 RMK AO2 SLP163 T01280006
     10178 20122 56006=
KMLU 172353Z 32004KT 10SM FEW032 BKN090 OVC110 10/06 A2986 RMK AO2
     RAE48 SLP111 P0001 60001 T01000056 10144 20100 55030=
KMSO 172353Z 00000KT 3SM -SN BR OVC036 M04/M06 A3021 RMK AO2
     SLP267 P0000 60003 T10391056 11011 21044 53007=
KSTC 172353Z 31019G26KT 10SM BKN022 BKN027 OVC035 M06/M11 A2970
     RMK AO2 PK WND 31034/2321 PRESRR SLP080 T10611111 10028 21061
     53061=
KRIW 172353Z AUTO 02021G28KT 1 3/4SM -SN OVC019 M09/M12 A2998 RMK
     AO2 PK WND 02029/2317 SLP206 P0002 60009 T10941122 11044
     21094 53023=
KRMG 172353Z AUTO 18003KT 10SM CLR 11/M03 A2998 RMK AO2 SLP153
     T01061028 10150 20094 55001=
KRNM 172353Z 25007KT 10SM CLR 14/03 A3014 RMK AO2 SLP209 T01390028
     10156 20111 56012=
KSAV 172353Z 13006KT 10SM FU FEW250 09/03 A3011 RMK AO2 SLP198
     T00890028 50006=
KSDM 172353Z 25006KT 10SM CLR 14/06 A3017 RMK AO2 SLP214 T01440061
     10167 20139 56009 $=
KSEA 172353Z 02007KT 10SM BKN031 05/01 A3045 RMK AO2 SLP320
     T00500006 10061 20028 53002=
KTLH 172353Z 00000KT 10SM CLR 12/M01 A3008 RMK AO2 SLP185
     T01171011 10200 20117 53004=
KTRI 172353Z 00000KT 10SM SCT230 02/M06 A2996 RMK AO2 SLP149
     T00221061 10111 20022 56010=
KTUP 172353Z AUTO 17007KT 10SM FEW075 BKN095 OVC120 12/01 A2991
     RMK AO2 SLP129 T01170006 10150 20117 58012 $=


401 
SAUS70 KWBC 180000 RRO
METAR
KMIA 172353Z 11012KT 10SM BKN030 BKN039 OVC047 21/17 A3004 RMK AO2
     RAB15E24 SLP171 P0000 60003 T02110172 10211 20194 58005 $=
KMIC 172353Z 30015G34KT 10SM OVC038 M03/M09 A2963 RMK AO2 PK WND
     29036/2308 SLP043 T10281094 10033 21028 53048=
KMKL 172353Z 19009KT 10SM OVC110 13/M01 A2986 RMK AO2 SLP110
     T01331006 10167 20128 57007 $=
KMKO 172353Z AUTO 18012G20KT CLR 12/03 A2961 RMK AO2 PK WND
     17026/2300 SLP027 60000 T01170028 10144 20111 55007=
KMLB 172353Z 04005KT 10SM BKN039 OVC070 17/09 A3008 RMK AO2 SLP186
     T01670094 10194 20167 57007=
KMLC 172353Z AUTO 18009G18KT 160V230 10SM FEW070 FEW110 12/03
     A2959 RMK AO2 SLP016 60000 T01170033 10156 20117 58005=
KMLP 172353Z AUTO 35003KT 2 1/2SM -SN BR OVC001 M08/M11 A3007 RMK
     AO2 VIS 1V4 SLP251 P0000 60000 T10831106 11067 21083
     52006=
KMLS 172353Z AUTO 35015KT 10SM OVC085 M09/M13 A3020 RMK AO2 SLP261
     60000 T10941133 11056 21094 51028=
KMMV 172353Z AUTO A3041 RMK AO2 SLPNO 56003 PWINO FZRANO=
KMOD 172353Z 34004KT 10SM CLR 16/03 A3017 RMK AO2 SLP216 T01560028
     10161 20078 55009=
KMPO 172353Z AUTO 18004KT 10SM SCT031 M03/M07 A3000 RMK AO2 SLP186
     T10281072 11017 21028 50005=
KMSL 172353Z AUTO 18008KT 10SM BKN110 14/M01 A2991 RMK AO2 SLP129
     T01391006 10172 20133 58008=
KMSP 172353Z 31023G36KT 10SM -SN BKN038 M03/M09 A2963 RMK AO2 PK
     WND 31036/2347 SLP043 4/001 T10281089 10033 21028 53046=
KMSY 172353Z 11007KT 10SM SCT032 SCT065 BKN210 14/09 A2996 RMK AO2
     SLP147 T01440094 10189 20144 58017=
KMTH 172353Z AUTO 09011KT 10SM SCT026 BKN037 BKN100 22/21 A2999
     RMK AO2 SLP154 60002 T02170206 55004=
KMTJ 172353Z AUTO 35005KT 10SM CLR 02/M12 A2988 RMK AO2 SLP137
     T00221117 10039 21022 53003=
KMTO 172353Z AUTO 16011KT BKN110 06/M01 A2966 RMK AO2 SLP050
     T00561006 10061 20056 58004 $=
KMWL 172353Z AUTO 22014KT 5SM HZ OVC049 21/01 A2959 RMK AO2 SLP013
     T02060006 10228 20150 55009=
KMYF 172353Z 23007KT 10SM CLR 14/07 A3017 RMK AO2 SLP216 T01390067
     10156 20128 56010 $=
KSFF 172353Z 00000KT 10SM FEW016 01/M05 A3031 RMK AO2 SLP285
     T00061050 10006 21039 53003=
KSGR 172353Z 18010KT 10SM CLR 18/14 A2980 RMK AO2 SLP092 60000
     T01830139 10200 20183 55024=
KSHN 172353Z AUTO 10006KT 10SM BKN036 07/03 A3042 RMK AO2 SLP308
     T00670028 10072 21006 55001=
KSHR 172353Z AUTO 33017KT 4SM HZ OVC034 M08/M11 A3012 RMK AO2
     SLP247 60000 T10781111 11044 21078 51018=
KSIY 172353Z AUTO 00000KT 10SM CLR 10/01 A3019 RMK AO2 SLP245
     T01000011 10106 20000 55005 PWINO $=
KSJC 172353Z 33008KT 10SM CLR 14/07 A3020 RMK AO2 SLP225 T01440072
     10167 20100 56009=
KSLN 172353Z 36015KT 10SM CLR 03/M01 A2970 RMK AO2 SLP065
     T00331011 10044 20028 53041=
KSMF 172353Z 18006KT 10SM CLR 14/06 A3018 RMK AO2 SLP218 T01440061
     10156 20083 56009=
KSMQ 172353Z AUTO 00000KT 10SM BKN050 M02/M05 A3010 RMK AO2 SLP196
     T10221050 10061 21022 53013=
KSNA 172353Z 19007KT 10SM FEW033 16/07 A3015 RMK AO2 SLP211
     T01560072 10161 20139 56014=
KSNK 172355Z AUTO 27022G28KT 10SM CLR 19/M04 A2970 RMK AO2
     T01861037=
KSNS 172353Z 31007KT 10SM SCT025 12/07 A3021 RMK AO2 SLP239
     T01220072 10139 20072 55009=
KSNY 172353Z AUTO 01015G23KT 10SM FEW013 SCT026 OVC033 M02/M07
     A2987 RMK AO2 PK WND 35028/2326 UPB29E31SNB31E40 SLP139 P0000
     60000 T10221067 10006 21022 53016=
KSPG 172353Z 08006KT 10SM SCT055 16/13 A3005 RMK AO1 SLP175
     T01560133 10183 20156 53002=
KSPW 172353Z AUTO 33026G36KT 10SM FEW033 SCT120 M01/M09 A2974 RMK
     AO2 PK WND 33036/2352 SLP085 T10111094 10067 21011 53046
     PWINO FZRANO $=


402 
SAUS70 KWBC 180000 RRP
METAR
KSRQ 172353Z 07005KT 10SM BKN085 19/09 A3005 RMK AO2 SLP176
     T01940089 10217 20194 53004=
KSSF 172353Z 31003KT 10SM CLR 16/09 A2981 RMK AO2 SLP095 60000
     T01560094 10167 20133 55000=
KSTJ 172353Z 36004KT 10SM CLR 04/M02 A2964 RMK AO2 SLP039
     T00441017 10089 20028 53027=
KSTP 172353Z 32026G36KT 10SM OVC039 M01/M08 A2963 RMK AO2 PK WND
     31036/2347 PRESRR SLP039 T10111078 10039 21011 51047=
KSTS 172353Z 15007KT 10SM SCT022 12/08 A3020 RMK AO2 SLP222
     T01220078 10133 20050 55008=
KSWO 172353Z 18005KT 10SM CLR 11/02 A2954 RMK AO2 SLP001 60000
     T01060022 10167 20106 51024=
KTCL 172353Z 16004KT 10SM CLR 14/00 A2997 RMK AO2 SLP148 T01390000
     10167 20139 58005=
KTDZ 172353Z AUTO 18017G26KT 10SM CLR 03/M03 A2974 RMK AO2 PK WND
     17027/2319 SLP075 T00281033 10050 20028 56027=
KTHV 172353Z AUTO 00000KT 10SM CLR 00/M06 A3008 RMK AO2 SLP193
     T00001061 10050 21006 50005 $=
KRBD 172353Z 18013G21KT 10SM CLR 14/06 A2963 RMK AO2 PK WND
     21026/2312 SLP031 T01440061 10161 20122 56015=
KRBG 172353Z AUTO 14003KT 10SM OVC022 06/01 A3035 RMK AO2 SLP281
     T00560011 10061 20033 55003=
KRDD 172353Z 00000KT 10SM CLR 16/02 A3017 RMK AO2 SLP216 T01560017
     10161 20089 55006=
KRHI 172353Z AUTO 26010KT 10SM FEW026 OVC037 01/M04 A2938 RMK AO2
     SLP966 T00061039 10017 20006 53016=
KRIL 172353Z AUTO 13005KT 10SM BKN075 01/M09 A2986 RMK AO2 SLP147
     T00061089 10006 21061 55006=
KRKP 172353Z AUTO 18009G18KT 8SM CLR 18/16 A2980 RMK AO2 SLP092
     T01830161 10228 20183 56025=
KRNT 172353Z 03005KT 10SM OVC037 07/01 A3046 RMK AO2 SLP318
     T00670011 10072 20044 53002=
KRSL 172353Z AUTO 01016KT 10SM CLR 04/M03 A2973 RMK AO2 PK WND
     01027/2311 SLP082 T00391033 10067 20039 53051=
KRSW 172353Z 07008KT 2 1/2SM BR HZ OVC007 17/17 A3006 RMK AO1
     SLP176 P0006 60006 T01670167 10211 20167 53002=
KRUE 172353Z AUTO 16004KT 10SM BKN049 OVC055 11/M01 A2970 RMK AO2
     SLP054 60001 T01061006 10133 20100 56016=
KRVS 172353Z 19008KT 10SM CLR 12/03 A2957 RMK AO2 SLP018 60004
     T01170028 10144 20089 55002=
KRWF 172353Z AUTO 32021G34KT 10SM CLR M07/M12 A2976 RMK AO2 PK WND
     30042/2304 SLP095 60000 T10671117 10044 21067 52050=
KRWI 172353Z AUTO 00000KT 10SM CLR 02/M03 A3015 RMK AO2 SLP211
     T00221033 10111 20022 53004=
KRWL 172353Z AUTO 01008KT 3SM -SN OVC024 M08/M11 A2986 RMK AO2
     SLP147 P0001 60003 T10781106 11011 21078 51018=
KRXE 172353Z AUTO 00000KT 10SM BKN090 M05/M06 A3002 RMK AO2 SLP206
     60001 T10501061 11022 21061 53016=
KSAC 172353Z AUTO VRB03KT 10SM CLR 14/07 A3018 RMK AO2 SLP220
     T01390067 10144 20072 56009=
KSBA 172353Z 12007KT 10SM CLR 14/10 A3014 RMK AO2 SLP205 T01440100
     10161 20144 56021 $=
KSDC 172355Z AUTO 00000KT 10SM CLR 00/M03 A2992 RMK AO2=
KSEG 172353Z AUTO 00000KT 10SM CLR M03/M05 A3005 RMK AO2 SLP182
     T10281050 10033 21033 53000=
KSFB 172353Z 11003KT 10SM CLR 14/06 A3010 RMK AO1 SLP194 T01440061
     10206 20139 53006=
KTIW 172353Z 02006KT 10SM CLR 07/02 A3045 RMK AO2 SLP314 60001
     T00670022 10072 20039 53000 $=
KTKI 172353Z 17014KT 10SM CLR 13/06 A2964 RMK AO2 SLP044 60000
     T01330061 10156 20122 56010=
KTMB 172353Z 12010KT 10SM SCT039 BKN047 OVC055 21/19 A3003 RMK AO2
     RAE01 SLP168 P0000 60002 T02060189 10206 20194 58006=
KTOI 172353Z AUTO 15003KT 10SM CLR 13/01 A3003 RMK AO2 SLP169
     T01330006 10172 20133 55005=
KTOP 172353Z 32005KT 10SM CLR 04/M02 A2964 RMK AO2 SLP042
     T00441022 10089 20039 53033=


403 
SAPQ50 KWBC 180000
METAR
PTPN 172351Z 08007KT 15SM SCT018 BKN300 30/26 A2982=
PTRO 172350Z 07007G15KT 14SM SCT016TCU BKN130 BKN310 29/25 A2981
     RMK HZ ALQDS TCU ALQDS=
PTSA 172354Z 09011KT 10SM BKN022TCU BKN130 OVC300 30/24 A2978 RMK
     TCU NE-SW=


405 
SAUS70 KWBC 180000 RRM
METAR
KODO 172353Z AUTO 27020G34KT 4SM HZ OVC033 16/M06 A2980 RMK AO2 PK
     WND 26045/2318 SLP066 T01611061 10183 20161 53013=
KOGB 172353Z AUTO 12006KT 10SM CLR 11/M02 A3010 RMK AO2 SLP194
     T01061017 10150 20089 53004=
KOGD 172353Z 35014G24KT 10SM FEW060 OVC080 02/M05 A3000 RMK AO2
     WSHFT 2311 SLP171 T00171050 10061 20011 53011=
KOJC 172353Z 33008KT 10SM OVC046 07/00 A2961 RMK AO2 SLP029
     T00720000 10106 20072 53024=
KOKC 172352Z 16011KT 10SM SCT250 12/04 A2951 RMK AO2 SLP990 60000
     T01220039 10161 20100 53001=
KOLF 172353Z AUTO 32013KT 10SM BKN026 M10/M16 A3026 RMK AO2 SLP280
     T11001161 11072 21100 51017=
KOMK 172353Z AUTO 02010KT 10SM 03/M06 A3036 RMK AO2 SLP299
     T00281061 10044 21039 $=
KONO 172353Z AUTO 32017KT 10SM CLR 04/M06 A3025 RMK AO2 PK WND
     32030/2254 SLP265 T00441061 10072 20039 53009=
KONT 172353Z 24005KT 10SM BKN045 14/04 A3014 RMK AO2 SLP208
     T01440039 10150 20100 56015=
KOPF 172353Z 11007KT 10SM SCT047 OVC060 20/18 A3004 RMK AO2
     RAE00B24E53 SLP173 P0000 60003 T02000178 10206 20189
     58005=
KORL 172353Z 06006KT 10SM CLR 15/06 A3010 RMK AO2 SLP198 T01500061
     10206 20150 53005=
KOTM 172353Z AUTO 32010KT 10SM CLR 04/M02 A2958 RMK AO2 SLP022
     T00391017 10128 20039 53023=
KOVE 172353Z AUTO 29003KT 10SM CLR 14/03 A3019 RMK AO2 SLP226
     T01440033 10156 20117 55009=
KPAE 172353Z AUTO 36006KT 10SM CLR 06/00 A3044 RMK AO2 SLP314
     T00610000 10061 20028 55001=
KPAH 172353Z VRB06G17KT 10SM BKN120 13/M02 A2976 RMK AO2 SLP079
     T01331017 10150 20128 56012=
KPBF 172353Z AUTO 16009KT 10SM -RA BKN049 BKN060 OVC080 09/04
     A2981 RMK AO2 SLP093 P0000 60000 T00940044 10139 20094
     56019=
KPBG 172353Z AUTO 17004KT 10SM OVC048 M02/M06 A2997 RMK AO2 SLP153
     T10171061 11011 21022 50002=
KPBI 172353Z 12011KT 10SM SCT030 OVC065 21/17 A3006 RMK AO2
     RAB04E13 SLP179 P0000 60009 T02060172 10211 20189 58005 $=
KPDK 172353Z 14003KT 10SM CLR 11/M07 A3003 RMK AO2 SLP178
     T01111067 10150 20106 53001=
KPDT 172353Z 31004KT 10SM CLR 05/M03 A3035 RMK AO2 SLP282 60000
     T00501033 10056 20017 53001=
KLFT 172353Z 00000KT 10SM OVC031 16/07 A2993 RMK AO2 SLP135
     T01610072 10178 20156 55014=
KLLQ 172353Z AUTO 16008KT 10SM -RA SCT050 OVC085 09/04 A2982 RMK
     AO2 RAE19B39 PRESFR SLP096 P0001 60001 T00890039 10139 20089
     56026=
KLMT 172353Z 33006KT 10SM CLR 04/M03 A3019 RMK AO2 SLP239
     T00441033 10067 20028 53001=
KLNS 172353Z 19005KT 10SM CLR 01/M06 A3009 RMK AO2 SLP195
     T00111061 10061 20011 51010=
KLOL 172353Z AUTO 04010KT 10SM CLR 08/M04 A3011 RMK AO2 WSHFT 2323
     SLP218 T00831039 10111 20000 53003=
KLPR 172353Z AUTO 19016KT 10SM CLR 02/M06 A2981 RMK AO2 SLP102
     T00221056 10033 20022 56020 PWINO FZRANO $=
KLSE 172353Z 31013KT 10SM FEW038 BKN120 03/M05 A2953 RMK AO2
     SLP008 T00331050 10083 20033 51020=
KLVJ 172353Z AUTO 17006KT 10SM CLR 18/14 A2981 RMK AO2 SLP094
     T01830144 10206 20183 55030=
KLVK 172353Z AUTO 29008KT 10SM CLR 13/ A3018 RMK AO2 SLP220 T0133
     10144 20072=
KLVM 172353Z AUTO 30009G18KT 10SM OVC037 M10/M16 A3015 RMK AO2
     SLP262 T11001161 11056 21100 53013=
KMAE 172353Z AUTO 31004KT 10SM CLR 18/02 A3017 RMK AO2 SLP215
     T01780022 10189 20100 56013=
KMAF 172353Z 28024G34KT 4SM BLDU OVC037 16/M03 A2978 RMK AO2 PK
     WND 29042/2323 SLP063 T01561033 10178 20156 53011=
KMAI 172353Z AUTO 20004KT 10SM CLR 14/02 A3003 RMK AO2 SLP169
     T01440022 10189 20139 58005=
KMBS 172353Z 19017G29KT 10SM CLR 03/M03 A2955 RMK AO2 PK WND
     18031/2300 SLP015 T00281033 10039 20022 58020=


406 
SAUS70 KWBC 180000 RRK
METAR
KDLN 172353Z AUTO 07011KT 10SM BKN045 OVC060 M09/M14 A3008 RMK AO2
     SLP236 T10941144 11067 21094 53011=
KDLS 172353Z AUTO 32003KT 10SM CLR 08/M01 A3038 RMK AO2 SLP288
     T00831011 10094 20033 53000=
KDMO 172353Z AUTO 28003KT 10SM BKN120 10/M01 A2958 RMK AO2 SLP019
     T01001006 10122 20094 53013=
KDNL 172353Z AUTO 00000KT 10SM CLR 12/M03 A3008 RMK AO2 SLP185
     T01171033 10150 20117 53000=
KDRO 172353Z AUTO 23009G15KT 10SM CLR 04/M16 A2985 RMK AO2 PK WND
     25030/2257 SLP137 T00391161 10072 20006 53007=
KDTN 172353Z 16009KT 10SM CLR 11/06 A2978 RMK AO2 SLP084 60000
     T01110056 10122 20106 58013=
KDTO 172353Z 15009KT 10SM FEW080 15/05 A2961 RMK AO2 SLP023 60000
     T01500050 10183 20128 56013=
KDTW 172353Z 17013KT 10SM FEW140 SCT230 02/M03 A2973 RMK AO2
     SLP075 T00171033 10033 20017 58016=
KDVT 172353Z 24009KT 10SM CLR 16/M04 A3005 RMK AO2 SLP167
     T01611044 10167 20133 55006=
KDWH 172353Z 22004KT 10SM OVC030 18/13 A2981 RMK AO2 SLP094 60000
     T01830128 10189 20161 55014=
KDXR 172353Z 00000KT 10SM OVC050 01/M04 A3010 RMK AO2 SLP197
     T00061044 10056 20000 53013=
KECP 172353Z 24003KT 10SM CLR 12/04 A3006 RMK AO1 SLP193 T01170039
     10189 20117 50003=
KEEO 172353Z AUTO 25013KT 10SM BKN070 02/M08 A2981 RMK AO2 SLP136
     T00171078 10039 21022 55000=
KEET 172353Z AUTO 00000KT 10SM CLR 13/M02 A2998 RMK AO2 SLP154
     T01281017 10161 20128 58006=
KELD 172353Z AUTO 14007KT 10SM BKN120 08/06 A2978 RMK AO2 RAE09
     SLP083 P0001 60001 T00830056 10117 20083 56033 $=
KELM 172353Z 19004KT 10SM BKN037 01/M06 A2995 RMK AO2 SLP152
     T00061056 10028 20006 58005=
KELN 172353Z AUTO 12005KT 10SM CLR 04/M04 A3032 RMK AO2 SLP282
     T00441039 10050 20006 56001=
KEMT 172345Z 19007KT 10SM SCT050 16/06 A3015=
KEQY 172353Z AUTO 00000KT 10SM CLR 06/M04 A3009 RMK AO2 SLP209
     T00561039 10128 20056 53004=
KESF 172353Z AUTO 18006KT 10SM BKN100 12/06 A2982 RMK AO2 RAE2254
     SLP099 P0000 60002 T01220056 10150 20106 58037=
KEVW 172353Z AUTO 31019G26KT 9SM FEW011 BKN044 OVC060 M05/M08
     A2989 RMK AO2 PK WND 28026/2259 SNB19E28 SLP150 P0000 60000
     T10501083 10006 21050 53012=
KGAG 172353Z AUTO 01017G35KT 10SM CLR 07/M02 A2967 RMK AO2 PK WND
     01038/2340 PRESRR SLP050 T00721017 10161 20072 53067=
KGEY 172353Z AUTO 32030G39KT 10SM CLR M07/M13 A3005 RMK AO2 PK WND
     32044/2336 SLP229 T10671133 11028 21067 53023=
KGFK 172353Z 34019G35KT 10SM FEW027 SCT036 BKN250 M09/M16 A2998
     RMK AO2 PK WND 34035/2349 SLP166 4/003 60000 T10941156 11061
     21094 51058=
KGGE 172355Z AUTO 00000KT 10SM 05/02 A3014 RMK AO2=
KGGG 172353Z 18012KT 10SM CLR 13/08 A2974 RMK AO2 SLP072 60000
     T01280083 10133 20111 56009=
KGGW 172353Z AUTO 33015KT 10SM OVC025 M09/M15 A3024 RMK AO2 SLP280
     60000 T10891150 11072 21094 52016=
KGIF 172353Z AUTO 07005KT 10SM SCT080 SCT095 16/08 A3009 RMK AO2
     SLP189 T01610083 10200 20161 53000=
KGJT 172353Z 29005KT 10SM CLR 03/M12 A2988 RMK AO2 SLP139
     T00281122 10061 21017 55008=
KGKJ 172353Z AUTO VRB06KT 10SM CLR 01/M06 A2985 RMK AO2 SLP122
     T00061061 10017 20006 58011=
KGKY 172353Z 16013G20KT 10SM SCT065 16/06 A2963 RMK AO2 SLP031
     T01560056 10183 20128 56012=
KGLD 172353Z AUTO 36012KT 10SM CLR 01/M07 A2982 RMK AO2 PK WND
     02030/2302 SLP115 T00061067 10122 20006 51039=
KGLH 172353Z 16012KT 10SM -RA FEW070 OVC090 11/04 A2984 RMK AO2
     SLP113 P0001 60001 T01060039 10128 20100 58029 $=
KGMU 172353Z 13003KT 10SM CLR 09/M04 A3007 RMK AO2 SLP185
     T00891044 10128 20083 53003=


408 
SAUS80 KWBC 180000 RRD
METAR
KTYS 172353Z 06003KT 10SM SCT150 BKN250 08/M04 A2994 RMK AO2
     SLP141 T00831039 10133 20078 56015=
KUIL 172353Z AUTO 27007KT 10SM CLR 07/02 A3044 RMK AO2 SLP309
     T00720017 10094 20017 55002=
KVTN 172352Z AUTO 35016G28KT 10SM BKN025 OVC031 M04/M09 A2995 RMK
     AO2 PK WND 36033/2301 SLP173 T10441089 10022 21044 53028=
KYKM 172353Z 00000KT 10SM FEW060 07/M05 A3035 RMK AO2 SLP290
     T00671050 10078 20022 55000=
PHNL 172353Z 18011KT 10SM FEW023 SCT038 SCT050 26/19 A2992 RMK AO2
     SLP132 T02610189 10278 20211 56021 PNO VISNO RWY04R $=
PHNL 172353Z 18011KT 10SM FEW023 SCT038 SCT050 26/19 A2992 RMK AO2
     SLP132 T02610189 10278 20211 56021 PNO VISNO RWY04R $=
PHTO 172353Z 01009KT 8SM CLR 27/21 A2989 RMK AO2 SLP121 T02670206
     10267 20194 56035=
PHKO 172353Z 23011KT 10SM FEW050 28/19 A2992 RMK AO2 SLP131
     T02780189 10278 20233 56031=
PHLI 172353Z 04013KT 10SM BKN043 26/17 A2995 RMK AO2 RAB2255E27
     SLP139 P0000 60000 T02560167 10261 20194 58015 $=
PHJR 172353Z 20009KT 10SM FEW060 27/19 A2993 RMK AO2 SLP141 60004
     T02720189 10283 20211 56021=
KGRR 172353Z 19017G30KT 10SM BKN150 04/M02 A2955 RMK AO2 PK WND
     20030/2350 SLP013 4/004 T00441022 10044 20022 58017=
KMBG 172352Z AUTO 35014G26KT 10SM FEW022 SCT032 M08/M14 A3004 RMK
     AO2 PK WND 34036/2301 SNE39 SLP195 P0000 60000 T10831139
     11011 21083 51031=
KDBQ 172353Z 27007KT 10SM CLR 04/M02 A2952 RMK AO2 SLP006
     T00391022 10106 20033 51013=
KSAN 172351Z 21007KT 10SM SCT029 16/09 A3019 RMK AO2 SLP223
     T01560089 10167 20139 56010=
KMSN 172353Z 00000KT 10SM SCT160 BKN190 05/M03 A2948 RMK AO2
     SLP989 T00501033 10100 20050 53008=
KBNO 172354Z 35006KT 10SM FEW049 01/M08 A3023=
KDMN 172353Z AUTO 28021G28KT 10SM CLR 12/M06 A2999 RMK AO2 PK WND
     26032/2258 SLP128 T01171061 10139 20111 51004=
KRQE 172353Z AUTO 27010G22KT 10SM CLR 06/M12 A2994 RMK AO2 PK WND
     26026/2255 SLP114 T00611122 10083 20050 53002=
KTCS 172353Z AUTO 29015KT 10SM CLR 13/M06 A2990 RMK AO2 SLP092
     T01281056 10150 20111 53005=
KDMH 172353Z AUTO 03/M04 A3013 RMK AO1 SLP202 T00331044 10072
     20022 51007=
KATT 172351Z AUTO VRB04KT 10SM CLR 16/10 A2980 RMK AO2 SLP091
     T01560100 10161 20133 56005=
K6R6 172351Z AUTO 25011KT 22/00 A2981 RMK AO1 SLP073 T02220000
     10250 20189 53003=
KCDJ 172351Z AUTO 32005KT 06/M01 A2961 RMK AO1 SLP034 T00611006
     10083 20044 53016=
KNYC 172351Z AUTO 24004KT 10SM FEW050 04/M07 A3013 RMK AO2 SLP195
     T00391067 10056 20033 51016=
KSDB 172351Z AUTO 10SM CLR 08/M09 A3015 RMK AO2 PK WND 32027/2304
     SLP196 60000 T00781089 10100 20078 58006 $=


409 
SAUS70 KWBC 180000 RRJ
METAR
KFOE 172353Z 35009KT 10SM CLR 04/M02 A2963 RMK AO2 SLP039
     T00441022 10078 20039 53030=
KFOK 172353Z 00000KT 10SM CLR M06/M08 A3014 RMK AO2 SLP209 6////
     T10561078 10044 21061 53013=
KFPR 172353Z 00000KT 10SM BKN009 BKN014 OVC041 17/15 A3008 RMK AO2
     RAE07 SLP186 P0000 60000 T01670150 10206 20161 50000=
KFRG 172353Z 18003KT 10SM CLR 01/M04 A3012 RMK AO2 SLP200
     T00061044 10050 20006 52016=
KFRH 172355Z AUTO 18003KT 10SM CLR 08/00 A2976 RMK AO1=
KFSM 172353Z 13004KT 10SM -RA FEW038 SCT080 BKN095 10/06 A2963 RMK
     AO2 RAB2259 SLP035 P0004 60004 T01000056 10156 20100
     58018=
KFTW 172353Z 16009KT 10SM OVC055 14/06 A2961 RMK AO2 SLP023
     T01440056 10178 20117 56011=
KFTY 172353Z 13003KT 10SM CLR 12/M07 A3002 RMK AO2 SLP167
     T01171067 10156 20117 53001=
KFUL 172353Z VRB04KT 10SM CLR 16/01 A3014 RMK AO2 SLP208 T01560006
     10161 20133 56014=
KFWN 172353Z AUTO 00000KT 10SM CLR M02/M06 A3008 RMK AO2 SLP191
     T10221061 10061 21028 51013=
KFXE 172353Z 09008KT 10SM -RA BR OVC049 20/18 A3004 RMK AO2 SLP175
     P0002 60011 T02000178 10211 20200 58004=
KFYV 172353Z 14013G22KT 8SM -RA BKN070 OVC080 09/02 A2956 RMK AO2
     RAE24B40 PRESFR SLP009 P0001 60001 T00940022 10150 20094
     58022=
KGZH 172353Z AUTO 20006KT 10SM BKN055 14/01 A3003 RMK AO2 SLP167
     T01390006 10178 20139 55002=
KHBG 172353Z AUTO 14004KT 10SM BKN042 15/05 A2998 RMK AO2 SLP152
     T01500050 10194 20150 58008 $=
KHBR 172353Z AUTO 29008KT 10SM CLR 15/M01 A2949 RMK AO2 SLP985
     T01501011 10228 20111 53013=
KHEI 172353Z AUTO 33020G27KT OVC019 M11/M15 A3008 RMK AO2 PK WND
     33028/2340 SNB01E24 SLP224 P0000 60000 T11111150 11056 21111
     51048=
KHHR 172353Z 23005KT 10SM CLR 15/08 A3016 RMK AO2 SLP211 T01500078
     10167 20139 56013 $=
KHIB 172353Z AUTO 33023G38KT 4SM BLSN OVC032 M07/M15 A2959 RMK AO2
     PK WND 32039/2330 UPB21E45SNE13B27E41 PRESRR SLP040 P0000
     60000 T10721150 10006 21072 51075=
KHIO 172353Z 08006KT 10SM BKN021 04/01 A3041 RMK AO2 SLP301
     T00440011 10056 20011 55002=
KHJO 172353Z AUTO 00000KT 10SM CLR 18/03 A3017 RMK AO2 SLP218
     T01780033 10183 20078 56016=
KHKA 172353Z AUTO 20013G22KT 10SM FEW065 OVC090 12/M01 A2980 RMK
     AO2 SLP091 T01171011 10150 20117 56014 TSNO $=
KHKS 172353Z 17008KT 10SM -RA OVC090 12/04 A2990 RMK AO2 RAB14
     SLP121 P0000 60000 T01220039 10161 20122 58023=
KHKY 172353Z 00000KT 10SM CLR 07/M06 A3006 RMK AO2 SLP175
     T00671061 10117 20061 53008=
KHLN 172353Z 33007KT 10SM FEW055 OVC110 M08/M14 A3024 RMK AO2
     SLP305 T10831139 11067 21083 53003=
KHOT 172353Z AUTO VRB04KT 10SM OVC038 09/03 A2976 RMK AO2 RAE04
     SLP078 P0000 60000 T00890033 10111 20089 56020=
KHOU 172353Z 18011KT 10SM SCT100 OVC170 18/14 A2980 RMK AO2 SLP095
     T01830139 10200 20178 55026=
KHQM 172353Z AUTO 10008KT 10SM CLR 07/02 A3043 RMK AO2 SLP307
     T00670022 10067 20000 55003=
KHRI 172353Z AUTO 00000KT 10SM CLR 08/M04 A3038 RMK AO2 SLP291
     T00781039 10078 20022 55002=
KHRO 172353Z AUTO 19011G20KT 7SM RA OVC070 07/03 A2964 RMK AO2
     RAB2256 SLP040 P0003 60003 T00720028 10133 20067 55006=
KHSI 172353Z AUTO 35019G28KT 10SM OVC110 03/M04 A2978 RMK AO2 PK
     WND 35037/2311 SLP100 T00281044 10100 20028 51040=
KHVN 172353Z 00000KT 8SM FEW060 02/M02 A3011 RMK AO2 SLP195
     T00221022 10033 21028 53009=
KHWO 172353Z 10007KT 10SM -RA OVC055 21/17 A3004 RMK AO2 RAE10B49
     SLP173 P0000 60010 T02110172 10217 20206 58004 $=
KDKK 172353Z AUTO 19020G31KT 10SM FEW120 02/M04 A2985 RMK AO2 PK
     WND 20031/2352 SLP114 T00221044 10028 20022 58015=


410 
SAUS70 KWBC 180000 RRI
METAR
KCKB 172353Z 00000KT 10SM CLR 01/M07 A2995 RMK AO2 SLP147
     T00061067 10044 21006 58009=
KCLM 172353Z AUTO 13004KT 10SM CLR 06/01 A3047 RMK AO2 SLP320
     60000 T00560006 10072 20039 55001=
KCMX 172353Z AUTO 26017G27KT 10SM OVC050 03/M03 A2929 RMK AO2 PK
     WND 27031/2333 SLP927 T00281033 10050 20028 51021=
KCNO 172353Z 28007KT 10SM BKN040 16/06 A3015 RMK AO2 SLP210
     T01560056 10156 20111 56014=
KCOT 172353Z AUTO 00000KT 10SM CLR 21/11 A2981 RMK AO2 SLP090
     T02060106 10228 20161 53006=
KCPR 172353Z 04012G23KT 2SM R03/5500VP6000FT -SN BR OVC016 M09/M11
     A2999 RMK AO2 SLP200 P0002 60004 T10941111 11044 21094
     51021=
KCPS 172353Z 18003KT 9SM RA BKN070 OVC090 09/01 A2964 RMK AO2
     RAB33 SLP039 P0002 60002 T00890006 10111 20072 55002 $=
KCRE 172353Z 09005KT 10SM CLR 08/02 A3015 RMK AO1 SLP209 T00780022
     10106 20072 50001=
KCRG 172353Z AUTO 00000KT 10SM CLR 09/07 A3011 RMK AO2 SLP196
     T00940067 10167 20094 53001=
KCRS 172353Z AUTO 20017G30KT 10SM CLR 16/09 A2970 RMK AO2 PK WND
     20030/2337 SLP057 60000 T01560094 10156 20122 56016=
KCSM 172353Z 34016G26KT 10SM CLR 14/M05 A2953 RMK AO2 PK WND
     34028/2343 PRESRR SLPNO 6//// T01441050 10206 20111 53027
     $=
KCSV 172353Z AUTO 17005KT 10SM CLR 07/M04 A2992 RMK AO2 SLP143
     T00721039 10100 20072 58009=
KCUB 172353Z AUTO 00000KT 10SM CLR 08/M02 A3010 RMK AO2 SLP193
     T00781017 10144 20078 53001=
KCXO 172353Z 21004KT 10SM OVC028 17/12 A2982 RMK AO2 SLP097 60000
     T01720122 10178 20161 55012=
KCYS 172353Z AUTO 01010G21KT 6SM HZ FEW011 BKN028 OVC035 M07/M09
     A2984 RMK AO2 PK WND 35027/2341 SLP129 60001 T10671094 10006
     21067 53015 PWINO FZRANO=
KDCU 172353Z AUTO 17008KT 10SM FEW110 12/00 A2994 RMK AO2 SLP142
     T01170000 10161 20117 58006=
KDEN 172353Z 03019G24KT 9SM -SN OVC020 M03/M08 A2988 RMK AO2 PK
     WND 05026/2333 SNE10B19 SLP130 P0000 60000 T10281078 10106
     21028 51036=
KDEQ 172353Z AUTO 14006KT 10SM CLR 10/04 A2970 RMK AO2 SLP059
     60000 T01000039 10117 20089 56015=
KDET 172353Z 18013G21KT 10SM CLR 03/M03 A2973 RMK AO2 SLP072
     T00281033 10039 20028 56016=
KDEW 172353Z AUTO 00000KT 3SM BR OVC003 M04/M04 A3030 RMK AO2
     SLP292 I6007 T10391044 11028 21056 53004=
KDFI 172353Z AUTO 18012G21KT 10SM CLR 03/M03 A2971 RMK AO2 SLP067
     T00331033 10039 20028 58022=
KDFW 172353Z 17009KT 10SM FEW110 SCT250 15/05 A2961 RMK AO2 SLP025
     T01500050 10172 20128 56011=
KDHN 172353Z 14003KT 10SM CLR 11/05 A3007 RMK AO2 SLP182 T01060050
     10172 20106 56003=
KEYW 172353Z 06006KT 10SM SCT023 SCT037 BKN049 21/21 A2999 RMK AO2
     SLP161 60100 T02110206 10228 20206 51006=
KFCM 172353Z 32016G23KT 10SM FEW033 M03/M09 A2964 RMK AO2 PK WND
     33035/2327 SLP045 T10281089 10044 21028 53045=
KFDR 172353Z AUTO 26010KT 9SM OVC041 18/M02 A2946 RMK AO2 PK WND
     27030/2256 SLP970 60000 T01781022 10239 20122 53005=
KFDY 172353Z AUTO 17017KT 10SM CLR 03/M03 A2975 RMK AO2 PK WND
     17026/2302 SLP078 T00281033 10039 20022 58023 $=
KFFC 172353Z AUTO 00000KT 10SM CLR 09/M03 A3003 RMK AO2 SLP177
     T00891028 10156 20089 53001=
KFHR 172353Z AUTO VRB04KT 10SM CLR 10/01 A3048 RMK AO2 SLP320
     T01000006 10122 20089 55002=
KFLL 172353Z 11013KT 10SM OVC049 21/17 A3003 RMK AO2 RAB06E53
     SLP169 P0000 60018 T02060167 10206 20189 58004=
KFLO 172353Z 15008KT 10SM CLR 08/M01 A3013 RMK AO2 SLP201
     T00831006 10144 20083 53005=
KFMY 172353Z 07006KT 2SM -RA BR OVC047 17/16 A3005 RMK AO2 RAB2257
     SLP177 P0001 60001 T01720161 10222 20172 53002=


411 
SAUS70 KWBC 180000 RRF
METAR
KIJD 172352Z AUTO 00000KT 10SM OVC055 M01/M06 A3011 RMK AO2 SLP199
     T10111061 10022 21017 53014=
KMLI 172352Z 21005KT 10SM BKN060 06/M01 A2953 RMK AO2 SLP003
     T00561011 10133 20056 53010=
KOMA 172352Z 35018G25KT 10SM BKN120 BKN250 03/M05 A2972 RMK AO2 PK
     WND 35034/2257 SLP074 T00281050 10100 20028 52046=
KORE 172352Z AUTO 14003KT 10SM SCT034 OVC050 M03/M07 A3007 RMK AO2
     SLP194 T10281072 10017 21028 51014=
KPYM 172352Z AUTO 00000KT 10SM CLR M04/M09 A3010 RMK AO2 SLP198
     T10441094 10028 21061 51017=
KRAP 172352Z 34017G32KT 9SM -SN SCT017 OVC060 M05/M09 A3001 RMK
     AO2 PK WND 34034/2256 SNB24 SLP194 P0000 60000 T10501094
     11022 21050 53031=
KRID 172355Z AUTO 14011KT 10SM CLR 01/M02 A2979 RMK AO2=
KSPI 172352Z 17013KT 10SM OVC065 06/M01 A2961 RMK AO2 SLP030
     T00561006 10072 20050 55003 $=
KSUX 172352Z 34024G34KT 10SM FEW035 OVC100 00/M07 A2978 RMK AO2 PK
     WND 35041/2307 SLP098 T00001072 10100 20000 53045=
KTAN 172352Z AUTO 00000KT 10SM CLR M06/M09 A3012 RMK AO2 SLP199
     T10611094 10028 21061 53021=
KUES 172345Z 22008KT 10SM CLR 06/M05 A2948=
KCLS 172355Z AUTO 36004KT 10SM FEW015 SCT020 SCT029 05/05 A3044
     RMK AO2=
KGLS 172352Z AUTO 16022G34KT 10SM FEW090 SCT110 17/16 A2975 RMK
     AO2 PK WND 15034/2344 SLP075 T01670156 10189 20167 58055=
KHRL 172352Z 17012KT 10SM CLR 21/16 A2984 RMK AO2 SLP104 60000
     T02110161 10250 20211 55002=
KLKV 172353Z AUTO 34007KT 10SM CLR 01/M06 A3019 RMK AO2 SLP256
     T00061056 10039 20000 53001 FZRANO=
KMWH 172352Z 36012KT 10SM CLR 04/M07 A3034 RMK AO2 SLP288
     T00441067 10061 20006 53001=
KOKB 172352Z AUTO 25007KT 10SM FEW021 14/ A3016 RMK AO2 SLP211
     T0144 10167 20133 56014=
PAAQ 172353Z 35013KT 10SM OVC100 M02/M11 A3025 RMK AO2 SLP249
     T10171111 11011 21039 53007=
PACV 172353Z 07005KT 10SM SCT035 OVC060 A3045 RMK AO2 SLPNO
     56003=
PADU 172354Z 32009KT 1 3/4SM -RA BR OVC010 04/03 A2893 RMK AO2
     SLP798 P0003 60019 T00390033 10061 20039 58052=
PAEG 172353Z AUTO 13005G14KT 10SM OVC100 M14/M20 A3042 RMK AO2
     SLP332 T11441200 11139 21200 56006 TSNO $=
PAEN 172353Z 35012KT 10SM OVC050 M01/M02 A3019 RMK AO2 SLP225
     T10061022 11006 21022 53004=
PAGK 172353Z AUTO 35005KT 10SM BKN120 M13/M16 A3035 RMK AO2 SLP337
     T11331156 11133 21156 58003 TSNO=
PAGY 172353Z AUTO 05003KT 10SM UP OVC020 M02/M10 A3058 RMK AO2
     SLP354 P0000 60000 T10171100 11017 21050 58012 TSNO=
PAIL 172353Z 10018G32KT 10SM SCT032 OVC055 04/00 A2995 RMK AO2 PK
     WND 09035/2342 SLP143 T00440000 10044 20028 58001=
PAKT 172353Z 30003KT 10SM FEW050 02/M02 A3060 RMK AO2 SLP363
     HARBOR WIND 27006KT T00221017 10028 21011 53004=
PAKW 172353Z AUTO 00000KT 10SM SCT029 04/01 A3058 RMK AO2 SLP357
     I6001 T00390011 10044 20000 53002 TSNO=
PALH 172353Z AUTO 31003KT 10SM SCT120 M03/M06 A3026 RMK AO2 SLP249
     T10281061 11028 21050 53005 TSNO=
PAMR 172353Z VRB03KT 10SM OVC110 M02/M06 A3025 RMK AO2 SLP248
     T10221061 11017 21039 53006=
PASC 172353Z 09009KT 7SM FEW150 M29/M32 A3018 RMK AO2 SLP224
     T12891322 11278 21294 58023 $=
PASI 172353Z 00000KT 4SM -RA BR FEW008 OVC012 04/02 A3059 RMK AO2
     SLP358 P0002 60003 T00390022 10050 20033 51009 $=
PASO 172353Z AUTO 00000KT 10SM -RA BKN036 OVC046 03/02 A3011 RMK
     AO2 SLP195 P0002 60018 T00330022 10039 20022 53002 TSNO=
PATO 172353Z AUTO 12011G35KT 070V180 1 3/4SM -SN BR OVC015 02/00
     A3032 RMK AO2 PK WND 11035/2344 RAB42E49SNE42B49 SLP267 P0002
     60010 T00220000 10028 20011 56002 TSNO=


412 
SAUS70 KWBC 180000 RRE
METAR
KMSS 172353Z AUTO 18006KT 10SM OVC043 M01/M04 A2993 RMK AO2 SLP141
     T10061044 10000 21017 58010=
KMVY 172353Z AUTO 18005KT 10SM CLR M05/M09 A3013 RMK AO2 SLP204
     T10501094 10022 21072 53023=
KOSH 172353Z 23004KT 10SM SCT100 BKN120 05/M02 A2944 RMK AO2
     SLP979 T00501022 53008 $=
KOSU 172353Z 15010KT 10SM CLR 04/M04 A2984 RMK AO2 SLPNO T00391039
     10044 20033 56020=
KOVS 172353Z AUTO 29008KT 10SM SCT120 07/M02 A2953 RMK AO2 SLP006
     T00671022 10100 20067 53017=
KOWD 172353Z 00000KT 10SM CLR M04/M09 A3011 RMK AO2 SLP196
     T10441094 10039 21056 51019=
KPKB 172353Z 14004KT 10SM CLR 03/M06 A2993 RMK AO2 SLP140
     T00281056 10056 20022 58016 $=
KRAC 172353Z AUTO 22008KT 10SM CLR 07/M01 A2951 RMK AO2 SLP999
     T00671011 10089 20061 53010=
KRDU 172351Z COR 14005KT 10SM CLR 08/M04 A3012 RMK AO2 SLP201
     T00831044 10133 20078 52004=
KRME 172353Z 12006KT 10SM OVC043 M01/M03 A2999 RMK AO2 SLP160
     T10061033 10000 21011 58002=
KAQP 172353Z 33021G32KT 7SM M08/M11 A2986 RMK AO2 TSNO=
KBED 172351Z 00000KT 10SM CLR M05/M10 A3009 RMK AO2 SLP208
     T10501100 10028 21061 51018=
KDAW 172351Z AUTO 00000KT 10SM CLR M03/M09 A3006 RMK AO2 SLP181
     T10281089 10017 21033 51015 $=
KERI 172351Z 17017G27KT 10SM CLR 02/M04 A2982 RMK AO2 PK WND
     18027/2350 SLP107 T00221044 10033 20022 58020=
KFOZ 172353Z AUTO 32014G23KT 2 1/2SM SCT016 BKN024 OVC031 M08/M12
     A2974 RMK AO2=
KMTN 172354Z 13005KT 10SM CLR 00/M01 A3015=
KORB 172353Z AUTO 32012G25KT 5SM -SN BKN029 OVC035 M09/M12 A2960
     RMK AO2=
KORD 172351Z 20015G22KT 10SM FEW055 FEW120 06/M01 A2954 RMK AO2 PK
     WND 20026/2327 SLP007 T00561011 10083 20056 55002=
KPWK 172352Z 22015G27KT 10SM CLR 06/M01 A2955 RMK AO2 PK WND
     21027/2349 SLP012 T00611011 10089 20061 53001=
KPWM 172351Z 00000KT 10SM CLR M03/M08 A3008 RMK AO2 SLP186
     T10331078 10006 21039 51013 $=
KXVG 172353Z 32010G20KT 284V354 2 1/2SM -SN M08/M12 A2971 RMK
     AO2=
KAFN 172352Z AUTO 00000KT 10SM OVC043 M02/M07 A3004 RMK AO2 SLP196
     T10171067 11006 21022 53018=
KAQW 172352Z AUTO 00000KT 10SM OVC042 M01/M04 A3005 RMK AO2 SLP188
     T10111044 10000 21011 53012=
KARR 172352Z 19013G21KT 9SM FEW110 05/M01 A2954 RMK AO2 SLP010
     T00501011 10089 20039 55002=
KBAF 172353Z 00000KT 10SM SCT050 M03/M07 A3009 RMK AO2 SLP198
     T10281067 10028 21028 53014=
KBLF 172352Z AUTO 16005KT 10SM CLR 04/M09 A2996 RMK AO2 SLP161
     T00441089 10056 20028 56006=
KBML 172352Z AUTO 00000KT 10SM OVC045 M04/M08 A2997 RMK AO2 SLP174
     T10441078 11022 21044 51012=
KCQX 172352Z AUTO 00000KT 10SM CLR M03/M07 A3013 RMK AO2 SLP204
     T10281067 10017 21028 53023=
KDPA 172352Z 19011KT 10SM CLR 04/M01 A2954 RMK AO2 SLP010
     T00391006 10078 20039 53001=
KDVN 172352Z AUTO 28009KT 10SM FEW055 07/M01 A2955 RMK AO2 SLP009
     T00671011 10122 20056 53014=
KIEN 172352Z AUTO 35013G26KT 10SM FEW023 BKN120 M05/M09 A2999 RMK
     AO2 PK WND 36027/2303 SLP194 T10501094 10011 21050 51027=
KIOW 172352Z AUTO 31007KT 10SM CLR 06/M03 A2957 RMK AO2 SLP020
     T00611028 10128 20061 51022=
KMDH 172352Z 19019G27KT 10SM SCT120 10/M01 A2972 RMK AO2 PK WND
     20032/2332 SLP067 T01001006 10111 20083 55005=
KMKE 172352Z 22012KT 10SM FEW170 07/M02 A2948 RMK AO2 SLP989
     T00671017 10106 20067 53008=
K10G 172355Z AUTO 18008KT 10SM CLR 01/M02 A2986 RMK AO2 P0002=
KEST 172352Z AUTO 34025G37KT 10SM FEW028 SCT120 M02/M08 A2971 RMK
     AO2 PK WND 33041/2330 SLP076 T10221083 10056 21022 53043=
KFIT 172352Z AUTO 00000KT 10SM BKN050 M03/M08 A3009 RMK AO2 SLP195
     T10331078 10028 21044 51017=


413 
SAUS70 KWBC 180000 RRB
METAR
KMCO 172353Z 09005KT 10SM FEW035 FEW080 16/08 A3011=
KMDH 172352Z 19019G27KT 10SM SCT120 10/M01 A2972 RMK AO2 PK WND
     20032/2332 SLP067 T01001006 10111 20083 55005=
KMEB 172352Z AUTO 00000KT 10SM CLR 05/M02 A3013 RMK AO2 SLP202
     T00501017 10128 20044 51002=
KMKE 172352Z 22012KT 10SM FEW170 07/M02 A2948 RMK AO2 SLP989
     T00671017 10106 20067 53008=
KMLI 172352Z 21005KT 10SM BKN060 06/M01 A2953 RMK AO2 SLP003
     T00561011 10133 20056 53010=
KMWH 172352Z 36012KT 10SM CLR 04/M07 A3034 RMK AO2 SLP288
     T00441067 10061 20006 53001=
KOKB 172352Z AUTO 25007KT 10SM FEW021 14/ A3016 RMK AO2 SLP211
     T0144 10167 20133 56014=
KOMA 172352Z 35018G25KT 10SM BKN120 BKN250 03/M05 A2972 RMK AO2 PK
     WND 35034/2257 SLP074 T00281050 10100 20028 52046=
KOMH 172355Z AUTO 00000KT 10SM CLR 00/M04 A3011 RMK AO2=
KORE 172352Z AUTO 14003KT 10SM SCT034 OVC050 M03/M07 A3007 RMK AO2
     SLP194 T10281072 10017 21028 51014=
KPWK 172352Z 22015G27KT 10SM CLR 06/M01 A2955 RMK AO2 PK WND
     21027/2349 SLP012 T00611011 10089 20061 53001=
KPYM 172352Z AUTO 00000KT 10SM CLR M04/M09 A3010 RMK AO2 SLP198
     T10441094 10028 21061 51017=
KRAP 172352Z 34017G32KT 9SM -SN SCT017 OVC060 M05/M09 A3001 RMK
     AO2 PK WND 34034/2256 SNB24 SLP194 P0000 60000 T10501094
     11022 21050 53031=
KRAW 172355Z AUTO 00000KT 10SM SCT060 08/00 A2957 RMK AO2=
KRID 172355Z AUTO 14011KT 10SM CLR 01/M02 A2979 RMK AO2=
KSGF 172352Z 19012G26KT 9SM RA BKN070 BKN080 OVC100 09/04 A2958
     RMK AO2 PK WND 19034/2330 RAB40 SLP018 P0000 60000 T00890039
     10139 20089 53002=
KSPI 172352Z 17013KT 10SM OVC065 06/M01 A2961 RMK AO2 SLP030
     T00561006 10072 20050 55003 $=
KSUX 172352Z 34024G34KT 10SM FEW035 OVC100 00/M07 A2978 RMK AO2 PK
     WND 35041/2307 SLP098 T00001072 10100 20000 53045=
KTAN 172352Z AUTO 00000KT 10SM CLR M06/M09 A3012 RMK AO2 SLP199
     T10611094 10028 21061 53021=
KTPF 172355Z AUTO RMK AO2 PWINO=
KUES 172345Z 22008KT 10SM CLR 06/M05 A2948=
KUUV 172355Z AUTO 19006KT 10SM BKN110 10/00 A2962 RMK AO2=
PATA 172352Z 09011G20KT 10SM OVC065 M17/M21 A3021 RMK AO2 SNE00
     SLP239 T11671211 11167 21178 50001=
KACT 172351Z 19019G25KT 10SM CLR 16/09 A2970 RMK AO2 PK WND
     20027/2302 SLP053 T01610094 10183 20139 56014=
KAQP 172353Z 33021G32KT 7SM M08/M11 A2986 RMK AO2 TSNO=
KAVX 172351Z AUTO 01003KT 10SM CLR 11/08 A3015 RMK AO2 SLP214
     T01110078 10122 20100 56013=
KBGD 172351Z AUTO 36014G24KT 10SM CLR 14/M05 A2968 RMK AO2 PK WND
     36031/2315 SLP035 T01391050 10167 20139 53040=
KEFD 172354Z 17014G26KT 10SM BKN030 BKN046 18/14 A2979=
KHDO 172351Z AUTO 22003KT 10SM CLR 14/07 A2982 RMK AO2 SLP090
     T01440072 10161 20117 57009=
KJCT 172351Z AUTO 28003KT 10SM CLR 21/06 A2976 RMK AO2 SLP051
     T02110056 10228 20156 55007=
KLGU 172351Z AUTO 00000KT 10SM SCT048 BKN060 OVC080 01/M07 A2999
     RMK AO2 SLP176 60000 T00111072 10028 21011 52008=
KPHX 172351Z 27004KT 10SM CLR 18/M04 A3003 RMK AO2 SLP162
     T01831044 10200 20144 55008=
KSJT 172351Z 26023G31KT 2 1/2SM BLDU CLR 19/M03 A2974 RMK AO2 PK
     WND 25036/2308 SLP061 T01941033 10228 20172 53005=
KSMO 172351Z 22006KT 10SM CLR 14/08 A3016 RMK AO2 SLP210 T01390078
     10156 20128 56013=
K10G 172355Z AUTO 18008KT 10SM CLR 01/M02 A2986 RMK AO2 P0002=
KEWB 172353Z 00000KT 10SM CLR M04/M09 A3012 RMK AO2 SLP201
     T10441094 10039 21044 51022=
KEYE 172353Z AUTO 15008KT 10SM CLR 07/M02 A2971 RMK AO2 SLP067
     T00671017 10094 20061 56013=
KFAY 172353Z 15006KT 10SM CLR 08/M04 A3012 RMK AO2 SLP196
     T00781039 10133 20061 51004=


416 
SAUS80 KWBC 180000
METAR
KABE 172351Z 18003KT 10SM CLR 00/M06 A3008 RMK AO2 SLP192
     T00001061 10044 21017 53003 $=
KBDL 172351Z 16004KT 10SM BKN055 01/M05 A3010 RMK AO2 SLP195
     T00061050 10044 20006 53012=
KBKW 172351Z AUTO 18006KT 10SM CLR 03/M06 A2995 RMK AO2 SLP167
     T00281061 10061 20022 56006=
KEKN 172351Z AUTO 00000KT 10SM CLR M04/M06 A2996 RMK AO2 SLP174
     T10441061 10056 21044 57001=
KCRP 172351Z 17013KT 10SM FEW033 FEW140 BKN200 OVC250 20/17 A2981
     RMK AO2 SLP093 T02000167 10228 20200 55017=
KIGM 172351Z AUTO 23011KT 10SM CLR 13/M08 A3005 RMK AO2 SLPNO
     T01281078 10139 20111 53002=
KMYL 172351Z AUTO 02010KT 10SM BKN050 M04/M14 A3014 RMK AO2 SLP255
     T10441144 11022 21044 53013=
KOXR 172351Z 26008KT 10SM CLR 14/09 A3016 RMK AO2 SLP213 T01440089
     10167 20139 56011 $=
KSAN 172351Z 21007KT 10SM SCT029 16/09 A3019 RMK AO2 SLP223
     T01560089 10167 20139 56010=
KSMX 172351Z 29009KT 10SM CLR 12/08 A3020 RMK AO2 SLP230 T01220083
     10150 20106 55010=
KAID 172355Z AUTO 18010G17KT 10SM CLR 04/M02 A2973 RMK AO2
     T00391025 10046 20026=
KCAK 172351Z 17012KT 10SM FEW250 01/M06 A2985 RMK AO2 SLP121 4/004
     T00061056 10028 20006 58016=
KCBE 172345Z AUTO 33004KT 10SM CLR 00/M05 A3006 RMK AO2 T10001050
     10053 21001 400531001=
KP69 172352Z AUTO 00000KT 02/M01 A3032 RMK AO1 SLP291 T00171011
     10028 20017 53005=
KABI 172352Z 23017G40KT 3SM HZ OVC040 19/M02 A2964 RMK AO2 PK WND
     23040/2348 SLP025 T01941017 10222 20139 53007 $=
KABQ 172352Z 30013KT 10SM FEW080 11/M08 A2987 RMK AO2 SLP105
     T01111078 10128 20061 53004=
KALS 172352Z AUTO 06006KT 10SM CLR 04/M15 A2980 RMK AO2 SLP126
     T00441150 10078 20017 53003=
KBDR 172352Z 19007KT 10SM OVC055 03/M02 A3012 RMK AO2 SLP198
     T00281022 10033 20000 53013 $=
KBLU 172352Z AUTO 27004KT 10SM CLR 07/M04 A3019 RMK AO2 SLP209
     T00721044 10083 20061 55001=
KCID 172352Z 29011KT 10SM CLR 03/M01 A2955 RMK AO2 SLP014
     T00331011 10117 20017 51021=
KCNU 172352Z AUTO 28009KT 10SM BKN060 12/02 A2959 RMK AO2 PRESRR
     SLP020 T01170022 10150 20111 51040=
KGNT 172355Z AUTO 28011G16KT 10SM CLR 07/M08 A2995 RMK AO2
     T00651085 10087 20055=
KMBG 172352Z AUTO 35014G26KT 10SM FEW022 SCT032 M08/M14 A3004 RMK
     AO2 PK WND 34036/2301 SNE39 SLP195 P0000 60000 T10831139
     11011 21083 51031=
KMHK 172352Z 01007KT 10SM CLR 06/M02 A2967 RMK AO2 SLP052
     T00611017 10078 20050 53037=
KMLF 172352Z AUTO 17004KT 10SM CLR 11/M11 A2991 RMK AO2 SLP136
     T01061106 10111 20044 55008=
KSPS 172352Z 24013KT 10SM BKN049 OVC110 21/00 A2950 RMK AO2 SLP984
     60001 T02110000 10228 20133 55008=
KTOL 172352Z 17009G17KT 10SM CLR 02/M03 A2972 RMK AO2 SLP071
     T00171028 10039 20017 58023 $=
KELP 172351Z 29018G34KT 10SM CLR 14/M08 A2994 RMK AO2 PK WND
     25036/2257 SLP102 T01391078 10156 20133 53001=
KROW 172351Z 29016G23KT 6SM HZ CLR 16/M04 A2976 RMK AO2 PK WND
     27038/2254 SLP052 T01611039 10178 20156 53005=
KSAD 172351Z AUTO 30012G21KT 10SM CLR 14/M06 A3002 RMK AO2 SLP148
     T01391061 10150 20122 53001 TSNO=
KSAT 172351Z 21004KT 10SM BKN160 BKN250 15/09 A2982 RMK AO2 SLP087
     60000 T01500094 10156 20122 58002=
KVCT 172351Z 19011KT 10SM CLR 20/16 A2980 RMK AO2 PK WND
     17027/2258 SLP089 T02000156 10222 20194 55012=
KFMN 172353Z 29010KT 10SM CLR 07/M18 A2989 RMK AO2 SLP146
     T00721183 10089 20011 53001=
KGRR 172353Z 19017G30KT 10SM BKN150 04/M02 A2955 RMK AO2 PK WND
     20030/2350 SLP013 4/004 T00441022 10044 20022 58017=
KRQE 172353Z AUTO 27010G22KT 10SM CLR 06/M12 A2994 RMK AO2 PK WND
     26026/2255 SLP114 T00611122 10083 20050 53002=


419 
SAXX60 KWBC 180000 CCA
METAR
PHBK 172351Z AUTO 36015KT 10SM FEW017 24/17 A2993 RMK AO2 PK WND
     01026/2254 SLP136 T02440167 10250 20206 58016=
PHBK 172351Z AUTO 36015KT 10SM FEW017 24/17 A2993 RMK AO2 PK WND
     01026/2254 SLP136 T02440167 10250 20206 58016=


420 
SAXX60 KWBC 180000 RRA
METAR
KLHW 172355Z AUTO 13005KT 10SM CLR 09/01 A3007 RMK AO2 SLP186
     T00920009 10178 20088 52007 $=
KLSV 172355Z AUTO 06007KT 10SM CLR 16/M11 A2996 RMK AO2 SLP145
     T01561110 10163 20091 56011 $=
KSUU 172355Z AUTO 24012KT 10SM CLR 13/07 A3016 RMK AO2 SLP220
     T01330073 10139 20103 55008 $=
KTBN 172355Z AUTO 16014G20KT 10SM SCT100 BKN120 10/M00 A2954 RMK
     AO2 SLP010 60000 T01001002 10143 20100 57015=
KTIK 172355Z AUTO 19012KT 10SM CLR 13/03 A2947 RMK AO2 SLP982
     60000 T01310029 10158 20096 53000=
PAFB 172355Z AUTO 00000KT 10SM BKN055 M13/M15 A3017 RMK AO2 SLP240
     T11291155 11129 21190 55000 $=
KBAB 172355Z AUTO 21006KT 10SM CLR 14/06 A3017 RMK AO2 SLP220
     T01380059 10154 20101 55007 $=
KCVS 172355Z AUTO 05009KT 10SM CLR 10/M06 A2972 RMK AO2 SLP051
     T00991056 10165 20099 53037 $=
KDYS 172355Z 25016G28KT 3SM HZ BKN034 OVC040 19/M02 A2968 RMK A02A
     PK WND 25028/2318 SLP036 WND DATA ESTMD T01931023 10148 20104
     402170060 52006=
KGXF 172355Z AUTO 25010KT 8SM CLR 19/M05 A3006 RMK AO2 SLP175
     T01941055 10200 20158 55004 FZRANO $=
KHMN 172355Z AUTO 24014KT 10SM CLR 14/M08 A2992 RMK AO2 SLP104
     T01421085 10161 20116 53004 $=
KSHM 172355Z AUTO 03013KT 10SM FEW085 M01/M06 A2976 RMK AO2 SLP087
     T10071059 10125 21007 52023 $=
KSUU 172355Z AUTO 24012KT 10SM CLR 13/07 A3016 RMK AO2 SLP220
     T01330073 10139 20103 55008 $=
KGTB 172355Z AUTO 18012KT 10SM BKN036 OVC130 M00/M04 A2988 RMK AO2
     SLP126 T10021043 10001 21011 58009=


421 
SAUS70 KWBC 180000 RRQ
METAR
KTOR 172353Z AUTO 36020G33KT 10SM OVC085 M05/M10 A2995 RMK AO2 PK
     WND 36033/2346 UPB05E13 SLP160 P0000 60000 T10501100 11006
     21050 53025 FZRANO $=
KTPA 172353Z 06004KT 10SM FEW055 BKN075 18/08 A3007 RMK AO2 SLP182
     T01830078 10211 20183 53001=
KTRL 172353Z AUTO 19012KT 10SM CLR 14/08 A2967 RMK AO2 SLP047
     T01390078 10150 20111 55013=
KTTD 172353Z AUTO 30004KT 10SM OVC019 06/01 A3042 RMK AO2 SLP301
     T00560011 10061 20028 55002=
KTTN 172353Z 00000KT 10SM CLR 01/M06 A3011 RMK AO2 SLP192
     T00061061 10056 20006 51011=
KTUL 172353Z 20006KT 10SM FEW110 SCT200 12/04 A2958 RMK AO2 SLP014
     60005 T01170039 10150 20089 53005=
KTVC 172353Z 21010G17KT 10SM SCT100 OVC150 06/M02 A2942 RMK AO2
     SLP969 T00561022 10067 20028 51005=
KTVL 172353Z AUTO 00000KT 10SM CLR 06/M06 A3015 RMK AO2 SLP213
     T00611061 10083 20017 53002=
KTVR 172353Z AUTO 15011KT 10SM -RA OVC100 11/04 A2986 RMK AO2
     SLP119 P0000 60000 T01110044 10150 20111 58039 $=
KTWF 172353Z 29020G32KT 10SM CLR 00/M09 A3007 RMK AO2 PK WND
     29039/2330 SLP192 T00001089 10028 20000 53015=
KTXK 172353Z 16006KT 10SM OVC029 11/04 A2974 RMK AO2 SLP071 60000
     T01110039 10122 20106 56022=
KUNO 172353Z AUTO 19010G21KT 10SM -RA BKN090 OVC120 09/01 A2966
     RMK AO2 RAB40 SLP045 P0000 60000 T00940006 10139 20094
     58012=
KUTS 172353Z AUTO 20007KT 10SM OVC030 17/12 A2979 RMK AO2 SLP087
     T01670122 10172 20139 51015=
KVDF 172355Z AUTO 00000KT 10SM SCT031 SCT050 SCT090 15/09 A3009
     RMK AO2=
KVEL 172353Z AUTO 13003KT 10SM CLR 03/M12 A2983 RMK AO2 SLP130
     T00281117 10044 21011 55004=
KVER 172355Z AUTO 00000KT 10SM OVC060 10/01 A2957 RMK AO2
     T00970010 10121 21181=
KVGC 172355Z AUTO 15009KT 10SM OVC034 00/M05 A2995 RMK AO2=
KVGT 172353Z 14005KT 10SM CLR 16/M03 A2999 RMK AO2 SLP174
     T01561033 10156 20083 56011=
KVIH 172353Z AUTO 18014KT 10SM FEW050 BKN090 OVC100 10/00 A2957
     RMK AO2 SLP017 T01000000 10133 20094 56012=
KVLD 172353Z 00000KT 10SM CLR 10/03 A3007 RMK AO2 SLP190 T01000033
     10194 20100 50001=
KVRB 172353Z 00000KT 10SM FEW015 BKN026 OVC042 18/13 A3010 RMK AO2
     SLP190 T01780128 10211 20178 53001=
KVUO 172353Z AUTO VRB03KT 10SM OVC015 04/00 A3044 RMK AO2 SLP309
     T00390000 10044 20033 55001=
KW81 172355Z AUTO 00000KT 10SM CLR 00/M07 A3011 RMK AO1 T00041070
     10086 20001=
KWLD 172354Z AUTO 34011KT 10SM CLR 08/02 A2960 RMK AO2 SLP024
     T00780017 10167 20078 53037=
KWRL 172353Z AUTO 32009G16KT 10SM OVC075 M07/M13 A3007 RMK AO2
     SLP235 T10721128 11044 21072 51022=
KWVI 172353Z AUTO 25005KT 10SM CLR 12/07 A3022 RMK AO2 SLP233
     T01170067 10133 20078 55009=
KXNA 172353Z 14016KT 10SM FEW090 BKN120 08/03 A2953 RMK AO2 PK WND
     17029/2324 RAE51 PRESFR SLP000 P0000 60001 T00830028 10144
     20083 58024=
KY19 172355Z AUTO 34016KT 2SM -SN FEW003 FEW010 BKN026 M11/M12
     A3007 RMK AO2 VIS 1 1/2V2 1/2=
KYIP 172353Z 17013KT 10SM CLR 02/M03 A2972 RMK AO2 SLP068
     T00171028 10044 20017 58015=
KAOO 172353Z AUTO 20007KT 10SM CLR 01/M07 A2998 RMK AO2 SLP167
     T00061067 10022 20000 58005=
KAUG 172353Z AUTO 17003KT 10SM CLR M04/M11 A3006 RMK AO2 SLP185
     T10391111 11006 21039 53013=
KHIE 172352Z AUTO 29003KT 10SM OVC045 M04/M08 A2999 RMK AO2 SLP178
     T10441078 11028 21050 52012=
KLBF 172353Z AUTO 35017G25KT 10SM OVC110 01/M08 A2987 RMK AO2 PK
     WND 36029/2316 SLP139 T00061078 10083 20006 51029=
KLGA 172351Z 21008KT 10SM BKN050 BKN100 BKN250 04/M07 A3011 RMK
     AO2 SLP195 T00441072 10067 20044 51016=


422 
SAUS70 KWBC 180000 RRN
METAR
KMCB 172353Z AUTO 15006KT 10SM BKN033 BKN080 OVC100 13/04 A2993
     RMK AO2 SLP136 T01330044 10178 20133 56024=
KMCE 172353Z AUTO 32004KT 10SM CLR 18/01 A3016 RMK AO2 SLP213
     T01780011 10183 20100 56011=
KMCI 172353Z 33007KT 10SM FEW047 BKN160 04/M01 A2961 RMK AO2
     SLP030 4/001 T00441011 10089 20044 53024=
KMCK 172353Z AUTO 36021KT 10SM OVC070 03/M06 A2984 RMK AO2 PK WND
     36031/2315 SLP124 T00331061 10117 20033 51034=
KMCW 172353Z AUTO 33021G34KT 10SM BKN031 OVC120 M01/M07 A2964 RMK
     AO2 PK WND 32040/2342 SLP043 T10061067 10078 21006 53037=
KMDS 172355Z AUTO 34022G33KT 10SM -SN OVC022 M06/M08 A2984 RMK AO2
     TSNO=
KPGD 172353Z 10008KT 10SM OVC034 21/14 A3008 RMK AO2 SLP184
     T02060139 10244 20206 53006=
KPHD 172353Z AUTO 13005KT 10SM CLR 01/M06 A2989 RMK AO2 SLP130
     T00111056 10039 20011 58016 PWINO FZRANO=
KPIE 172353Z 10004KT 10SM CLR 17/09 A3007 RMK AO2 SLP180 T01720089
     10211 20172 53002=
KPIH 172353Z 26006KT 10SM FEW005 BKN040 BKN075 M03/M05 A3005 RMK
     AO2 SLP213 60010 T10331050 11022 21033 53013=
KPIL 172353Z AUTO 17009KT 10SM CLR 21/17 A2986 RMK AO2 SLP110
     60000 T02110172 10239 20211 53002=
KPIR 172353Z AUTO 36020G27KT 10SM OVC030 M04/M09 A3001 RMK AO2 PK
     WND 35033/2306 SNB20E32 SLP178 P0000 60000 T10441094 10022
     21044 53041=
KPKD 172353Z AUTO 33019G32KT 8SM -SN OVC022 M10/M13 A2976 RMK AO2
     PK WND 33033/2310
     UPB2257E2259B17E22B38E49SNE2257B2259E17B22E38B49 SLP102 P0000
     60000 T11001133 11022 21100 53046=
KPMD 172353Z AUTO 27022KT 10SM CLR 15/M11 A3009 RMK AO2 PK WND
     28029/2323 SLP184 T01501106 10172 20139 55003=
KPMP 172353Z 11009KT 10SM -RA OVC050 20/17 A3005 RMK AO2
     RAB01E24B43 SLP177 P0001 60008 T02000172 10206 20194
     58003=
KPNC 172353Z AUTO 32006KT 10SM BKN060 12/03 A2955 RMK AO2 SLP006
     T01220033 10167 20117 53024=
KPNS 172353Z 14005KT 10SM SCT060 14/06 A3002 RMK AO2 SLP169
     T01440061 10172 20144 58005=
KPOU 172353Z 00000KT 10SM OVC050 01/M04 A3008 RMK AO2 SLP185
     T00061039 10044 20006 53013=
KPQL 172353Z AUTO 00000KT 10SM OVC045 16/09 A3000 RMK AO2 SLP161
     T01610094 10194 20161 58007=
KPRB 172353Z AUTO 20007KT 10SM CLR 17/06 A3014 RMK AO2 SLP209
     T01670056 10183 20050 56015=
KPRC 172353Z 25013KT 10SM CLR 08/M08 A3006 RMK AO2 SLP155
     T00831083 10106 20078 53004=
KPSC 172353Z 31004KT 10SM CLR 07/M04 A3039 RMK AO2 SLP292
     T00721044 10089 20022 55002=
KPSP 172353Z 33005KT 10SM CLR 20/M01 A3006 RMK AO2 SLP180
     T02001011 10211 20161 56007=
KPSX 172353Z AUTO 17010KT 10SM CLR 17/16 A2979 RMK AO2 SLP087
     T01720156 10206 20172 55032=
KPTK 172353Z 18013G21KT 10SM FEW140 BKN190 02/M03 A2967 RMK AO2
     SLP056 T00171033 10028 20017 58015=
KPUC 172353Z AUTO 17004KT 10SM CLR 03/M10 A2987 RMK AO2 SLP156
     T00331100 10044 21006 55007=
KPUW 172353Z AUTO 28007KT 10SM FEW020 BKN029 M01/M05 A3028 RMK AO2
     SLP282 T10111050 10011 21033 53003=
KPWA 172353Z 17011KT 10SM CLR 13/04 A2951 RMK AO2 SLP992 60000
     T01280039 10161 20106 53002=
KRAL 172353Z 30003KT 10SM CLR 15/04 A3014 RMK AO2 SLP200 T01500039
     10156 20111 56015=
KMFE 172353Z 14009KT 10SM CLR 23/16 A2985 RMK AO2 SLP106 T02280161
     10256 20206 55006=
KMFR 172353Z 00000KT 8SM CLR 04/02 A3028 RMK AO2 SLP263 I6002
     T00390017 10050 21006 55007=
KMHE 172353Z AUTO 35023G35KT 10SM BKN030 M04/M10 A2993 RMK AO2 PK
     WND 36036/2328 SLP154 T10391100 10039 21039 53044=
KMHL 172355Z AUTO 33003KT 10SM OVC060 05/00 A2959 RMK AO2=


423 
SAUS70 KWBC 180000 RRL
METAR
KGNV 172353Z 00000KT 10SM CLR 11/03 A3010 RMK AO2 SLP196 T01060033
     10189 20100 50002=
KGOK 172353Z AUTO 00000KT 10SM CLR 12/03 A2953 RMK AO2 SLP002
     60000 T01220033 10161 20122 53013=
KGPT 172353Z AUTO 12003KT 10SM OVC042 15/11 A2999 RMK AO2 SLP156
     T01500106 10167 20150 56007=
KGRB 172353Z AUTO 22005KT 10SM OVC085 05/M02 A2942 RMK AO2 SLP968
     T00501017 10078 20044 51007=
KGRI 172353Z 34023G39KT 10SM BKN036 OVC110 02/M05 A2981 RMK AO2 PK
     WND 34039/2346 SLP114 T00171050 10094 20017 52043=
KGSP 172353Z 13004KT 10SM CLR 07/M05 A3007 RMK AO2 SLP183
     T00671050 10128 20050 50001=
KGTF 172353Z 23005KT 6SM -SN BR SCT030 OVC036 M11/M12 A3026 RMK
     AO2 SNB05E34B47 SLP317 P0000 60000 T11061117 11089 21111
     53001=
KGUY 172353Z AUTO 02017KT 10SM CLR 10/M03 A2970 RMK AO2 PK WND
     02032/2305 PRESRR SLP051 T01001033 10161 20100 53052 $=
KGVL 172353Z AUTO 13004KT 10SM CLR 11/M07 A3004 RMK AO2 SLP173
     T01061067 10144 20106 53001=
KGWO 172353Z AUTO 18007KT 10SM -RA OVC085 11/04 A2990 RMK AO2
     RAB32 SLP123 P0000 60000 T01110039 10161 20111 58015=
KHYR 172353Z AUTO 30009G19KT 280V340 10SM OVC034 M01/M07 A2948 RMK
     AO2 SLP997 T10061072 10022 21006 53039=
KHZY 172353Z AUTO 18010G19KT 10SM CLR 02/M05 A2983 RMK AO2 SLP109
     T00221050 10033 20022 58016=
KIAH 172353Z VRB03KT 10SM FEW035 FEW110 OVC170 19/13 A2980 RMK AO2
     SLP092 60000 T01890133 10194 20172 55023=
KICR 172353Z AUTO 34015G30KT 10SM OVC032 M03/M08 A2996 RMK AO2 PK
     WND 33033/2319 SLP166 T10331083 10028 21033 51039=
KICT 172353Z 35019G29KT 10SM SCT160 BKN200 BKN250 03/M02 A2961 RMK
     AO2 PK WND 35033/2325 SLP035 4/001 T00331022 10094 20033
     53036=
KIDA 172353Z 00000KT 7SM BKN075 M03/M06 A3003 RMK AO2 SLP214 60000
     T10331061 11022 21050 53016=
KIML 172353Z AUTO 36016KT 10SM OVC070 01/M07 A2986 RMK AO2 PK WND
     01034/2305 SLP126 T00061067 10094 20006 53020 TSNO=
KINK 172353Z AUTO 26025G40KT 2SM HZ SCT027 17/M06 A2980 RMK AO2 PK
     WND 26044/2324 SLP072 T01671056 10189 20161 53009=
KIPL 172353Z AUTO 09007KT 10SM CLR 21/00 A3003 RMK AO2 SLP170
     T02110000 10228 20172 55006=
KIXD 172353Z 33008KT 10SM OVC046 06/M01 A2962 RMK AO2 SLP033
     T00561006 10094 20056 53025=
KJEF 172353Z 11004KT 10SM FEW120 11/M01 A2959 RMK AO2 SLP012
     T01111011 10133 20111 53004=
KJER 172353Z AUTO 28024G31KT 10SM CLR 01/M09 A3006 RMK AO2 PK WND
     27036/2311 SLP206 T00061089 10028 21006 53012=
KLAR 172353Z AUTO 06013KT 3/4SM -SN BR VV010 M08/M11 A2979 RMK AO2
     SLP112 P0001 60009 T10831106 10006 21083 53012=
KLAW 172353Z 26007KT 10SM BKN043 19/M01 A2948 RMK AO2 SLP981 60000
     T01891006 10211 20100 55009=
KLBO 172355Z AUTO 18009G15KT 10SM OVC110 10/00 A2957 RMK AO2=
KLBX 172353Z AUTO 19013G21KT 10SM CLR 19/15 A2978 RMK AO2 PK WND
     16032/2319 RAB20E32 SLP085 P0000 60000 T01940150 10206 20189
     58036=
KLCH 172353Z 14013KT 10SM CLR 14/09 A2984 RMK AO2 PRESFR SLP113
     T01440094 10172 20144 58034=
KLEE 172353Z AUTO 09004KT 10SM BKN037 OVC050 17/06 A3009 RMK AO2
     SLP189 T01720061 10200 20167 53004=
KLFK 172353Z AUTO 20004KT 10SM OVC031 14/11 A2981 RMK AO2 SLP093
     60000 T01440106 10144 20133 55003=
KMYJ 172355Z AUTO 18006KT 10SM OVC060 04/00 A2957 RMK AO2=
KMYV 172353Z AUTO 10SM CLR 14/03 A3018 RMK AO2 SLP224 T01440033
     10150 20106 55007 $=
KNEW 172353Z 09007KT 10SM BKN038 OVC050 14/10 A2997 RMK AO2 SLP143
     T01440100 10189 20144 58011=
KOAK 172353Z 28010KT 10SM FEW019 13/07 A3022 RMK AO2 SLP232
     T01330072 10144 20100 55008=


424 
SAUS80 KWBC 180000 RRB
METAR
PAMC 172353Z AUTO 28004KT 10SM OVC060 M07/M11 A2995 RMK AO2
     SNB28E40 SLP154 P0000 60000 T10721106 11072 21117 50007
     TSNO=
PANC 172353Z 32005KT 10SM BKN100 OVC120 M03/M06 A3025 RMK AO2
     SLP247 4/003 T10331061 11033 21050 53006=
PANN 172353Z AUTO 07008G16KT 10SM BKN100 M09/M16 A3014 RMK AO2
     SLP218 T10891161 11089 21117 50003 TSNO $=
PAOM 172353Z 10020G29KT 1SM R28/4500V6000FT -SN BR SCT006 OVC010
     M02/M03 A2953 RMK AO2 PK WND 09030/2310 SLP001 P0003 60014
     T10171028 11017 21056 58000 $=
PAOR 172353Z 13007KT 10SM BKN110 M16/M19 A3035 RMK AO2 SLP341
     4/014 T11561194 11156 21167 55004=
PAOT 172353Z 11038G47KT 1/4SM BLSN SCT024 OVC029 M08/M11 A2975 RMK
     AO2 PK WND 11050/2334 SNE2257B38E53 SLP073 P0001 6////
     T10831106 11083 21111 56012 RVRNO=
PAQT 172353Z AUTO 06010KT 4SM HZ CLR M24/M27 A3016 RMK AO2 SLP214
     I6000 T12391272 11233 21250 58024 TSNO $=
PASN 172353Z AUTO 15012KT 9SM BKN011 04/03 A2907 RMK AO2 SLP846
     60001 T00440028 10044 20039 58002 TSNO=
PATK 172353Z 03010KT 10SM BKN100 M03/M09 A3028 RMK AO2 SLP262
     T10281094 11028 21044 50001=
PAYA 172353Z AUTO 09003KT 5SM BR BKN005 BKN010 OVC018 02/00 A3052
     RMK AO2 SLP334 T00220000 10022 20011 TSNO $=
PHJR 172353Z 20009KT 10SM FEW060 27/19 A2993 RMK AO2 SLP141 60004
     T02720189 10283 20211 56021=
PHNL 172353Z 18011KT 10SM FEW023 SCT038 SCT050 26/19 A2992 RMK AO2
     SLP132 T02610189 10278 20211 56021 PNO VISNO RWY04R $=
KAAF 172353Z AUTO 08003KT 10SM CLR 09/06 A3007 RMK AO2 SLP183
     T00890061 10172 20089 58002=
KBFF 172353Z AUTO 35016G24KT 10SM OVC065 M03/M09 A2995 RMK AO2 PK
     WND 34029/2306 SLP157 60001 T10281089 10017 21028 53028=
KBIL 172353Z 02011KT 10SM BKN050 BKN065 OVC085 M08/M14 A3018 RMK
     AO2 SLP264 4/002 SHSN DSNT NE-SW T10781139 11050 21078
     53019=
KBTR 172353Z 11005KT 10SM SCT031 BKN060 OVC085 16/04 A2994 RMK AO2
     SLP137 T01560039 10178 20156 56018 $=
KCDR 172353Z AUTO 03017G24KT 10SM OVC055 M03/M08 A2999 RMK AO2
     SLP198 60000 T10331083 10000 21033 51033=
KCHA 172353Z 19004KT 10SM OVC200 12/M04 A2997 RMK AO2 SLP152
     T01171039 10144 20106 55003=
KCLL 172353Z 19007KT 10SM CLR 16/12 A2979 RMK AO2 SLP085 60000
     T01610117 10178 20139 50006=
KCNY 172353Z AUTO 33008KT 10SM CLR 03/M12 A2987 RMK AO2 SLP147
     T00331117 10056 21006 55008=
KCRQ 172353Z AUTO 22007KT 10SM CLR 13/07 A3015 RMK AO2 SLP210
     T01330072 10144 20133 56013=
KCUT 172353Z AUTO 35009G16KT 9SM OVC025 M08/M14 A2987 RMK AO2
     SNB24E51 SLP162 P0000 60000 T10831139 11028 21083 53023=
KDAB 172353Z 00000KT 10SM FEW050 12/08 A3012 RMK AO2 SLP197
     T01220083 10183 20122 53001=
KDAL 172353Z 17008KT 10SM FEW040 FEW110 FEW250 15/06 A2964 RMK AO2
     SLP033 T01500056 10167 20128 56013=
KFAR 172353Z 34022G36KT 6SM BLSN BKN021 M09/M13 A2995 RMK AO2 PK
     WND 34037/2258 SLP157 60000 T10941133 11033 21094 53035 $=
KFAT 172353Z 00000KT 10SM CLR 18/01 A3017 RMK AO2 SLP215 T01780006
     10178 20094 56013=
KFNB 172353Z AUTO 36013KT 10SM CLR 06/M03 A2966 RMK AO2 SLP048
     T00611033 10078 20050 53036=
KFNT 172353Z 19018G30KT 10SM CLR 03/M03 A2963 RMK AO2 PK WND
     18030/2351 SLP041 T00281028 10044 20028 58015=
KHLC 172353Z AUTO 35011G24KT BKN090 04/M06 A2979 RMK AO2 PK WND
     36036/2255 SLP105 T00441061 10128 20044 51047 $=
KHSV 172353Z 17008KT 10SM FEW120 OVC140 12/M01 A2994 RMK AO2
     SLP140 T01221011 10161 20111 58003=
KHTL 172353Z AUTO 19010KT 10SM 02/M03 A2948 RMK AO2 SLP996
     T00221033 10028 21006 55007 $=


425 
SAUS70 KWBC 180000 RRH
METAR
KBDE 172353Z AUTO 33016G27KT 10SM OVC042 M08/M15 A2977 RMK AO2 PK
     WND 34034/2255 SLP097 60000 T10781150 11022 21083 51065=
KBFI 172353Z 01004KT 10SM BKN033 07/01 A3046 RMK AO2 SLP314
     T00670006 10072 20033 53001 $=
KBFM 172353Z 16005KT 10SM BKN049 OVC060 16/07 A3004 RMK AO2 SLP171
     T01560072 10183 20150 55003=
KBGM 172353Z AUTO 20007KT 10SM OVC029 M01/M06 A2994 RMK AO2 SLP158
     T10111061 11011 21017 58001=
KBHM 172353Z 15003KT 10SM OVC150 13/M03 A3000 RMK AO2 SLP158
     T01281028 10156 20128 58005=
KBKE 172353Z AUTO 32012KT 10SM CLR 02/M08 A3024 RMK AO2 SLP262
     T00171083 10033 20011 53003=
KBKL 172353Z 16018G27KT 10SM CLR 03/M05 A2980 RMK AO2 PK WND
     17030/2342 SLP097 T00331050 10044 20033 56022 $=
KBKV 172353Z 07003KT 10SM FEW032 16/07 A3009 RMK AO2 SLP187
     T01560072 10211 20150 53004=
KBLI 172353Z 32004KT 10SM CLR 05/01 A3046 RMK AO2 SLP324 T00500006
     10067 20011 55001=
KBMQ 172353Z AUTO 18010KT 10SM CLR 16/09 A2977 RMK AO2 SLP073
     T01610089 10183 20133 56008 $=
KBNA 172353Z 19011KT 10SM BKN130 OVC250 13/M01 A2989 RMK AO2
     SLP123 T01281011 10167 20122 55003=
KBOI 172353Z 30016G22KT 10SM SCT055 03/M08 A3018 RMK AO2 PK WND
     31027/2310 SLP239 T00331083 10050 20006 53014=
KBPI 172353Z AUTO 33014KT 10SM FEW060 OVC080 M06/M12 A2984 RMK AO2
     SLP167 60000 T10561122 11022 21089 53018=
KBPK 172353Z AUTO 21009KT 6SM RA BKN070 OVC085 07/03 A2967 RMK AO2
     PK WND 21032/2333 RAB15 SLP050 P0003 60003 T00670033 10139
     20067 55003=
KBPT 172353Z 13004KT 10SM SCT028 BKN033 16/13 A2982 RMK AO2 SLP097
     T01560128 10183 20150 56038=
KBRD 172353Z AUTO 32016G30KT 7SM UP OVC034 M06/M12 A2969 RMK AO2
     PK WND 30035/2343 UPB29SNE29 PRESRR SLP073 P0000 60000
     T10611117 10028 21061 51067=
KBRL 172353Z AUTO 29003KT 10SM CLR 06/M01 A2955 RMK AO2 SLP013
     T00561011 10122 20044 53010=
KBRO 172353Z 17007KT 10SM CLR 22/17 A2985 RMK AO2 SLP106 T02170172
     10256 20217 58001=
KBTM 172353Z AUTO 29007KT 10SM OVC065 M09/M17 A3009 RMK AO2 SLP244
     T10941167 11072 21094 51007=
KBUR 172353Z 19007KT 10SM CLR 14/06 A3014 RMK AO2 SLP199 T01390061
     10161 20111 56015=
KBWG 172353Z AUTO 17009KT 10SM CLR 13/M01 A2984 RMK AO2 SLP106
     T01281006 10156 20122 58011=
KBYG 172353Z AUTO 34027G36KT 1 1/2SM -SN BR SCT013 OVC047 M11/M12
     A3000 RMK AO2 PK WND 35036/2342 UPE08SNB08 SLP208 P0000 60000
     T11061117 11056 21106 51022=
KBYI 172353Z AUTO 28015G31KT 10SM OVC075 01/M07 A3004 RMK AO2 PK
     WND 28034/2255 SLP189 T00111072 10033 20000 53012=
KCAG 172353Z AUTO 00000KT 10SM OVC065 M02/M07 A2982 RMK AO2 SLP172
     T10221072 11006 21078 55004=
KCCA 172355Z AUTO 00000KT 10SM OVC050 07/05 A2975 RMK AO2=
KCCR 172353Z 28008KT 10SM CLR 14/07 A3020 RMK AO2 SLP211 T01390072
     10150 20089 55005=
KCDC 172353Z AUTO 20011KT 10SM CLR 08/M13 A2996 RMK AO2 SLP141
     T00781133 10100 20056 53001=
KCDS 172353Z AUTO 32016KT 10SM CLR 17/M06 A2955 RMK AO2 PK WND
     32030/2334 SLP998 T01671061 10222 20167 53020=
KCDW 172353Z 21003KT 10SM SCT047 03/M04 A3011 RMK AO2 SLP205
     T00281044 10061 20028 53016=
KCEW 172353Z AUTO 00000KT 10SM CLR 11/03 A3006 RMK AO2 SLP180
     T01110033 10189 20106 55005=
KCEZ 172353Z AUTO 29012KT 10SM CLR 04/M15 A2991 RMK AO2 SLP142
     T00391150 10067 20033 53002=
KCFJ 172355Z AUTO 20011KT 10SM CLR 04/M05 A2969 RMK AO2 T00371046
     10051 20037=
KCGI 172353Z 19015G28KT 10SM FEW060 FEW090 OVC110 11/01 A2975 RMK
     AO2 PK WND 20030/2319 SLP075 T01060011 10133 20100 56009=


426 
SAUS70 KWBC 180000 RRG
METAR
PAWD 172353Z AUTO 04007KT 10SM -RA OVC021 02/02 A3028 RMK AO2
     SLP255 P0002 60010 T00220017 10039 20011 50000 TSNO=
KJHN 172355Z AUTO 02015KT 10SM CLR 08/M06 A2975 RMK AO2 T00771063
     10151 20077=
K1P1 172355Z AUTO 00000KT OVC050 M06/M08 A3004 RMK AO2 T10561079
     11003 21061 PWINO=
K28J 172355Z AUTO 09003KT 10SM CLR 12/05 A3011 RMK AO2=
K2J9 172355Z AUTO 18006KT CLR 12/01 A3008 RMK AO2=
K3R7 172355Z AUTO 14010G14KT 10SM SCT110 14/07 A2987 RMK AO2
     T01430074 10168 20142=
K6L4 172355Z AUTO 17009KT 10SM CLR 07/M09 A2992 RMK AO2=
KABR 172353Z AUTO 35018G32KT 10SM FEW024 BKN032 M08/M14 A3001 RMK
     AO2 PK WND 36035/2256 SNE2256 PRESRR SLP179 P0000 60000
     T10781144 11006 21078 53058=
KABY 172353Z 00000KT 10SM CLR 11/03 A3007 RMK AO2 SLP185 T01110028
     10183 20111 52000=
KACV 172353Z AUTO 32007KT 10SM FEW017 09/06 A3022 RMK AO2 SLP240
     T00890056 10106 20072 55006=
KADG 172353Z AUTO 18011KT 10SM CLR 02/M03 A2971 RMK AO2 SLP068
     T00171033 10033 20011 57019=
KADS 172353Z 18008G15KT 10SM SKC 15/06 A2964=
KAEX 172353Z 15020G29KT 10SM -RA BKN110 12/07 A2978 RMK AO2 PK WND
     15029/2353 RAB47 PRESFR SLP088 P0000 60001 T01220067 10139
     20100 58057=
KAFW 172353Z 17013KT 10SM FEW130 FEW180 16/06 A2960 RMK AO2 SLP023
     T01560056 10183 20128 56012=
KAGS 172353Z 00000KT 10SM CLR 06/M01 A3007 RMK AO2 SLP183
     T00611011 10161 20061 53002=
KAIA 172353Z AUTO 01016KT 2 1/2SM -SN BR FEW020 OVC036 M06/M07
     A2993 RMK AO2 PK WND 36029/2322 SLP166 P0000 60000 T10561067
     11011 21056 53034=
KALI 172353Z AUTO 21008KT 10SM CLR 21/14 A2980 RMK AO2 SLP091
     T02110144 10239 20200 55015=
KALW 172353Z 27005KT 10SM CLR 04/M03 A3035 RMK AO2 SLP288
     T00391028 10044 20017 53000=
KAMG 172353Z AUTO 00000KT 10SM CLR 08/01 A3008 RMK AO2 SLP185
     T00830011 10172 20083 53002 $=
KAMW 172353Z AUTO 34015KT 10SM CLR 05/M03 A2964 RMK AO2 SLP041
     T00501028 10089 20044 51031=
KANB 172353Z AUTO 00000KT 10SM CLR 12/M04 A3000 RMK AO2 SLP168
     T01221039 10167 20122 50004=
KAPA 172353Z 02014G22KT 10SM OVC013 M02/M06 A2986 RMK AO2 SLP133
     T10221056 10106 21022 53030=
KAPF 172353Z 06010KT 10SM BR BKN007 BKN022 OVC041 18/ A3003 RMK
     AO2 RAB2255E32 SLP168 P0001 60007 T0178 10211 20172 55001
     $=
KARA 172353Z 13004KT 10SM CLR 14/08 A2992 RMK AO2 SLP132 T01390083
     10183 20139 56021=
KARB 172353Z 18011G19KT 9SM CLR 01/M03 A2970 RMK AO2 SLP067
     T00111033 10028 20011 58016=
KASD 172353Z AUTO 13004KT 10SM BKN036 BKN048 16/08 A2997 RMK AO2
     SLP147 T01560083 10189 20156 58014=
KASE 172353Z 00000KT 10SM SCT070 OVC100 M02/M12 A2983 RMK AO2
     SLP118 T10221122 10006 21039 53003=
KASX 172353Z AUTO 29018G27KT 10SM OVC031 01/M06 A2946 RMK AO2 PK
     WND 29027/2352 SLP985 T00061056 10044 20006 53046=
KATY 172353Z AUTO 34026G33KT 3SM -SN BKN016 BKN020 OVC032 M09/M12
     A2989 RMK AO2 PK WND 35035/2323 SNE11B46 SLP152 P0000 60000
     T10891122 10017 21089 53059=
KAUS 172353Z 22006KT 10SM BKN100 BKN250 16/11 A2980 RMK AO2 SLP090
     T01560106 10161 20128 55006=
KAWM 172353Z AUTO 19014G21KT 10SM -RA OVC085 09/03 A2982 RMK AO2
     RAB19 SLP098 P0000 60000 T00940033 10128 20094 56017 $=
KAXN 172353Z AUTO 33017G34KT 5SM -SN OVC016 M10/M13 A2977 RMK AO2
     PK WND 35037/2316 SNB05E19B43 SLP107 P0000 60000 T11001133
     11006 21100 51052=
KBBW 172353Z AUTO 34023G37KT 10SM SCT031 OVC090 M01/M07 A2985 RMK
     AO2 PK WND 34038/2342 SLP125 T10061067 10072 21006 53038=
KBCE 172353Z AUTO 33013KT 10SM CLR 04/M13 A2995 RMK AO2 SLP145
     T00391133 10067 20028 53005=


427 
SAUS80 KWBC 180000 RRA
METAR
KTCS 172353Z AUTO 29015KT 10SM CLR 13/M06 A2990 RMK AO2 SLP092
     T01281056 10150 20111 53005=
KTUS 172353Z 29007KT 10SM CLR 16/M07 A3009 RMK AO2 SLP168
     T01611067 10172 20139 55001=
PABE 172353Z 12010KT 10SM OVC070 03/01 A2958 RMK AO2 SLP020 60000
     T00330006 10033 20017 50004=
PADQ 172353Z 12009KT 3SM BR FEW007 BKN017 OVC024 06/05 A3000 RMK
     AO2 SLP159 60013 T00560050 10056 20050 50005=
KBNO 172354Z 35006KT 10SM FEW049 01/M08 A3023=
KDBQ 172353Z 27007KT 10SM CLR 04/M02 A2952 RMK AO2 SLP006
     T00391022 10106 20033 51013=
KDMN 172353Z AUTO 28021G28KT 10SM CLR 12/M06 A2999 RMK AO2 PK WND
     26032/2258 SLP128 T01171061 10139 20111 51004=
KMSN 172353Z 00000KT 10SM SCT160 BKN190 05/M03 A2948 RMK AO2
     SLP989 T00501033 10100 20050 53008=
KDRA 172353Z AUTO 23009KT 10SM CLR 13/M10 A3001 RMK AO2 SLP155
     T01331100 10139 20083 55007=
KALB 172351Z 17005KT 10SM OVC042 00/M04 A3006 RMK AO2 SNE51 SLP184
     P0000 60000 T00001044 10006 21022 53008=
KCON 172351Z AUTO 00000KT 10SM CLR M05/M09 A3006 RMK AO2 SLP188
     T10501089 10028 21056 51019=
KHTS 172351Z 09004KT 10SM CLR 06/M06 A2990 RMK AO2 SLP129
     T00611056 10083 20044 58018=
KPVD 172351Z 00000KT 10SM CLR M03/M08 A3012 RMK AO2 SLP199
     T10331078 10039 21033 51019=
KTEB 172351Z 22005KT 10SM BKN050 02/M06 A3011 RMK AO2 SLP195
     T00221061 10072 20022 51017=
KBDR 172352Z 19007KT 10SM OVC055 03/M02 A3012 RMK AO2 SLP198
     T00281022 10033 20000 53013 $=
KCID 172352Z 29011KT 10SM CLR 03/M01 A2955 RMK AO2 SLP014
     T00331011 10117 20017 51021=
KP59 172351Z AUTO 33009G24KT 03/M02 A2927 RMK AO1 SLP920 T00331022
     10050 20028 51016=
KTOL 172352Z 17009G17KT 10SM CLR 02/M03 A2972 RMK AO2 SLP071
     T00171028 10039 20017 58023 $=
KABI 172352Z 23017G40KT 3SM HZ OVC040 19/M02 A2964 RMK AO2 PK WND
     23040/2348 SLP025 T01941017 10222 20139 53007 $=
KABQ 172352Z 30013KT 10SM FEW080 11/M08 A2987 RMK AO2 SLP105
     T01111078 10128 20061 53004=
KALS 172352Z AUTO 06006KT 10SM CLR 04/M15 A2980 RMK AO2 SLP126
     T00441150 10078 20017 53003=
KBLU 172352Z AUTO 27004KT 10SM CLR 07/M04 A3019 RMK AO2 SLP209
     T00721044 10083 20061 55001=
KGNT 172355Z AUTO 28011G16KT 10SM CLR 07/M08 A2995 RMK AO2
     T00651085 10087 20055=
KJDN 172348Z AUTO 31008KT M09/M13 A3022 RMK AO1 SLP277 T10891128
     11061 21089 51015=
KMLF 172352Z AUTO 17004KT 10SM CLR 11/M11 A2991 RMK AO2 SLP136
     T01061106 10111 20044 55008=
KSNT 172351Z AUTO 31004KT M07/M17 A3001 RMK AO1 SLP180 T10671167
     11028 21067 52011=
KSPS 172352Z 24013KT 10SM BKN049 OVC110 21/00 A2950 RMK AO2 SLP984
     60001 T02110000 10228 20133 55008=
PABE 172353Z 12010KT 10SM OVC070 03/01 A2958 RMK AO2 SLP020 60000
     T00330006 10033 20017 50004=
PABT 172353Z 31007KT 10SM OVC070 M16/M19 A3023 RMK AO2 SLP264
     4/025 T11611194 11144 21222 58013 PNO $=
PACD 172353Z 12029G44KT 4SM -RA BR OVC029 06/04 A2913 RMK AO2 PK
     WND 12049/2307 SLP865 P0006 60016 T00560039 10056 20044
     58047=
PADQ 172353Z 12009KT 3SM BR FEW007 BKN017 OVC024 06/05 A3000 RMK
     AO2 SLP159 60013 T00560050 10056 20050 50005=
PAFA 172353Z 04003KT 10SM BKN075 OVC100 M11/M15 A3018 RMK AO2
     SLP237 T11111150 11111 21178 55000 $=
PAHO 172353Z VRB03KT 10SM BKN040 OVC049 04/02 A3013 RMK AO2 RAE06
     SLP204 P0000 60010 T00440022 10050 20033 53003=
PAJN 172353Z 11003KT 1 3/4SM -DZ BCFG FEW001 BKN004 OVC010 00/M01
     A3061 RMK AO2 TWR VIS 2 SLP364 BCFG NW-NE 4/001 P0000 60000
     I6001 T00001006 10006 21006 53004 $=


428 
SAUS70 KWBC 180000 RRC
METAR
KFFT 172353Z AUTO 14005KT 10SM CLR 07/M02 A2982 RMK AO2 SLP103
     T00671017 10083 20050 58021=
KFLD 172353Z AUTO 23005KT 10SM BKN100 05/M02 A2945 RMK AO2 SLP981
     T00501022 10094 20050 53008=
KFST 172353Z AUTO 29023G36KT 8SM OVC033 18/M08 A2985 RMK AO2 PK
     WND 28040/2258 SLP074 T01831078 10217 20183 53010=
KFVE 172353Z AUTO 18003KT 10SM OVC028 M06/M11 A2993 RMK AO2 SLP154
     T10561106 11050 21067 51015 $=
KGEZ 172353Z AUTO 16016KT 10SM CLR 05/M02 A2974 RMK AO2 SLP078
     T00501017 10067 20039 56019=
KGFL 172353Z AUTO 21003KT 10SM OVC045 M02/M04 A3004 RMK AO2 SLP185
     T10171044 11011 21022 51008=
KGSH 172353Z AUTO 18013G22KT 10SM CLR 03/M03 A2965 RMK AO2 SLP047
     T00281028 10033 20022 56016=
KGUP 172353Z AUTO 26016G25KT 10SM CLR 07/M12 A2995 RMK AO2 PK WND
     26028/2309 SLP141 T00721117 10094 20050 53003=
KHAO 172353Z AUTO 00000KT 10SM CLR 08/M03 A2984 RMK AO2 SLP111
     T00831028 10167 20056 56013 $=
KHFD 172353Z 14004KT 10SM BKN060 01/M06 A3011 RMK AO2 SLP194
     T00061061 10033 21011 53013=
KHGR 172353Z 14007KT 10SM CLR 02/M06 A3005 RMK AO2 SLP191
     T00171056 10050 20011 58001 $=
KHLG 172353Z 16007KT 10SM CLR 03/M06 A2990 RMK AO2 SLP139
     T00281061 10044 20028 58014=
KHUF 172353Z 18011KT 10SM CLR 06/00 A2971 RMK AO2 SLP067 T00610000
     10078 20044 56009=
KHUL 172353Z AUTO 00000KT 10SM FEW044 M09/M11 A3000 RMK AO2 SLP170
     T10891111 11028 21089 51019=
KILM 172353Z 11003KT 10SM CLR 06/00 A3017 RMK AO2 SLP216 T00610000
     10111 20061 58001=
KITR 172353Z AUTO 02013G23KT 10SM CLR M01/M06 A2983 RMK AO2 PK WND
     02034/2304 SLP118 T10061061 10094 21006 53038=
KIWI 172353Z AUTO 00000KT 10SM CLR M06/M11 A3010 RMK AO2 SLP193
     T10611106 10011 21061 53017=
KJKL 172353Z AUTO 20005KT 10SM CLR 08/M07 A2990 RMK AO2 SLP132
     T00781067 10111 20061 56016=
KLAA 172353Z AUTO 04014G22KT 10SM CLR 06/M06 A2979 RMK AO2 PK WND
     05031/2257 SLP095 T00561056 10139 20056 53041=
KLEB 172353Z 18004KT 10SM OVC044 M02/M06 A3002 RMK AO2 SLP180
     T10171056 10017 21022 51014=
KLHQ 172353Z AUTO 15007KT 10SM CLR 03/M04 A2988 RMK AO2 SLP125
     T00331044 10056 20028 56016=
KRTN 172353Z AUTO 04017G24KT 10SM CLR 04/M08 A2976 RMK AO2 PK WND
     03027/2256 SLP094 T00441078 10144 20044 53036=
KSAF 172353Z 34008G19KT 10SM CLR 08/M15 A2985 RMK AO2 SLP083
     T00831150 10106 20072 53007=
KSBM 172353Z AUTO 23005KT 10SM CLR 03/M03 A2945 RMK AO2 SLP979
     T00281033 10106 20028 51008=
KSDL 172353Z 28004KT 10SM CLR 17/M04 A3006 RMK AO2 SLP168
     T01671044 10172 20139 55006=
KSEE 172347Z 27008KT 10SM SKC 15/05 A3017=
KTCC 172353Z AUTO 07007KT 10SM CLR 11/M11 A2970 RMK AO2 SLP042
     T01061106 10183 20106 53041=
KUNV 172353Z 23006KT 10SM CLR M01/M06 A2999=
KUUU 172353Z AUTO 00000KT 10SM CLR M03/M08 A3012 RMK AO2 SLP199
     T10281078 10033 21039 51020=
KWST 172353Z AUTO 00000KT 10SM CLR M03/M06 A3012 RMK AO2 SLP200
     T10331056 10033 21033 51016=
PAAQ 172353Z 35013KT 10SM OVC100 M02/M11 A3025 RMK AO2 SLP249
     T10171111 11011 21039 53007=
PAKW 172353Z AUTO 00000KT 10SM SCT029 04/01 A3058 RMK AO2 SLP357
     I6001 T00390011 10044 20000 53002 TSNO=
KACK 172353Z 10SM CLR M02/M07 A3014 RMK AO2 SLP206 T10221072 10006
     21022 53027 $=
KAKO 172353Z AUTO 01013KT 8SM -SN OVC016 M03/M06 A2987 RMK AO2
     SNB31 SLP145 P0000 60000 T10281056 10056 21028 51034=
KAMA 172353Z 35016G22KT 10SM CLR 12/M06 A2969 RMK AO2 SLP035
     T01171061 10178 20117 51045=
KAOH 172353Z AUTO 17015G24KT 10SM CLR 02/M03 A2976 RMK AO2 SLP086
     T00171033 10028 20011 58018=


429 
SAUS70 KWBC 180000 RRA
METAR
KARR 172352Z 19013G21KT 9SM FEW110 05/M01 A2954 RMK AO2 SLP010
     T00501011 10089 20039 55002=
KATL 172352Z 16004KT 10SM BKN180 OVC250 12/M03 A3003 RMK AO2
     SLP172 T01221033 10156 20122 53002 $=
KBAF 172353Z 00000KT 10SM SCT050 M03/M07 A3009 RMK AO2 SLP198
     T10281067 10028 21028 53014=
KBLF 172352Z AUTO 16005KT 10SM CLR 04/M09 A2996 RMK AO2 SLP161
     T00441089 10056 20028 56006=
KBLH 172352Z AUTO 24003KT 10SM CLR 21/M08 A3003 RMK AO2 SLP167
     T02061083 10206 20128 56008=
KBML 172352Z AUTO 00000KT 10SM OVC045 M04/M08 A2997 RMK AO2 SLP174
     T10441078 11022 21044 51012=
KBVO 172353Z AUTO 19004KT 10SM CLR 10/03 A2959 RMK AO2 SLP016
     T01000033 10161 20100 53017=
KCFV 172352Z AUTO 19008KT 10SM CLR 10/03 A2957 RMK AO2 SLP015
     T01000033 10161 20100 53021=
KCKV 172352Z AUTO 19012KT 10SM SCT120 14/M01 A2982 RMK AO2 SLP100
     T01391006 10167 20139 56009=
KCLS 172355Z AUTO 36004KT 10SM FEW015 SCT020 SCT029 05/05 A3044
     RMK AO2=
KCLT 172352Z 17004KT 10SM FEW250 09/M05 A3009 RMK AO2 SLP207
     T00941050 10128 20089 53004=
KCQX 172352Z AUTO 00000KT 10SM CLR M03/M07 A3013 RMK AO2 SLP204
     T10281067 10017 21028 53023=
KCVG 172352Z 16010KT 10SM BKN250 04/M02 A2981 RMK AO2 SLP100 4/004
     T00391017 10056 20033 58017=
KDCA 172352Z 17006KT 10SM CLR 03/M04 A3012 RMK AO2 SLP199
     T00281044 10078 20028 51003=
KDDC 172352Z AUTO 02022G30KT 8SM CLR 06/M03 A2971 RMK AO2 PK WND
     03036/2309 SLP069 T00611028 10144 20061 53056=
KDPA 172352Z 19011KT 10SM CLR 04/M01 A2954 RMK AO2 SLP010
     T00391006 10078 20039 53001=
KDVN 172352Z AUTO 28009KT 10SM FEW055 07/M01 A2955 RMK AO2 SLP009
     T00671011 10122 20056 53014=
KEST 172352Z AUTO 34025G37KT 10SM FEW028 SCT120 M02/M08 A2971 RMK
     AO2 PK WND 33041/2330 SLP076 T10221083 10056 21022 53043=
KFIT 172352Z AUTO 00000KT 10SM BKN050 M03/M08 A3009 RMK AO2 SLP195
     T10331078 10028 21044 51017=
KFYJ 172355Z AUTO 00000KT 10SM CLR 00/M06 A3017 RMK AO1 T00031063
     10077 20003=
KGLS 172352Z AUTO 16022G34KT 10SM FEW090 SCT110 17/16 A2975 RMK
     AO2 PK WND 15034/2344 SLP075 T01670156 10189 20167 58055=
KGVE 172355Z AUTO 00000KT 10SM CLR 00/M05 A3009 RMK AO1 T00021046
     10076 20002=
KHIE 172352Z AUTO 29003KT 10SM OVC045 M04/M08 A2999 RMK AO2 SLP178
     T10441078 11028 21050 52012=
KHRL 172352Z 17012KT 10SM CLR 21/16 A2984 RMK AO2 SLP104 60000
     T02110161 10250 20211 55002=
KHUT 172352Z 35010KT 10SM CLR 04/M01 A2967 RMK AO2 SLP048
     T00391011 10056 20033 51050=
KIAD 172352Z 15005KT 10SM CLR 02/M06 A3010 RMK AO2 SLP195
     T00221061 10067 20017 52002=
KIEN 172352Z AUTO 35013G26KT 10SM FEW023 BKN120 M05/M09 A2999 RMK
     AO2 PK WND 36027/2303 SLP194 T10501094 10011 21050 51027=
KIJD 172352Z AUTO 00000KT 10SM OVC055 M01/M06 A3011 RMK AO2 SLP199
     T10111061 10022 21017 53014=
KIOW 172352Z AUTO 31007KT 10SM CLR 06/M03 A2957 RMK AO2 SLP020
     T00611028 10128 20061 51022=
KLBF 172353Z AUTO 35017G25KT 10SM OVC110 01/M08 A2987 RMK AO2 PK
     WND 36029/2316 SLP139 T00061078 10083 20006 51029=
KLGA 172351Z 21008KT 10SM BKN050 BKN100 BKN250 04/M07 A3011 RMK
     AO2 SLP195 T00441072 10067 20044 51016=
KLKV 172353Z AUTO 34007KT 10SM CLR 01/M06 A3019 RMK AO2 SLP256
     T00061056 10039 20000 53001 FZRANO=
KLQK 172355Z AUTO 00000KT 10SM CLR 05/M04 A3005 RMK AO2 T00501037
     10133 20050=
KLWC 172352Z AUTO 33004KT 10SM FEW049 04/M01 A2963 RMK AO1 SLP039
     T00391011 10089 20039 53029=
KLXT 172353Z AUTO 33011KT 10SM OVC050 08/00 A2960 RMK AO2 SLP026
     T00830000 10111 20078 53019=
KMAW 172355Z AUTO 19015G21KT 10SM CLR 11/02 A2977 RMK AO1=


430 
SAUS70 KWBC 180000
METAR
KIWA 172347Z 21005KT 10SM CLR 17/M05 A3006=
KCLE 172351Z 18014G24KT 10SM FEW250 03/M06 A2980 RMK AO2 SLP115
     4/002 T00281056 10044 20028 56021=
KCMH 172351Z 15006KT 10SM SCT250 03/M04 A2986 RMK AO2 SLP120
     T00281039 10044 20022 56018 $=
KD55 172355Z AUTO 35015G20KT 10SM CLR M14/M14 A2998 RMK AO2=
KEWR 172351Z 20004KT 10SM FEW055 SCT100 SCT250 03/M06 A3012 RMK
     AO2 SLP200 T00331056 10072 20028 51018=
KGAF 172355Z AUTO 33025G34KT 10SM FEW011 SCT018 SCT023 M11/M15
     A3000 RMK AO2 PWINO=
KILG 172351Z 10SM CLR 01/M07 A3015 RMK AO2 SLP209 T00111072 10067
     20011 51015 $=
KJFK 172351Z 22009KT 10SM SCT050 SCT250 03/M04 A3013 RMK AO2
     SLP202 T00281039 10067 20017 51016=
KPIT 172351Z 15005KT 10SM FEW250 02/M06 A2992 RMK AO2 SLP150
     T00171056 10044 20017 58009=
KSLK 172351Z AUTO 20009KT 10SM OVC023 M03/M06 A2987 RMK AO2 SLP143
     T10331056 11028 21039 50001=
KUGN 172351Z 22013KT 10SM CLR 05/M01 A2952 RMK AO2 SLP005
     T00501011 10094 20050 53008=
KVNW 172355Z AUTO 19013G17KT 10SM CLR 02/M02 A2973 RMK AO2=
KXWA 172351Z AUTO 34020KT 10SM CLR M16/M18 A3015 RMK AO2 PK WND
     34030/2331 SLP271 60001 T11561178 11111 21156 51010=
KBAZ 172351Z 25006KT 10SM CLR 14/10 A2981 RMK AO2 SLP091 60000
     T01440100 10161 20128 54000=
KBHK 172351Z AUTO 32014KT 1 3/4SM -SN BR OVC023 M11/M13 A3013 RMK
     AO2 SNB34 SLP243 P0000 60000 T11111133 11072 21117 51034=
KCIC 172352Z 00000KT 10SM CLR 15/00 A3019=
KDAG 172350Z AUTO 26017G27KT 10SM CLR 19/M09 A3002 RMK AO2 PK WND
     26027/2343 SLP157 T01941089 10200 20122 55012=
KGYI 172350Z 15010G17KT 10SM CLR 14/04 A2960=
KLPC 172351Z AUTO 29011KT 10SM CLR 14/08 A3020 RMK AO2 SLP227
     T01390078 10156 20072 56010=
KMCJ 172355Z AUTO 18014G22KT 10SM CLR 18/14 A2977 RMK A01=
KTOA 172348Z 00000KT 10SM SCT032 15/07 A3016=
KTPL 172351Z AUTO 19016KT 10SM CLR 16/10 A2975 RMK AO2 SLP069
     60000 T01560100 10178 20128 58003=
KUAO 172349Z AUTO 04005KT 10SM SCT017 04/01 A3043 RMK AO2 SLP305
     T00440006 10044 20017 55001=
KVNY 172351Z 16007KT 10SM CLR 16/06 A3012 RMK AO2 SLP199 T01560056
     10167 20122 56015=
K0W3 172345Z AUTO 16005KT 10SM CLR 00/M05 A3011 RMK AO2 T00021053
     $=
K2C8 172355Z AUTO 33020G29KT 2SM BR FEW019 FEW029 M13/M14 A3001
     RMK AO2=
K2G4 172345Z AUTO 17011KT 10SM CLR M02/M06 A2991 RMK AO2=
K2W6 172350Z AUTO 12003KT 10SM CLR 01/M04 A3017 RMK AO1=
KALN 172350Z 17012KT 10SM -RA BKN075 OVC110 08/M01 A2964=
KANE 172350Z 30018G26KT 10SM OVC037 M02/M07 A2962=
KANQ 172355Z AUTO 15009KT 10SM CLR 01/M01 A2966 RMK AO2=
KBEA 172355Z AUTO 19012G16KT 10SM CLR 20/13 A2980 RMK AO2
     T02000126 10217 20192=
KCGE 172345Z AUTO 00000KT 10SM CLR M02/M05 A3016 RMK A01=
KCGS 172345Z AUTO 00000KT 10SM CLR M01/M04 A3013 RMK AO2 T10081040
     10063 21009 400631052=
KCWA 172350Z 27007KT 10SM BKN034 01/M02 A2943=
KDMW 172345Z AUTO 16004KT 10SM CLR 02/M05 A3007 RMK AO2=
KFME 172349Z AUTO 14004KT 10SM CLR M01/M04 A3015 RMK AO1=
KIUA 172355Z AUTO 16003KT 10SM CLR 01/M05 A2990 RMK AO2 T00051050
     10018 20005=
KLBE 172347Z 00000KT 10SM CLR M02/M05 A2996=
KMWA 172345Z 20014G26KT 10SM OVC120 11/00 A2972=
KPLD 172355Z AUTO 18013G19KT 10SM CLR 04/M06 A2973 RMK AO2=
KW29 172345Z AUTO 14006KT 10SM CLR 01/M05 A3014 RMK AO2 T00091046
     10055 20006 400551022=
K10G 172355Z AUTO 18008KT 10SM CLR 01/M02 A2986 RMK AO2 P0002=
KAFN 172352Z AUTO 00000KT 10SM OVC043 M02/M07 A3004 RMK AO2 SLP196
     T10171067 11006 21022 53018=
KAQW 172352Z AUTO 00000KT 10SM OVC042 M01/M04 A3005 RMK AO2 SLP188
     T10111044 10000 21011 53012=


431 
SAUS70 KWBC 180000 RRD
METAR
KAOO 172353Z AUTO 20007KT 10SM CLR 01/M07 A2998 RMK AO2 SLP167
     T00061067 10022 20000 58005=
KAUG 172353Z AUTO 17003KT 10SM CLR M04/M11 A3006 RMK AO2 SLP185
     T10391111 11006 21039 53013=
KAZO 172353Z 18015G25KT 10SM CLR 03/M03 A2961 RMK AO2 SLP038
     T00281028 10044 20011 56014=
KBEH 172353Z AUTO 19015G26KT 10SM CLR 07/M02 A2958 RMK AO2 PK WND
     18030/2310 SLP021 T00671022 10078 20044 56012=
KBFD 172353Z AUTO 17005KT 10SM CLR M01/M04 A2989 RMK AO2 SLP142
     T10111044 10000 21011 55005=
KBGR 172353Z 00000KT 10SM CLR M09/M13 A3006 RMK AO2 SLP186
     T10941133 11011 21106 51017=
KBIV 172353Z AUTO 19017G23KT 10SM CLR 05/M02 A2953 RMK AO2 PK WND
     20027/2314 SLP008 T00501022 10061 20033 58013=
KBMG 172353Z 16006KT 10SM CLR 05/M02 A2974 RMK AO2 SLP078
     T00501017 10089 20050 56012=
KBTL 172353Z 19015G23KT 10SM CLR 04/M03 A2961 RMK AO2 SLP034
     T00391028 10050 20028 58015=
KBVY 172353Z 22004KT 10SM CLR M02/M09 A3009 RMK AO2 SLP187
     T10221089 10017 21028 52014=
KCDD 172353Z AUTO 35013G22KT 10SM SCT024 BKN030 OVC035 M08/M09
     A2965 RMK AO2 TSNO=
KCHO 172353Z 17003KT 10SM CLR 03/M06 A3008 RMK AO2 SLP188
     T00331061 10067 20033 50002=
KCMI 172353Z 17017KT 10SM BKN100 04/M01 A2964 RMK AO2 SLP044
     T00441006 10050 20039 56008=
KCNM 172353Z AUTO 25029G41KT 7SM CLR 14/M06 A2981 RMK AO2 PK WND
     26045/2307 SLP077 T01441061 10178 20144 53008 $=
KDAN 172353Z AUTO 00000KT 10SM CLR 02/M06 A3008 RMK AO2 SLP187
     T00171056 10106 20017 58002=
KDGW 172353Z AUTO 35017G24KT 3SM -SN OVC023 M08/M11 A2997 RMK AO2
     SLP182 P0000 60002 T10831111 11028 21083 51028=
KDHT 172353Z AUTO 02016KT 10SM CLR 10/M07 A2972 RMK AO2 PK WND
     02031/2302 SLP052 T01001072 10144 20100 53030 $=
KDUJ 172353Z AUTO 16003KT 10SM CLR M01/M07 A2991 RMK AO2 SLP147
     T10061067 10011 21006 58003=
KENW 172353Z 22014G21KT 10SM CLR 07/M01 A2950 RMK AO2 SLP996
     T00721006 10117 20072 53007=
KETH 172353Z AUTO 34024G32KT 10SM BKN022 M09/M13 A2992 RMK AO2=
KLHX 172353Z AUTO 05012KT 10SM CLR 04/M04 A2981 RMK AO2 PK WND
     05028/2257 SLP102 T00391044 10122 20039 53034=
KLOU 172353Z 14005KT 10SM CLR 07/M01 A2981 RMK AO2 SLP099
     T00721006 10094 20050 56016=
KLOZ 172353Z AUTO 16004KT 10SM CLR 08/M06 A2990 RMK AO2 SLP132
     T00781061 10111 20078 56015=
KLUK 172353Z 20005KT 10SM CLR 04/M02 A2985 RMK AO2 SLP112
     T00391022 10067 20039 58017=
KLVS 172353Z AUTO 36007KT 10SM CLR 06/M18 A2977 RMK AO2 SLP048
     T00611183 10117 20061 53020 $=
KLWV 172353Z AUTO 17009KT 10SM SCT120 04/00 A2974 RMK AO2 SLP073
     T00390000 10044 20028 56012 $=
KMDW 172353Z 20015G25KT 10SM FEW150 05/M01 A2957 RMK AO2 PK WND
     20026/2331 SLP021 T00501011 10078 20050 56005=
KMGW 172353Z 17003KT 10SM CLR 00/M06 A2996 RMK AO2 SLP158
     T00001061 10044 20000 58010=
KMGY 172353Z AUTO 17009KT 10SM CLR 04/M03 A2982 RMK AO2 SLP104
     T00391033 10061 20033 56013=
KMHT 172353Z 17004KT 10SM FEW045 M03/M09 A3006 RMK AO2 SLP202
     T10281089 10028 21039 51020=
KMIE 172353Z 18013KT 10SM CLR 06/M03 A2972 RMK AO2 SLP068
     T00561028 10061 20033 58014=
KMIW 172353Z AUTO 33009KT 10SM CLR 04/M03 A2961 RMK AO2 SLP035
     T00391033 10094 20033 51031=
KMLT 172353Z AUTO 00000KT 10SM FEW045 M07/M12 A3003 RMK AO2 SLP183
     T10721122 11006 21072 51018=
KMMK 172353Z AUTO 00000KT 10SM FEW055 M02/M07 A3012 RMK AO2 SLP201
     T10221067 10050 21022 53016=
KMNN 172353Z AUTO 17014G22KT 10SM CLR 02/M04 A2980 RMK AO2 SLP104
     T00221044 10028 20017 56023=
KMRB 172353Z 14005KT 10SM CLR 01/M06 A3004 RMK AO2 SLP179
     T00111056 10050 20011 58003=


682 
SARS18 KAWN 180000 RRF
METAR EETN 172350Z 27017KT CAVOK 04/01 Q1012=
METAR EETU 172350Z AUTO 25016KT 9999 BKN011/// BKN140/// 04/02 Q1013=
METAR EFHK 172350Z 27012KT CAVOK 04/01 Q1009 NOSIG=
METAR ESSA 172350Z 27013KT CAVOK 05/03 Q1019 NOSIG=
METAR EVLA 172350Z AUTO 26011KT 9999 OVC008/// 05/04 Q1025=
METAR EVRA 172350Z 25007KT 210V300 CAVOK 05/03 Q1019 NOSIG=
METAR EYKA 172350Z AUTO 25011KT 9999 OVC005/// 03/02 Q1025=
METAR EYPA 172350Z AUTO 27006KT 220V330 9999 OVC004/// 05/04 Q1026=
METAR EYVI 172350Z 26010KT 9999 OVC004 02/02 Q1024 NOSIG=


698 
SANA14 KAWN 180000 RRI
METAR KGTB 172355Z AUTO 18012KT 10SM BKN036 OVC130 M00/M04 A2988 RMK
      AO2 SLP126 T10021043 10001 21011 58009=
METAR KSUU 172355Z AUTO 24012KT 10SM CLR 13/07 A3016 RMK AO2 SLP220
      T01330073 10139 20103 55008 $=
METAR KTBN 172355Z AUTO 16014G20KT 10SM SCT100 BKN120 10/M00 A2954
      RMK AO2 SLP010 60000 T01001002 10143 20100 57015=
METAR KTIK 172355Z AUTO 19012KT 10SM CLR 13/03 A2947 RMK AO2 SLP982
      60000 T01310029 10158 20096 53000=
METAR SBBR 180000Z 31004KT 9999 SCT030 22/20 Q1018=


780 
SAZZ40 KAWN 180000 RRX
METAR ETOU 172355Z AUTO 08006KT 9999 OVC007 00/M02 A3056 RMK AO2 SLP357
      T00021019 10012 20001 57011 FZRANO $=
METAR K1GN 172355Z AUTO 32015KT 10SM SCT020 M14/M17 A3007 RMK AO2 SLP230
      60000 T11381173 11096 21140 52029 $=
METAR KBYS 172355Z AUTO 18007KT 10SM CLR 18/M08 A2999 RMK AO2 SLP151
      T01791083 10184 20107 56010 $=
METAR KCWN 172355Z AUTO 34011KT 10SM CLR M00/M05 A2977 RMK AO2 SLP989
      T10031053 10112 21003 52022 $=
METAR KDYS 172355Z 25016G28KT 3SM HZ BKN034 OVC040 19/M02 A2968 RMK
      A02A PK WND 25028/2318 SLP036 WND DATA ESTMD T01931023 10148
      20104 402170060 52006=
METAR KFBG 172355Z AUTO 00000KT 10SM CLR 05/M01 A3010 RMK AO2 SLP198
      T00511014 10133 20051 50002 $=
METAR KGTB 172355Z AUTO 18012KT 10SM BKN036 OVC130 M00/M04 A2988 RMK
      AO2 SLP126 T10021043 10001 21011 58009=
METAR KHLR 172355Z AUTO 19012G21KT 8SM OVC210 16/10 A2971 RMK AO2 SLP058
      T01640098 10192 20145 55009=
METAR KHRT 172355Z AUTO 15007KT 10SM OVC210 15/08 A3002 RMK AO2 SLP164
      T01520075 10175 20151 57011 $=
METAR KNKT 172356Z 11003KT 7SM CLR 04/M02 A3020 RMK SLP223 T00441017=
METAR KSHM 172355Z AUTO 03013KT 10SM FEW085 M01/M06 A2976 RMK AO2 SLP087
      T10071059 10125 21007 52023 $=
METAR KSSC 172355Z AUTO 00000KT 10SM CLR 07/M02 A3008 RMK AO2 SLP189
      T00691025 10148 20069 50002 $=
METAR KSZL 172355Z AUTO 31004KT 10SM BKN060 10/00 A2955 RMK AO2 SLP012
      T00960000 10113 20078 52016 VISNO RWY01 CHINO RWY01 $=
METAR PAFR 172355Z AUTO 00000KT 10SM OVC100 M02/M05 A3024 RMK AO2 SLP247
      T10231051 10038 21047 53004 $=
METAR TXKF 172355Z 32017KT 9999 SCT036 SCT055 BKN070 16/10 Q1020=


828 
SAUS14 KAWN 180000 RRX
METAR K1BM 172355Z AUTO 26015KT 10SM BKN120 M12/M15 A3019 RMK AO2 SLP296
      T11231154 11084 21123 53002 $=
METAR K1GM 172355Z AUTO 00000KT 9SM -SN SCT021 BKN031 OVC110 M11/M14
      A3015 RMK AO2 SLP293 P0000 60000 T11101140 11098 21110 53003 $=
METAR K1IM 172355Z AUTO 20003KT 9SM -SN OVC060 M11/M13 A3023 RMK AO2
      SNB2255 SLP303 P0000 60000 T11141133 11087 21114 53001 $=
METAR K1MM 172355Z AUTO 00000KT 2 1/2SM -SN BR SCT024 BKN044 OVC120
      M14/M16 A3017 RMK AO2 VIS 2 1/2V5 SLP305 P0000 60000
      T11361158 11079 21136 51008 $=
METAR KBYS 172355Z AUTO 18007KT 10SM CLR 18/M08 A2999 RMK AO2 SLP151
      T01791083 10184 20107 56010 $=
METAR KCWN 172355Z AUTO 34011KT 10SM CLR M00/M05 A2977 RMK AO2 SLP989
      T10031053 10112 21003 52022 $=
METAR KFMN 172353Z 29010KT 10SM CLR 07/M18 A2989 RMK AO2 SLP146 T00721183
      10089 20011 53001=
METAR KFST 172353Z AUTO 29023G36KT 8SM OVC033 18/M08 A2985 RMK AO2
      PK WND 28040/2258 SLP074 T01831078 10217 20183 53010=
METAR KHLR 172355Z AUTO 19012G21KT 8SM OVC210 16/10 A2971 RMK AO2 SLP058
      T01640098 10192 20145 55009=
METAR KLAA 172353Z AUTO 04014G22KT 10SM CLR 06/M06 A2979 RMK AO2 PK
      WND 05031/2257 SLP095 T00561056 10139 20056 53041=
METAR KLVS 172353Z AUTO 36007KT 10SM CLR 06/M18 A2977 RMK AO2 SLP048
      T00611183 10117 20061 53020 $=
METAR KQBR 172355Z AUTO 36013G23KT 10SM -SHRA SCT065 BKN080 00/M04
      A3003 RMK AO2 WSHFT 2310
      RAB2313E2320SHRAB2320E2332B2352SHRASNB2354E2355 SLP195 WND
      DATA ESTMD P0000 60000 T00021045 10021 21040 400411040
      53009=
METAR KTUS 172353Z 29007KT 10SM CLR 16/M07 A3009 RMK AO2 SLP168 T01611067
      10172 20139 55001=


820 
SAUS14 KAWN 180000 RRX
METAR KAFW 172353Z 17013KT 10SM FEW130 FEW180 16/06 A2960 RMK AO2 SLP023
      T01560056 10183 20128 56012=
METAR KBYG 172353Z AUTO 34027G36KT 1 1/2SM -SN BR SCT013 OVC047 M11/M12
      A3000 RMK AO2 PK WND 35036/2342 UPE08SNB08 SLP208 P0000
      60000 T11061117 11056 21106 51022=
METAR KCDS 172353Z AUTO 32016KT 10SM CLR 17/M06 A2955 RMK AO2 PK WND
      32030/2334 SLP998 T01671061 10222 20167 53020=
METAR KCLM 172353Z AUTO 13004KT 10SM CLR 06/01 A3047 RMK AO2 SLP320
      60000 T00560006 10072 20039 55001=
METAR KCPR 172353Z 04012G23KT 2SM R03/5500VP6000FT -SN BR OVC016 M09/M11
      A2999 RMK AO2 SLP200 P0002 60004 T10941111 11044 21094 51021=
METAR KDRO 172353Z AUTO 23009G15KT 10SM CLR 04/M16 A2985 RMK AO2 PK
      WND 25030/2257 SLP137 T00391161 10072 20006 53007=
METAR KHHR 172353Z 23005KT 10SM CLR 15/08 A3016 RMK AO2 SLP211 T01500078
      10167 20139 56013 $=
METAR KINK 172353Z AUTO 26025G40KT 2SM HZ SCT027 17/M06 A2980 RMK AO2
      PK WND 26044/2324 SLP072 T01671056 10189 20161 53009=
METAR KLAX 172353Z 23009KT 10SM FEW010 SCT035 14/07 A3016 RMK AO2 SLP212
      T01390067 10156 20139 56013=
METAR KLMT 172353Z 33006KT 10SM CLR 04/M03 A3019 RMK AO2 SLP239 T00441033
      10067 20028 53001=
METAR KMAE 172353Z AUTO 31004KT 10SM CLR 18/02 A3017 RMK AO2 SLP215
      T01780022 10189 20100 56013=
METAR KOMK 172353Z AUTO 02010KT 10SM 03/M06 A3036 RMK AO2 SLP299 T00281061
      10044 21039 $=
METAR KPUW 172353Z AUTO 28007KT 10SM FEW020 BKN029 M01/M05 A3028 RMK
      AO2 SLP282 T10111050 10011 21033 53003=
METAR KSNA 172353Z 19007KT 10SM FEW033 16/07 A3015 RMK AO2 SLP211 T01560072
      10161 20139 56014=


821 
SAUS14 KAWN 180000 RRX
METAR K1AM 172355Z AUTO 22008KT 10SM CLR M13/M16 A3021 RMK AO2 SNE31
      SLP308 P0000 60000 T11341161 11098 21134 52003 $=
METAR K1FM 172355Z AUTO 00000KT 10SM OVC070 M11/M14 A3018 RMK AO2 SNE01SNB10E22
      SLP300 P0000 60000 T11131136 11096 21113 53003 $=
METAR K1YT 172355Z AUTO 00000KT 10SM CLR 07/M07 A3029 RMK AO2 SLP271
      T00651075 10074 20013 53001 $=
METAR KAPA 172353Z 02014G22KT 10SM OVC013 M02/M06 A2986 RMK AO2 SLP133
      T10221056 10106 21022 53030=
METAR KBFI 172353Z 01004KT 10SM BKN033 07/01 A3046 RMK AO2 SLP314 T00670006
      10072 20033 53001 $=
METAR KBLI 172353Z 32004KT 10SM CLR 05/01 A3046 RMK AO2 SLP324 T00500006
      10067 20011 55001=
METAR KBRO 172353Z 17007KT 10SM CLR 22/17 A2985 RMK AO2 SLP106 T02170172
      10256 20217 58001=
METAR KBTM 172353Z AUTO 29007KT 10SM OVC065 M09/M17 A3009 RMK AO2 SLP244
      T10941167 11072 21094 51007=
METAR KCDC 172353Z AUTO 20011KT 10SM CLR 08/M13 A2996 RMK AO2 SLP141
      T00781133 10100 20056 53001=
METAR KDEN 172353Z 03019G24KT 9SM -SN OVC020 M03/M08 A2988 RMK AO2
      PK WND 05026/2333 SNE10B19 SLP130 P0000 60000 T10281078
      10106 21028 51036=
METAR KFHU 172355Z AUTO 26012KT 10SM CLR 12/M06 A3009 RMK AO2 SLP176
      T01231062 10136 20106 53002=
METAR KGRK 172355Z AUTO 17012KT 8SM OVC200 17/11 A2973 RMK AO2 SLP065
      60000 T01710105 10204 20137 55006=
METAR KGUR 172355Z AUTO 35014G19KT 10SM BKN070 OVC085 M04/M10 A2995
      RMK AO2 SLP185 60000 T10441100 10003 21044 52023=
METAR KHRI 172353Z AUTO 00000KT 10SM CLR 08/M04 A3038 RMK AO2 SLP291
      T00781039 10078 20022 55002=


825 
SAUS14 KAWN 180000 RRX
METAR KALI 172353Z AUTO 21008KT 10SM CLR 21/14 A2980 RMK AO2 SLP091
      T02110144 10239 20200 55015=
METAR KBCE 172353Z AUTO 33013KT 10SM CLR 04/M13 A2995 RMK AO2 SLP145
      T00391133 10067 20028 53005=
METAR KBKE 172353Z AUTO 32012KT 10SM CLR 02/M08 A3024 RMK AO2 SLP262
      T00171083 10033 20011 53003=
METAR KBYI 172353Z AUTO 28015G31KT 10SM OVC075 01/M07 A3004 RMK AO2
      PK WND 28034/2255 SLP189 T00111072 10033 20000 53012=
METAR KCAG 172353Z AUTO 00000KT 10SM OVC065 M02/M07 A2982 RMK AO2 SLP172
      T10221072 11006 21078 55004=
METAR KCEZ 172353Z AUTO 29012KT 10SM CLR 04/M15 A2991 RMK AO2 SLP142
      T00391150 10067 20033 53002=
METAR KCOT 172353Z AUTO 00000KT 10SM CLR 21/11 A2981 RMK AO2 SLP090
      T02060106 10228 20161 53006=
METAR KDAL 172353Z 17008KT 10SM FEW040 FEW110 FEW250 15/06 A2964 RMK
      AO2 SLP033 T01500056 10167 20128 56013=
METAR KDEW 172353Z AUTO 00000KT 3SM BR OVC003 M04/M04 A3030 RMK AO2
      SLP292 I6007 T10391044 11028 21056 53004=
METAR KFUL 172353Z VRB04KT 10SM CLR 16/01 A3014 RMK AO2 SLP208 T01560006
      10161 20133 56014=
METAR KPGA 172353Z AUTO 00000KT 10SM CLR 09/M08 A2991 RMK AO2 SLP128
      T00941078 10094 20017 55007=
METAR KPRB 172353Z AUTO 20007KT 10SM CLR 17/06 A3014 RMK AO2 SLP209
      T01670056 10183 20050 56015=
METAR KSIY 172353Z AUTO 00000KT 10SM CLR 10/01 A3019 RMK AO2 SLP245
      T01000011 10106 20000 55005 PWINO $=
METAR KSNK 172355Z AUTO 27022G28KT 10SM CLR 19/M04 A2970 RMK AO2 T01861037=
METAR KSTS 172353Z 15007KT 10SM SCT022 12/08 A3020 RMK AO2 SLP222 T01220078
      10133 20050 55008=


826 
SAUS14 KAWN 180000 RRX
METAR KBMQ 172353Z AUTO 18010KT 10SM CLR 16/09 A2977 RMK AO2 SLP073
      T01610089 10183 20133 56008 $=
METAR KCRQ 172353Z AUTO 22007KT 10SM CLR 13/07 A3015 RMK AO2 SLP210
      T01330072 10144 20133 56013=
METAR KDRT 172353Z AUTO 14009KT 10SM CLR 20/06 A2979 RMK AO2 SLP085
      T02000061 10228 20150 55005=
METAR KDWH 172353Z 22004KT 10SM OVC030 18/13 A2981 RMK AO2 SLP094 60000
      T01830128 10189 20161 55014=
METAR KELN 172353Z AUTO 12005KT 10SM CLR 04/M04 A3032 RMK AO2 SLP282
      T00441039 10050 20006 56001=
METAR KLVM 172353Z AUTO 30009G18KT 10SM OVC037 M10/M16 A3015 RMK AO2
      SLP262 T11001161 11056 21100 53013=
METAR KOAK 172353Z 28010KT 10SM FEW019 13/07 A3022 RMK AO2 SLP232 T01330072
      10144 20100 55008=
METAR KONO 172353Z AUTO 32017KT 10SM CLR 04/M06 A3025 RMK AO2 PK WND
      32030/2254 SLP265 T00441061 10072 20039 53009=
METAR KPAE 172353Z AUTO 36006KT 10SM CLR 06/00 A3044 RMK AO2 SLP314
      T00610000 10061 20028 55001=
METAR KPDX 172353Z 33005KT 10SM FEW007 BKN015 04/00 A3043 RMK AO2 SLP305
      T00440000 10050 20039 55002=
METAR KPSC 172353Z 31004KT 10SM CLR 07/M04 A3039 RMK AO2 SLP292 T00721044
      10089 20022 55002=
METAR KRBG 172353Z AUTO 14003KT 10SM OVC022 06/01 A3035 RMK AO2 SLP281
      T00560011 10061 20033 55003=
METAR KRXE 172353Z AUTO 00000KT 10SM BKN090 M05/M06 A3002 RMK AO2 SLP206
      60001 T10501061 11022 21061 53016=
METAR KSHN 172353Z AUTO 10006KT 10SM BKN036 07/03 A3042 RMK AO2 SLP308
      T00670028 10072 21006 55001=
METAR KWVI 172353Z AUTO 25005KT 10SM CLR 12/07 A3022 RMK AO2 SLP233
      T01170067 10133 20078 55009=


827 
SAUS14 KAWN 180000 RRX
METAR KACV 172353Z AUTO 32007KT 10SM FEW017 09/06 A3022 RMK AO2 SLP240
      T00890056 10106 20072 55006=
METAR KALW 172353Z 27005KT 10SM CLR 04/M03 A3035 RMK AO2 SLP288 T00391028
      10044 20017 53000=
METAR KAUS 172353Z 22006KT 10SM BKN100 BKN250 16/11 A2980 RMK AO2 SLP090
      T01560106 10161 20128 55006=
METAR KCCR 172353Z 28008KT 10SM CLR 14/07 A3020 RMK AO2 SLP211 T01390072
      10150 20089 55005=
METAR KCNO 172353Z 28007KT 10SM BKN040 16/06 A3015 RMK AO2 SLP210 T01560056
      10156 20111 56014=
METAR KCYS 172353Z AUTO 01010G21KT 6SM HZ FEW011 BKN028 OVC035 M07/M09
      A2984 RMK AO2 PK WND 35027/2341 SLP129 60001 T10671094 10006
      21067 53015 PWINO FZRANO=
METAR KDLN 172353Z AUTO 07011KT 10SM BKN045 OVC060 M09/M14 A3008 RMK
      AO2 SLP236 T10941144 11067 21094 53011=
METAR KLVJ 172353Z AUTO 17006KT 10SM CLR 18/14 A2981 RMK AO2 SLP094
      T01830144 10206 20183 55030=
METAR KOVE 172353Z AUTO 29003KT 10SM CLR 14/03 A3019 RMK AO2 SLP226
      T01440033 10156 20117 55009=
METAR KPMD 172353Z AUTO 27022KT 10SM CLR 15/M11 A3009 RMK AO2 PK WND
      28029/2323 SLP184 T01501106 10172 20139 55003=
METAR KPRC 172353Z 25013KT 10SM CLR 08/M08 A3006 RMK AO2 SLP155 T00831083
      10106 20078 53004=
METAR KRBD 172353Z 18013G21KT 10SM CLR 14/06 A2963 RMK AO2 PK WND 21026/2312
      SLP031 T01440061 10161 20122 56015=
METAR KRKP 172353Z AUTO 18009G18KT 8SM CLR 18/16 A2980 RMK AO2 SLP092
      T01830161 10228 20183 56025=
METAR KSFF 172353Z 00000KT 10SM FEW016 01/M05 A3031 RMK AO2 SLP285
      T00061050 10006 21039 53003=


828 
SAUS14 KAWN 180000 RRX
METAR KASE 172353Z 00000KT 10SM SCT070 OVC100 M02/M12 A2983 RMK AO2
      SLP118 T10221122 10006 21039 53003=
METAR KBIL 172353Z 02011KT 10SM BKN050 BKN065 OVC085 M08/M14 A3018
      RMK AO2 SLP264 4/002 SHSN DSNT NE-SW T10781139 11050 21078
      53019=
METAR KBPI 172353Z AUTO 33014KT 10SM FEW060 OVC080 M06/M12 A2984 RMK
      AO2 SLP167 60000 T10561122 11022 21089 53018=
METAR KCRS 172353Z AUTO 20017G30KT 10SM CLR 16/09 A2970 RMK AO2 PK
      WND 20030/2337 SLP057 60000 T01560094 10156 20122 56016=
METAR KELY 172353Z AUTO 32009G17KT 10SM CLR 07/M09 A3000 RMK AO2 SLP168
      T00671094 10083 20056 53004=
METAR KGGG 172353Z 18012KT 10SM CLR 13/08 A2974 RMK AO2 SLP072 60000
      T01280083 10133 20111 56009=
METAR KGGW 172353Z AUTO 33015KT 10SM OVC025 M09/M15 A3024 RMK AO2 SLP280
      60000 T10891150 11072 21094 52016=
METAR KGTF 172353Z 23005KT 6SM -SN BR SCT030 OVC036 M11/M12 A3026 RMK
      AO2 SNB05E34B47 SLP317 P0000 60000 T11061117 11089 21111 53001=
METAR KHJO 172353Z AUTO 00000KT 10SM CLR 18/03 A3017 RMK AO2 SLP218
      T01780033 10183 20078 56016=
METAR KHQM 172353Z AUTO 10008KT 10SM CLR 07/02 A3043 RMK AO2 SLP307
      T00670022 10067 20000 55003=
METAR KLBX 172353Z AUTO 19013G21KT 10SM CLR 19/15 A2978 RMK AO2 PK
      WND 16032/2319 RAB20E32 SLP085 P0000 60000 T01940150 10206
      20189 58036=
METAR KRAL 172353Z 30003KT 10SM CLR 15/04 A3014 RMK AO2 SLP200 T01500039
      10156 20111 56015=
METAR KSMF 172353Z 18006KT 10SM CLR 14/06 A3018 RMK AO2 SLP218 T01440061
      10156 20083 56009=


857 
SANA35 KAWN 180000 RRI
METAR KBIX 172355Z AUTO 13003KT 10SM OVC042 16/10 A2997 RMK AO2 SLP152
      T01610097 10176 20158 55006=
METAR KBRO 172353Z 17007KT 10SM CLR 22/17 A2985 RMK AO2 SLP106 T02170172
      10256 20217 58001=
METAR KDAB 172353Z 00000KT 10SM FEW050 12/08 A3012 RMK AO2 SLP197 T01220083
      10183 20122 53001=
METAR KFLL 172353Z 11013KT 10SM OVC049 21/17 A3003 RMK AO2 RAB06E53
      SLP169 P0000 60018 T02060167 10206 20189 58004=
METAR KJFK 172351Z 22009KT 10SM SCT050 SCT250 03/M04 A3013 RMK AO2
      SLP202 T00281039 10067 20017 51016=
METAR KMCO 172353Z 09005KT 10SM FEW035 FEW080 16/08 A3011=
METAR KNKT 172356Z 11003KT 7SM CLR 04/M02 A3020 RMK SLP223 T00441017=
METAR KPAM 172355Z 17007KT 10SM FEW220 11/06 A3004 RMK AO2A SLP176
      T01100059 10178 20110 58003=
METAR KPBI 172353Z 12011KT 10SM SCT030 OVC065 21/17 A3006 RMK AO2 RAB04E13
      SLP179 P0000 60009 T02060172 10211 20189 58005 $=
METAR KPOB 172355Z AUTO 00000KT 10SM CLR 04/M03 A3011 RMK AO2 SLP201
      T00401031 10133 20040 50003 $=
METAR KSAV 172353Z 13006KT 10SM FU FEW250 09/03 A3011 RMK AO2 SLP198
      T00890028 50006=
METAR KSSC 172355Z AUTO 00000KT 10SM CLR 07/M02 A3008 RMK AO2 SLP189
      T00691025 10148 20069 50002 $=
METAR KVPS 172355Z AUTO 14007KT 10SM BKN210 14/05 A3003 RMK AO2 SLP176
      60000 T01420053 10175 20133 57009 $=
METAR MWCR 180000Z 12003KT 9999 FEW018 26/22 Q1016=
METAR SCEL 180000Z 22018KT CAVOK 24/05 Q1016 NOSIG=
METAR TIST 172353Z AUTO 09011KT 6SM -RA BR FEW021 SCT035 OVC045 24/23
      A3009 RMK AO2 WSHFT 2321 RAB37 SLP191 P0002 60003 T02390228
      10300 20239 53018=
METAR TXKF 172355Z 32017KT 9999 SCT036 SCT055 BKN070 16/10 Q1020=


858 
SAUS14 KAWN 180000 RRX
METAR KFHR 172353Z AUTO VRB04KT 10SM CLR 10/01 A3048 RMK AO2 SLP320
      T01000006 10122 20089 55002=
METAR KGCC 172353Z AUTO 32015KT 7SM FEW017 BKN024 OVC029 M08/M11 A3003
      RMK AO2 SNE11 SLP209 P0000 60000 T10781106 11039 21078 51017 $=
METAR KGKY 172353Z 16013G20KT 10SM SCT065 16/06 A2963 RMK AO2 SLP031
      T01560056 10183 20128 56012=
METAR KLAR 172353Z AUTO 06013KT 3/4SM -SN BR VV010 M08/M11 A2979 RMK
      AO2 SLP112 P0001 60009 T10831106 10006 21083 53012=
METAR KLFK 172353Z AUTO 20004KT 10SM OVC031 14/11 A2981 RMK AO2 SLP093
      60000 T01440106 10144 20133 55003=
METAR KOGD 172353Z 35014G24KT 10SM FEW060 OVC080 02/M05 A3000 RMK AO2
      WSHFT 2311 SLP171 T00171050 10061 20011 53011=
METAR KPIH 172353Z 26006KT 10SM FEW005 BKN040 BKN075 M03/M05 A3005
      RMK AO2 SLP213 60010 T10331050 11022 21033 53013=
METAR KPSX 172353Z AUTO 17010KT 10SM CLR 17/16 A2979 RMK AO2 SLP087
      T01720156 10206 20172 55032=
METAR KRIW 172353Z AUTO 02021G28KT 1 3/4SM -SN OVC019 M09/M12 A2998
      RMK AO2 PK WND 02029/2317 SLP206 P0002 60009 T10941122 11044
      21094 53023=
METAR KSAC 172353Z AUTO VRB03KT 10SM CLR 14/07 A3018 RMK AO2 SLP220
      T01390067 10144 20072 56009=
METAR KSNS 172353Z 31007KT 10SM SCT025 12/07 A3021 RMK AO2 SLP239 T01220072
      10139 20072 55009=
METAR KSSF 172353Z 31003KT 10SM CLR 16/09 A2981 RMK AO2 SLP095 60000
      T01560094 10167 20133 55000=
METAR KTRL 172353Z AUTO 19012KT 10SM CLR 14/08 A2967 RMK AO2 SLP047
      T01390078 10150 20111 55013=
METAR KUIL 172353Z AUTO 27007KT 10SM CLR 07/02 A3044 RMK AO2 SLP309
      T00720017 10094 20017 55002=


859 
SAUS14 KAWN 180000 RRX
METAR KCNY 172353Z AUTO 33008KT 10SM CLR 03/M12 A2987 RMK AO2 SLP147
      T00331117 10056 21006 55008=
METAR KCXO 172353Z 21004KT 10SM OVC028 17/12 A2982 RMK AO2 SLP097 60000
      T01720122 10178 20161 55012=
METAR KDLS 172353Z AUTO 32003KT 10SM CLR 08/M01 A3038 RMK AO2 SLP288
      T00831011 10094 20033 53000=
METAR KDVT 172353Z 24009KT 10SM CLR 16/M04 A3005 RMK AO2 SLP167 T01611044
      10167 20133 55006=
METAR KEVW 172353Z AUTO 31019G26KT 9SM FEW011 BKN044 OVC060 M05/M08
      A2989 RMK AO2 PK WND 28026/2259 SNB19E28 SLP150 P0000 60000
      T10501083 10006 21050 53012=
METAR KGEG 172353Z 15005KT 10SM FEW010 FEW020 FEW055 M01/M05 A3028
      RMK AO2 SLP281 T10111050 11011 21039 53004=
METAR KGJT 172353Z 29005KT 10SM CLR 03/M12 A2988 RMK AO2 SLP139 T00281122
      10061 21017 55008=
METAR KLND 172353Z AUTO 09003KT 1/4SM SN FZFG VV012 M08/M10 A2998 RMK
      AO2 SLP205 P0004 60025 T10831100 11022 21083 53019=
METAR KLXV 172353Z AUTO 32007KT 10SM SCT055 OVC080 M04/M14 A2981 RMK
      AO2 SLP082 T10441144 11006 21044 50002=
METAR KMCE 172353Z AUTO 32004KT 10SM CLR 18/01 A3016 RMK AO2 SLP213
      T01780011 10183 20100 56011=
METAR KPSP 172353Z 33005KT 10SM CLR 20/M01 A3006 RMK AO2 SLP180 T02001011
      10211 20161 56007=
METAR KRDD 172353Z 00000KT 10SM CLR 16/02 A3017 RMK AO2 SLP216 T01560017
      10161 20089 55006=
METAR KSGR 172353Z 18010KT 10SM CLR 18/14 A2980 RMK AO2 SLP092 60000
      T01830139 10200 20183 55024=
METAR KTKI 172353Z 17014KT 10SM CLR 13/06 A2964 RMK AO2 SLP044 60000
      T01330061 10156 20122 56010=


860 
SAUS14 KAWN 180000 RRX
METAR K1EM 172355Z AUTO 21010KT 4SM -SN BR OVC016 M12/M14 A3019 RMK
      AO2 SNB07E44SNB54 SLP296 P0000 60000 T11191141 11085 21119
      52007 $=
METAR KBOI 172353Z 30016G22KT 10SM SCT055 03/M08 A3018 RMK AO2 PK WND
      31027/2310 SLP239 T00331083 10050 20006 53014=
METAR KBUR 172353Z 19007KT 10SM CLR 14/06 A3014 RMK AO2 SLP199 T01390061
      10161 20111 56015=
METAR KDFW 172353Z 17009KT 10SM FEW110 SCT250 15/05 A2961 RMK AO2 SLP025
      T01500050 10172 20128 56011=
METAR KHOU 172353Z 18011KT 10SM SCT100 OVC170 18/14 A2980 RMK AO2 SLP095
      T01830139 10200 20178 55026=
METAR KHVR 172353Z AUTO 32007KT 10SM SCT023 BKN090 OVC110 M09/M14 A3030
      RMK AO2 SLP304 60000 T10941139 11078 21094 53009=
METAR KMAF 172353Z 28024G34KT 4SM BLDU OVC037 16/M03 A2978 RMK AO2
      PK WND 29042/2323 SLP063 T01561033 10178 20156 53011=
METAR KMFR 172353Z 00000KT 8SM CLR 04/02 A3028 RMK AO2 SLP263 I6002
      T00390017 10050 21006 55007=
METAR KMOD 172353Z 34004KT 10SM CLR 16/03 A3017 RMK AO2 SLP216 T01560028
      10161 20078 55009=
METAR KMTJ 172353Z AUTO 35005KT 10SM CLR 02/M12 A2988 RMK AO2 SLP137
      T00221117 10039 21022 53003=
METAR KMYF 172353Z 23007KT 10SM CLR 14/07 A3017 RMK AO2 SLP216 T01390067
      10156 20128 56010 $=
METAR KRIL 172353Z AUTO 13005KT 10SM BKN075 01/M09 A2986 RMK AO2 SLP147
      T00061089 10006 21061 55006=
METAR KSBA 172353Z 12007KT 10SM CLR 14/10 A3014 RMK AO2 SLP205 T01440100
      10161 20144 56021 $=
METAR KSJC 172353Z 33008KT 10SM CLR 14/07 A3020 RMK AO2 SLP225 T01440072
      10167 20100 56009=


861 
SAUS14 KAWN 180000 RRX
METAR KADS 172353Z 18008G15KT 10SM SKC 15/06 A2964=
METAR KBPT 172353Z 13004KT 10SM SCT028 BKN033 16/13 A2982 RMK AO2 SLP097
      T01560128 10183 20150 56038=
METAR KCLL 172353Z 19007KT 10SM CLR 16/12 A2979 RMK AO2 SLP085 60000
      T01610117 10178 20139 50006=
METAR KEEO 172353Z AUTO 25013KT 10SM BKN070 02/M08 A2981 RMK AO2 SLP136
      T00171078 10039 21022 55000=
METAR KFAT 172353Z 00000KT 10SM CLR 18/01 A3017 RMK AO2 SLP215 T01780006
      10178 20094 56013=
METAR KFTW 172353Z 16009KT 10SM OVC055 14/06 A2961 RMK AO2 SLP023 T01440056
      10178 20117 56011=
METAR KGEY 172353Z AUTO 32030G39KT 10SM CLR M07/M13 A3005 RMK AO2 PK
      WND 32044/2336 SLP229 T10671133 11028 21067 53023=
METAR KHIO 172353Z 08006KT 10SM BKN021 04/01 A3041 RMK AO2 SLP301 T00440011
      10056 20011 55002=
METAR KHLN 172353Z 33007KT 10SM FEW055 OVC110 M08/M14 A3024 RMK AO2
      SLP305 T10831139 11067 21083 53003=
METAR KIAH 172353Z VRB03KT 10SM FEW035 FEW110 OVC170 19/13 A2980 RMK
      AO2 SLP092 60000 T01890133 10194 20172 55023=
METAR KMYV 172353Z AUTO 10SM CLR 14/03 A3018 RMK AO2 SLP224 T01440033
      10150 20106 55007 $=
METAR KONT 172353Z 24005KT 10SM BKN045 14/04 A3014 RMK AO2 SLP208 T01440039
      10150 20100 56015=
METAR KPIL 172353Z AUTO 17009KT 10SM CLR 21/17 A2986 RMK AO2 SLP110
      60000 T02110172 10239 20211 53002=
METAR KPUC 172353Z AUTO 17004KT 10SM CLR 03/M10 A2987 RMK AO2 SLP156
      T00331100 10044 21006 55007=
METAR KSHR 172353Z AUTO 33017KT 4SM HZ OVC034 M08/M11 A3012 RMK AO2
      SLP247 60000 T10781111 11044 21078 51018=


862 
SAUS14 KAWN 180000 RRX
METAR KEMT 172345Z 19007KT 10SM SCT050 16/06 A3015=
METAR KIDA 172353Z 00000KT 7SM BKN075 M03/M06 A3003 RMK AO2 SLP214
      60000 T10331061 11022 21050 53016=
METAR KJER 172353Z AUTO 28024G31KT 10SM CLR 01/M09 A3006 RMK AO2 PK
      WND 27036/2311 SLP206 T00061089 10028 21006 53012=
METAR KLOL 172353Z AUTO 04010KT 10SM CLR 08/M04 A3011 RMK AO2 WSHFT
      2323 SLP218 T00831039 10111 20000 53003=
METAR KMFE 172353Z 14009KT 10SM CLR 23/16 A2985 RMK AO2 SLP106 T02280161
      10256 20206 55006=
METAR KMLP 172353Z AUTO 35003KT 2 1/2SM -SN BR OVC001 M08/M11 A3007
      RMK AO2 VIS 1V4 SLP251 P0000 60000 T10831106 11067 21083 52006=
METAR KMMV 172353Z AUTO A3041 RMK AO2 SLPNO 56003 PWINO FZRANO=
METAR KMSO 172353Z 00000KT 3SM -SN BR OVC036 M04/M06 A3021 RMK AO2
      SLP267 P0000 60003 T10391056 11011 21044 53007=
METAR KODO 172353Z AUTO 27020G34KT 4SM HZ OVC033 16/M06 A2980 RMK AO2
      PK WND 26045/2318 SLP066 T01611061 10183 20161 53013=
METAR KOLF 172353Z AUTO 32013KT 10SM BKN026 M10/M16 A3026 RMK AO2 SLP280
      T11001161 11072 21100 51017=
METAR KRNT 172353Z 03005KT 10SM OVC037 07/01 A3046 RMK AO2 SLP318 T00670011
      10072 20044 53002=
METAR KUTS 172353Z AUTO 20007KT 10SM OVC030 17/12 A2979 RMK AO2 SLP087
      T01670122 10172 20139 51015=
METAR KVEL 172353Z AUTO 13003KT 10SM CLR 03/M12 A2983 RMK AO2 SLP130
      T00281117 10044 21011 55004=
METAR KVUO 172353Z AUTO VRB03KT 10SM OVC015 04/00 A3044 RMK AO2 SLP309
      T00390000 10044 20033 55001=
METAR KWRL 172353Z AUTO 32009G16KT 10SM OVC075 M07/M13 A3007 RMK AO2
      SLP235 T10721128 11044 21072 51022=
METAR KYKM 172353Z 00000KT 10SM FEW060 07/M05 A3035 RMK AO2 SLP290
      T00671050 10078 20022 55000=


863 
SAZZ40 KAWN 180000 RRX
METAR BGTL 172355Z AUTO 11010KT 9999 CLR M31/M36 A3006 RMK AO2 SLP166
      T13071357 11277 21312 52012 TSNO $=
METAR K1YT 172355Z AUTO 00000KT 10SM CLR 07/M07 A3029 RMK AO2 SLP271
      T00651075 10074 20013 53001 $=
METAR KBUR 172353Z 19007KT 10SM CLR 14/06 A3014 RMK AO2 SLP199 T01390061
      10161 20111 56015=
METAR KDTS 172353Z 14010KT 10SM CLR 16/07 A3004 RMK AO2 SLP170 T01610072
      10172 20156 55009=
METAR KFHU 172355Z AUTO 26012KT 10SM CLR 12/M06 A3009 RMK AO2 SLP176
      T01231062 10136 20106 53002=
METAR KGRK 172355Z AUTO 17012KT 8SM OVC200 17/11 A2973 RMK AO2 SLP065
      60000 T01710105 10204 20137 55006=
METAR KGUR 172355Z AUTO 35014G19KT 10SM BKN070 OVC085 M04/M10 A2995
      RMK AO2 SLP185 60000 T10441100 10003 21044 52023=
METAR KLSF 172355Z AUTO 15003KT 10SM CLR 12/01 A3001 RMK AO2 SLP169
      T01150009 10181 20108 53001 RVRNO VISNO RWY33 $=
METAR KPAM 172355Z 17007KT 10SM FEW220 11/06 A3004 RMK AO2A SLP176
      T01100059 10178 20110 58003=
METAR KPOB 172355Z AUTO 00000KT 10SM CLR 04/M03 A3011 RMK AO2 SLP201
      T00401031 10133 20040 50003 $=
METAR KTTS 172355Z AUTO 00000KT 10SM CLR 13/11 A3008 RMK AO2 SLP190
      T01280107 10189 20127 58002 $=
METAR NFFN 180000Z 30013KT 9999 FEW025TCU 31/25 Q1008 NOSIG=
METAR OEPS 172355Z AUTO 33003KT 9999 CLR 11/M01 A3009 RMK AO2 SLP172
      WND DATA ESTMD T01141006 10157 20114 58002=
METAR PASC 172353Z 09009KT 7SM FEW150 M29/M32 A3018 RMK AO2 SLP224
      T12891322 11278 21294 58023 $=
METAR PHJR 172353Z 20009KT 10SM FEW060 27/19 A2993 RMK AO2 SLP141 60004
      T02720189 10283 20211 56021=


868 
SAUS14 KAWN 180000 RRX
METAR KDTO 172353Z 15009KT 10SM FEW080 15/05 A2961 RMK AO2 SLP023 60000
      T01500050 10183 20128 56013=
METAR KFCS 172355Z AUTO 05012KT 10SM CLR 01/M06 A2979 RMK AO2 SLP110
      T00121062 10099 20012 52029 $=
METAR KIPL 172353Z AUTO 09007KT 10SM CLR 21/00 A3003 RMK AO2 SLP170
      T02110000 10228 20172 55006=
METAR KLBB 172353Z 28025G34KT 7SM FEW000 17/M06 A2966 RMK AO2 PK WND
      27040/2303 SLP019 BLDU FEW000 BLDU ALQDS T01671061 10194
      20167 53021=
METAR KLVK 172353Z AUTO 29008KT 10SM CLR 13/ A3018 RMK AO2 SLP220 T0133
      10144 20072=
METAR KPDT 172353Z 31004KT 10SM CLR 05/M03 A3035 RMK AO2 SLP282 60000
      T00501033 10056 20017 53001=
METAR KRNM 172353Z 25007KT 10SM CLR 14/03 A3014 RMK AO2 SLP209 T01390028
      10156 20111 56012=
METAR KRWL 172353Z AUTO 01008KT 3SM -SN OVC024 M08/M11 A2986 RMK AO2
      SLP147 P0001 60003 T10781106 11011 21078 51018=
METAR KSDM 172353Z 25006KT 10SM CLR 14/06 A3017 RMK AO2 SLP214 T01440061
      10167 20139 56009 $=
METAR KSEA 172353Z 02007KT 10SM BKN031 05/01 A3045 RMK AO2 SLP320 T00500006
      10061 20028 53002=
METAR KTIW 172353Z 02006KT 10SM CLR 07/02 A3045 RMK AO2 SLP314 60001
      T00670022 10072 20039 53000 $=
METAR KTOR 172353Z AUTO 36020G33KT 10SM OVC085 M05/M10 A2995 RMK AO2
      PK WND 36033/2346 UPB05E13 SLP160 P0000 60000 T10501100
      11006 21050 53025 FZRANO $=
METAR KTVL 172353Z AUTO 00000KT 10SM CLR 06/M06 A3015 RMK AO2 SLP213
      T00611061 10083 20017 53002=
METAR KVGT 172353Z 14005KT 10SM CLR 16/M03 A2999 RMK AO2 SLP174 T01561033
      10156 20083 56011=


879 
SAFJ31 NFNA 180000
METAR NFNA 180000Z 10007KT 9999 BKN020 32/26 Q1007=


935 
SANA14 KAWN 180000 RRJ
METAR KNKT 172356Z 11003KT 7SM CLR 04/M02 A3020 RMK SLP223 T00441017=
METAR KPAM 172355Z 17007KT 10SM FEW220 11/06 A3004 RMK AO2A SLP176
      T01100059 10178 20110 58003=
METAR KPOB 172355Z AUTO 00000KT 10SM CLR 04/M03 A3011 RMK AO2 SLP201
      T00401031 10133 20040 50003 $=
METAR KRCA 172355Z AUTO 35020G26KT 6SM -SN FEW008 BKN015 BKN026 OVC060
      M05/M09 A2998 RMK AO2 PK WND 34031/21 SNB10 CIG 015V025
      BKN015 V SCT CIG 014 RWY13 SLP184 P0000 60000 T10541093
      11006 21056 52032 $=
METAR KRIV 172355Z AUTO 32008KT 10SM CLR 14/03 A3013 RMK AO2 SLP203
      T01370032 10147 20083 56014=
METAR KSKA 172355Z AUTO 15004KT 10SM CLR M01/M04 A3026 RMK AO2 SLP274
      T10071039 10005 21023 53004 $=
METAR KSKF 172355Z AUTO 00000KT 10SM BKN160 15/09 A2979 RMK AO2 SLP087
      T01450091 10162 20134 57004 $=
METAR KSSC 172355Z AUTO 00000KT 10SM CLR 07/M02 A3008 RMK AO2 SLP189
      T00691025 10148 20069 50002 $=
METAR KSZL 172355Z AUTO 31004KT 10SM BKN060 10/00 A2955 RMK AO2 SLP012
      T00960000 10113 20078 52016 VISNO RWY01 CHINO RWY01 $=
METAR KTCM 172355Z AUTO M M M M M M RMK AO2 SLPNO 10072 20030 RVRNO
      $=
METAR KTTS 172355Z AUTO 00000KT 10SM CLR 13/11 A3008 RMK AO2 SLP190
      T01280107 10189 20127 58002 $=
METAR KVBG 172355Z AUTO 34009KT 6SM HZ CLR 12/08 A3020 RMK AO2 SLP231
      T01190078 10154 20111 56011 TSNO $=
METAR KVOK 172355Z AUTO 26011KT 10SM OVC100 04/M03 A2946 RMK AO2 SLP987
      T00381035 10086 20038 52018 $=
METAR KVPS 172355Z AUTO 14007KT 10SM BKN210 14/05 A3003 RMK AO2 SLP176
      60000 T01420053 10175 20133 57009 $=


951 
SAZZ40 KAWN 180000 RRX
METAR K1EN 172355Z AUTO 33019G24KT 10SM OVC019 M12/M16 A2983 RMK AO2
      PK WND 33029/06 PRESRR SLP140 60000 T11251159 11080 21127
      52028 $=
METAR K2DP 172355Z AUTO 00000KT M M CLR M02/M03 A3020 RMK AO2 SLP234
      T10161029 10090 21018 51012 RVRNO PWINO TSNO $=
METAR K9L2 172355Z AUTO 25013KT 7SM CLR 18/M08 A3004 RMK AO2 SLP175
      T01771077 10197 20111 55004=
METAR KADW 172355Z AUTO 12007KT 10SM CLR 00/M06 A3010 RMK AO2 SLP203
      T00011061 10061 20001 51004 $=
METAR KBIX 172355Z AUTO 13003KT 10SM OVC042 16/10 A2997 RMK AO2 SLP152
      T01610097 10176 20158 55006=
METAR KFCS 172355Z AUTO 05012KT 10SM CLR 01/M06 A2979 RMK AO2 SLP110
      T00121062 10099 20012 52029 $=
METAR KFRI 172355Z AUTO 35008KT 10SM CLR 05/M01 A2967 RMK AO2 SLP052
      T00521015 10070 20047 52039 $=
METAR KGUS 172355Z AUTO 18009KT 10SM FEW180 03/M02 A2966 RMK AO2 SLP054
      T00311018 10053 20028 56016 $=
METAR KSVN 172355Z AUTO 10004KT 10SM CLR 08/04 A3007 RMK AO2 SLP186
      T00830043 10191 20077 50002 $=
METAR KTOI 172353Z AUTO 15003KT 10SM CLR 13/01 A3003 RMK AO2 SLP169
      T01330006 10172 20133 55005=
METAR KVOK 172355Z AUTO 26011KT 10SM OVC100 04/M03 A2946 RMK AO2 SLP987
      T00381035 10086 20038 52018 $=
METAR KVPS 172355Z AUTO 14007KT 10SM BKN210 14/05 A3003 RMK AO2 SLP176
      60000 T01420053 10175 20133 57009 $=
METAR TIST 172353Z AUTO 09011KT 6SM -RA BR FEW021 SCT035 OVC045 24/23
      A3009 RMK AO2 WSHFT 2321 RAB37 SLP191 P0002 60003 T02390228
      10300 20239 53018=
METAR TISX 172353Z 06007KT 10SM FEW021 BKN060 OVC075 27/22 A3009 RMK
      AO2 SLP186 60000 T02670222 10289 20261 53014 $=


967 
SAUS17 KAWN 180000 RRO
METAR KBAD 172355Z AUTO 11009KT 10SM FEW130 10/06 A2976 RMK AO2 SLP082
      60000 T00970059 10115 20096 57018=
METAR KDLF 172355Z AUTO 14008KT 10SM OVC160 19/06 A2976 RMK AO2 SLP073
      T01940061 10219 20155 55003 $=
METAR KDMA 172355Z AUTO 27008KT 10SM CLR 16/M09 A3005 RMK AO2 SLP161
      T01601091 10167 20135 55001 $=
METAR KDOV 172355Z AUTO 16003KT 10SM CLR 01/M06 A3014 RMK AO2 SLP210
      T00051057 10065 20004 50011=
METAR KFFO 172355Z 16007KT 10SM CLR 03/M03 A2981 RMK AO2A SLP104 4/002
      T00301031 10048 20027 57018=
METAR KGRF 172355Z 33005KT 10SM FEW037 06/01 A3042 RMK AO2A SLP307
      T00560008 10066 20024 58001 $=
METAR KGSB 172355Z 17006KT 10SM CLR 07/M02 A3013 RMK AO2A SLP207 T00741016
      10127 20057 52009 $=
METAR KHIF 172355Z AUTO 33015KT 10SM SCT050 BKN075 00/M05 A3000 RMK
      AO2 SLP170 T00001054 10027 21011 53009=
METAR KHOP 172355Z AUTO 19009KT 10SM BKN130 14/M02 A2980 RMK AO2 SLP095
      T01401016 10171 20140 57011=
METAR KHST 172355Z AUTO 09010KT 10SM -DZ BKN035 BKN044 OVC070 21/18
      A3001 RMK AO2 DZE00RAB52E53DZB53 SLP166 P0000 60001
      T02140178 10214 20194 58005=
METAR KLRF 172355Z AUTO 19010KT 10SM -RA OVC045 09/03 A2976 RMK AO2
      RAE02DZB02E05RAB35 SLP082 P0001 60001 T00930031 10141 20093
      55012 $=
METAR KMMT 172355Z AUTO 08004KT M M CLR 06/M02 A3007 RMK AO2 SLP188
      T00551017 10153 20055 50001 RVRNO VISNO RWY32 $=
METAR KMUO 172355Z 29020KT 10SM FEW049 03/M09 A3014 RMK AO2A PK WND
      31029/12 SLP225 T00301093 10047 20022 53012 FZRANO $=
METAR KMXF 172355Z AUTO 17003KT 10SM OVC170 13/00 A2998 RMK AO2 SLP156
      T01300004 10174 20127 55005=


983 
SAZZ40 KAWN 180000 RRX
METAR K1JN 172355Z AUTO 30019KT 10SM M M14/M17 A3005 RMK AO2 SLP224
      60000 T11401169 11098 21140 52025 $=
METAR K1LN 172355Z AUTO 32018KT 10SM SCT020 BKN140 M13/M17 A3012 RMK
      AO2 SLP245 60000 T11351175 11096 21135 52032 $=
METAR KBAD 172355Z AUTO 11009KT 10SM FEW130 10/06 A2976 RMK AO2 SLP082
      60000 T00970059 10115 20096 57018=
METAR KDLF 172355Z AUTO 14008KT 10SM OVC160 19/06 A2976 RMK AO2 SLP073
      T01940061 10219 20155 55003 $=
METAR KGXA 172355Z AUTO 00000KT 10SM CLR 14/M06 A3004 RMK AO2 SLP164
      WND DATA ESTMD T01371057 10160 20131 55004=
METAR KHOP 172355Z AUTO 19009KT 10SM BKN130 14/M02 A2980 RMK AO2 SLP095
      T01401016 10171 20140 57011=
METAR KLOR 172355Z AUTO 00000KT 10SM BKN180 12/04 A3002 RMK AO2 SLP151
      T01150035 10186 20115 55005=
METAR KLRF 172355Z AUTO 19010KT 10SM -RA OVC045 09/03 A2976 RMK AO2
      RAE02DZB02E05RAB35 SLP082 P0001 60001 T00930031 10141 20093
      55012 $=
METAR KMMT 172355Z AUTO 08004KT M M CLR 06/M02 A3007 RMK AO2 SLP188
      T00551017 10153 20055 50001 RVRNO VISNO RWY32 $=
METAR KOFF 172355Z 35017G25KT 10SM BKN120 BKN250 05/M06 A2972 RMK AO2A
      PK WND 34032/20 SLP077 T00491058 10106 20049 52046 $=
METAR KRIV 172355Z AUTO 32008KT 10SM CLR 14/03 A3013 RMK AO2 SLP203
      T01370032 10147 20083 56014=
METAR KSKF 172355Z AUTO 00000KT 10SM BKN160 15/09 A2979 RMK AO2 SLP087
      T01450091 10162 20134 57004 $=
METAR PWAK 172355Z AUTO 11010KT 9SM FEW027 30/23 A2998 RMK AO2 SLP155
      60000 T03010228 10301 20253 58001=
METAR RODN 172355Z 06005KT 10SM CLR 15/09 A3016 RMK AO2A SLP216 T01520091
      10152 20075 52008 FZRANO $=


999 
SAXN17 KAWN 180000 RRL
METAR MGGT 180000Z 03008KT 9999 FEW018 21/11 Q1022 A3018=
METAR NFFN 180000Z 30013KT 9999 FEW025TCU 31/25 Q1008 NOSIG=
METAR PACZ 172355Z AUTO 15030G41KT 1/2SM -RA FG VV003 01/01 A2938 RMK
      AO2 PK WND 15041/2348 RAB2310 SLP958 P0001 60036 T00100007
      10010 20000 52012=
METAR PAED 172355Z 00000KT 10SM FEW080 BKN100 BKN170 M02/M07 A3024
      RMK AO2A SLP239 T10201069 11019 21042 51009 $=
METAR PAFB 172355Z AUTO 00000KT 10SM BKN055 M13/M15 A3017 RMK AO2 SLP240
      T11291155 11129 21190 55000 $=
METAR PAFR 172355Z AUTO 00000KT 10SM OVC100 M02/M05 A3024 RMK AO2 SLP247
      T10231051 10038 21047 53004 $=
METAR PAIM 172355Z AUTO 13008KT 070V160 1 1/2SM -SN BR OVC015 M14/M15
      A3009 RMK AO2 SNB2255 SLP236 P0000 60000 T11361155 11125
      21141 55003=
METAR PGUA 172355Z AUTO 07012KT 10SM SCT017 28/23 A2990 RMK AO2 SLP115
      60000 T02840233 10285 20257 51010 $=
METAR PHHI 172355Z AUTO 29011KT 10SM CLR 25/18 A2995 RMK AO2 SLPNO
      60008 T02460178 10247 20186 57019 $=
METAR PHJR 172353Z 20009KT 10SM FEW060 27/19 A2993 RMK AO2 SLP141 60004
      T02720189 10283 20211 56021=
METAR PTPN 172351Z 08007KT 15SM SCT018 BKN300 30/26 A2982=
METAR PTRO 172350Z 07007G15KT 14SM SCT016TCU BKN130 BKN310 29/25 A2981
      RMK HZ ALQDS TCU ALQDS=
METAR PTSA 172354Z 09011KT 10SM BKN022TCU BKN130 OVC300 30/24 A2978
      RMK TCU NE-SW=
METAR RKSO 172355Z AUTO 00000KT 9SM CLR M05/M07 A3035 RMK AO2 SLP282
      T10481074 11048 21084 53010 $=
METAR SVMI 180000Z 09004KT 9999 SCT016 27/23 Q1015=
METAR TXKF 172355Z 32017KT 9999 SCT036 SCT055 BKN070 16/10 Q1020=


015 
SAUS14 KAWN 180000 RRX
METAR K1OM 172355Z AUTO 30025KT 2SM BLSN FEW018 M11/M14 A3014 RMK AO2
      PK WND 31030/44 SLP275 60000 T11131141 11076 21113 58001 $=
METAR KBIF 172355Z AUTO 31019G29KT 5SM HZ CLR 14/M07 A2996 RMK AO2
      PK WND 29031/43 SLP110 T01371071 10151 20131 53007 $=
METAR KDLF 172355Z AUTO 14008KT 10SM OVC160 19/06 A2976 RMK AO2 SLP073
      T01940061 10219 20155 55003 $=
METAR KDMA 172355Z AUTO 27008KT 10SM CLR 16/M09 A3005 RMK AO2 SLP161
      T01601091 10167 20135 55001 $=
METAR KGFA 172355Z AUTO 27004KT 9SM -SN OVC040 M09/M13 A3026 RMK AO2
      SNE05SNB07 SLP308 P0000 60000 T10911131 11083 21093 53001=
METAR KGRF 172355Z 33005KT 10SM FEW037 06/01 A3042 RMK AO2A SLP307
      T00560008 10066 20024 58001 $=
METAR KGXA 172355Z AUTO 00000KT 10SM CLR 14/M06 A3004 RMK AO2 SLP164
      WND DATA ESTMD T01371057 10160 20131 55004=
METAR KINS 172355Z AUTO 25013KT 10SM CLR 15/M11 A3000 RMK AO2 SLP153
      T01471109 10156 20047 55004 $=
METAR KLGF 172355Z AUTO 23007KT 8SM CLR 20/M05 A3005 RMK AO2 SLP177
      T01961047 10202 20146 55006 $=
METAR KRIV 172355Z AUTO 32008KT 10SM CLR 14/03 A3013 RMK AO2 SLP203
      T01370032 10147 20083 56014=
METAR KSEQ 172355Z AUTO 00000KT 9SM OVC170 15/11 A2979 RMK AO2 SLP088
      60000 T01450107 10166 20127 51003=
METAR KSKA 172355Z AUTO 15004KT 10SM CLR M01/M04 A3026 RMK AO2 SLP274
      T10071039 10005 21023 53004 $=
METAR KSKF 172355Z AUTO 00000KT 10SM BKN160 15/09 A2979 RMK AO2 SLP087
      T01450091 10162 20134 57004 $=
METAR KTQS 172355Z AUTO 33008KT 10SM BKN013 13/09 A3020 RMK AO2 BKN
      V SCT SLP230 T01280089 10139 20109 56012=
METAR KVGN 172355Z AUTO 33011KT 10SM CLR 14/09 A3019 RMK AO2 SLP226
      T01350088 10150 20114 56010 $=


020 
SAZZ40 KAWN 180000 RRX
METAR EGUN 172355Z AUTO 21004KT 9999 OVC008 03/01 A3053 RMK AO2 SLP342
      T00280009 10044 20027 400600027 55005=
METAR EGVA 172355Z AUTO 22005KT 9999 OVC009 03/01 A3051 RMK AO2 SLP338
      T00270006 10050 20027 400720027 57007 $=
METAR K1HN 172355Z AUTO 34014KT 10SM OVC024 M12/M16 A3012 RMK AO2 SLP238
      60000 T11171158 11072 21117 52031 $=
METAR K1IN 172355Z AUTO 33018KT 9SM OVC019 M13/M17 A3008 RMK AO2 PK
      WND 31026/44 SLP235 60000 T11351167 11097 21137 52024 $=
METAR K1ON 172355Z AUTO 32017KT 10SM OVC026 M13/M16 A3012 RMK AO2 SLP235
      60000 T11271164 11090 21146 52035 $=
METAR KABH 172355Z AUTO 05014KT 10SM SCT100 M01/M06 A2981 RMK AO2 PK
      WND 05026/00 SLP129 T10061056 10120 21006 53020=
METAR KBIF 172355Z AUTO 31019G29KT 5SM HZ CLR 14/M07 A2996 RMK AO2
      PK WND 29031/43 SLP110 T01371071 10151 20131 53007 $=
METAR KDOV 172355Z AUTO 16003KT 10SM CLR 01/M06 A3014 RMK AO2 SLP210
      T00051057 10065 20004 50011=
METAR KGFA 172355Z AUTO 27004KT 9SM -SN OVC040 M09/M13 A3026 RMK AO2
      SNE05SNB07 SLP308 P0000 60000 T10911131 11083 21093 53001=
METAR KGRF 172355Z 33005KT 10SM FEW037 06/01 A3042 RMK AO2A SLP307
      T00560008 10066 20024 58001 $=
METAR KGSB 172355Z 17006KT 10SM CLR 07/M02 A3013 RMK AO2A SLP207 T00741016
      10127 20057 52009 $=
METAR KINS 172355Z AUTO 25013KT 10SM CLR 15/M11 A3000 RMK AO2 SLP153
      T01471109 10156 20047 55004 $=
METAR KMXF 172355Z AUTO 17003KT 10SM OVC170 13/00 A2998 RMK AO2 SLP156
      T01300004 10174 20127 55005=
METAR KSKA 172355Z AUTO 15004KT 10SM CLR M01/M04 A3026 RMK AO2 SLP274
      T10071039 10005 21023 53004 $=
METAR PGUA 172355Z AUTO 07012KT 10SM SCT017 28/23 A2990 RMK AO2 SLP115
      60000 T02840233 10285 20257 51010 $=


021 
SAZZ40 KAWN 180000 RRX
METAR K1NN 172355Z AUTO 32012KT 10SM BKN025 M14/M17 A3011 RMK AO2 SLP238
      60000 T11381172 11092 21144 52030 $=
METAR KFFO 172355Z 16007KT 10SM CLR 03/M03 A2981 RMK AO2A SLP104 4/002
      T00301031 10048 20027 57018=
METAR KHIF 172355Z AUTO 33015KT 10SM SCT050 BKN075 00/M05 A3000 RMK
      AO2 SLP170 T00001054 10027 21011 53009=
METAR KHST 172355Z AUTO 09010KT 10SM -DZ BKN035 BKN044 OVC070 21/18
      A3001 RMK AO2 DZE00RAB52E53DZB53 SLP166 P0000 60001
      T02140178 10214 20194 58005=
METAR KLFI 172355Z AUTO 17005KT 10SM CLR 03/M04 A3017 RMK AO2 SLP223
      T00341039 10066 20034 50009 $=
METAR KLTS 172355Z 29009KT 10SM CLR 18/M03 A2947 RMK AO2A SLP978 T01791035
      10236 20128 53011 $=
METAR KMUO 172355Z 29020KT 10SM FEW049 03/M09 A3014 RMK AO2A PK WND
      31029/12 SLP225 T00301093 10047 20022 53012 FZRANO $=
METAR KRCA 172355Z AUTO 35020G26KT 6SM -SN FEW008 BKN015 BKN026 OVC060
      M05/M09 A2998 RMK AO2 PK WND 34031/21 SNB10 CIG 015V025
      BKN015 V SCT CIG 014 RWY13 SLP184 P0000 60000 T10541093
      11006 21056 52032 $=
METAR KTCM 172355Z AUTO M M M M M M RMK AO2 SLPNO 10072 20030 RVRNO
      $=
METAR KVBG 172355Z AUTO 34009KT 6SM HZ CLR 12/08 A3020 RMK AO2 SLP231
      T01190078 10154 20111 56011 TSNO $=
METAR KXNO 172355Z AUTO 00000KT 10SM CLR 07/M01 A3007 RMK AO2 SLP188
      T00681014 10156 20066 50001 $=
METAR PAED 172355Z 00000KT 10SM FEW080 BKN100 BKN170 M02/M07 A3024
      RMK AO2A SLP239 T10201069 11019 21042 51009 $=
METAR PHHI 172355Z AUTO 29011KT 10SM CLR 25/18 A2995 RMK AO2 SLPNO
      60008 T02460178 10247 20186 57019 $=


022 
SAUS17 KAWN 180000 RRN
METAR KADW 172355Z AUTO 12007KT 10SM CLR 00/M06 A3010 RMK AO2 SLP203
      T00011061 10061 20001 51004 $=
METAR KBIX 172355Z AUTO 13003KT 10SM OVC042 16/10 A2997 RMK AO2 SLP152
      T01610097 10176 20158 55006=
METAR KFBG 172355Z AUTO 00000KT 10SM CLR 05/M01 A3010 RMK AO2 SLP198
      T00511014 10133 20051 50002 $=
METAR KFCS 172355Z AUTO 05012KT 10SM CLR 01/M06 A2979 RMK AO2 SLP110
      T00121062 10099 20012 52029 $=
METAR KFHU 172355Z AUTO 26012KT 10SM CLR 12/M06 A3009 RMK AO2 SLP176
      T01231062 10136 20106 53002=
METAR KFRI 172355Z AUTO 35008KT 10SM CLR 05/M01 A2967 RMK AO2 SLP052
      T00521015 10070 20047 52039 $=
METAR KGRK 172355Z AUTO 17012KT 8SM OVC200 17/11 A2973 RMK AO2 SLP065
      60000 T01710105 10204 20137 55006=
METAR KGUS 172355Z AUTO 18009KT 10SM FEW180 03/M02 A2966 RMK AO2 SLP054
      T00311018 10053 20028 56016 $=
METAR KHFF 172355Z AUTO 00000KT 10SM CLR 04/M02 A3008 RMK AO2 SLP192
      T00441025 10140 20031 50001 $=
METAR KHLR 172355Z AUTO 19012G21KT 8SM OVC210 16/10 A2971 RMK AO2 SLP058
      T01640098 10192 20145 55009=
METAR KLFI 172355Z AUTO 17005KT 10SM CLR 03/M04 A3017 RMK AO2 SLP223
      T00341039 10066 20034 50009 $=
METAR KLSF 172355Z AUTO 15003KT 10SM CLR 12/01 A3001 RMK AO2 SLP169
      T01150009 10181 20108 53001 RVRNO VISNO RWY33 $=
METAR KLTS 172355Z 29009KT 10SM CLR 18/M03 A2947 RMK AO2A SLP978 T01791035
      10236 20128 53011 $=
METAR KSSC 172355Z AUTO 00000KT 10SM CLR 07/M02 A3008 RMK AO2 SLP189
      T00691025 10148 20069 50002 $=
METAR KSVN 172355Z AUTO 10004KT 10SM CLR 08/04 A3007 RMK AO2 SLP186
      T00830043 10191 20077 50002 $=


023 
SAUS14 KAWN 180000 RRX
METAR K1CM 172355Z AUTO 29015KT 10SM FEW080 BKN110 M12/M16 A3015 RMK
      AO2 SLP290 60000 T11221162 11098 21123 53003 $=
METAR K1HM 172355Z AUTO 01005KT 10SM OVC080 M11/M14 A3021 RMK AO2 SLP303
      60000 T11071141 11090 21107 53004 $=
METAR K1JW 172355Z AUTO 35016KT 10SM FEW022 OVC033 M02/M05 A2983 RMK
      AO2 SLP116 60000 T10251055 10025 21025 52019 $=
METAR K1KM 172355Z AUTO 01022G27KT 10SM OVC100 M11/M15 M RMK AO2 PK
      WND 35032/2256 SLPNO T11141150 11055 21114 $=
METAR K1MW 172355Z AUTO 01011KT 10SM OVC085 M01/M08 A2986 RMK AO2 SLP131
      60000 T10121078 10053 21013 52036 $=
METAR K9L2 172355Z AUTO 25013KT 7SM CLR 18/M08 A3004 RMK AO2 SLP175
      T01771077 10197 20111 55004=
METAR KABH 172355Z AUTO 05014KT 10SM SCT100 M01/M06 A2981 RMK AO2 PK
      WND 05026/00 SLP129 T10061056 10120 21006 53020=
METAR KHIF 172355Z AUTO 33015KT 10SM SCT050 BKN075 00/M05 A3000 RMK
      AO2 SLP170 T00001054 10027 21011 53009=
METAR KMLS 172353Z AUTO 35015KT 10SM OVC085 M09/M13 A3020 RMK AO2 SLP261
      60000 T10941133 11056 21094 51028=
METAR KMUO 172355Z 29020KT 10SM FEW049 03/M09 A3014 RMK AO2A PK WND
      31029/12 SLP225 T00301093 10047 20022 53012 FZRANO $=
METAR KMWL 172353Z AUTO 22014KT 5SM HZ OVC049 21/01 A2959 RMK AO2 SLP013
      T02060006 10228 20150 55009=
METAR KTCM 172355Z AUTO M M M M M M RMK AO2 SLPNO 10072 20030 RVRNO
      $=
METAR KTTD 172353Z AUTO 30004KT 10SM OVC019 06/01 A3042 RMK AO2 SLP301
      T00560011 10061 20028 55002=
METAR KTWF 172353Z 29020G32KT 10SM CLR 00/M09 A3007 RMK AO2 PK WND
      29039/2330 SLP192 T00001089 10028 20000 53015=
METAR KVBG 172355Z AUTO 34009KT 6SM HZ CLR 12/08 A3020 RMK AO2 SLP231
      T01190078 10154 20111 56011 TSNO $=


033 
SAUY41 SULS 180000
METAR SULS 180000Z 14008KT 110V170 9999 BKN010 24/23 Q1012=


076 
SAFJ31 NFNM 180000
METAR NFNM 180000Z 01003KT 9999 FEW018 SCT300 30/26 Q1008=


077 
SASM20 SMJP 180000
METAR SMJP 180000Z 01006KT 9999 FEW012 26/22 Q1013 NOSIG=
METAR SMZO 180000Z 02003KT 9999 FEW010 26/23 Q1013 NOSIG=


119 
SAXX70 KAWN 180000 RRX
METAR KQEY 172350Z AUTO 05002KT 4800 HZ CLR M06/M09 A3003 RMK A02 TSNO=
METAR KQBL 172355Z AUTO 00000KT 10SM BKN210 15/08 A3003 RMK AO2 SLP182
      WND DATA ESTMD T01490081 10172 20148 57010=
METAR KQHY 172355Z AUTO 00000KT 10SM OVC210 15/08 M RMK AO2 SLPNO T01540084
      10171 20147 $=
METAR KQEQ 180000Z AUTO 00000KT 6000 HZ CLR M07/M09 A3037 RMK A02 TSNO=
METAR KQEW 180000Z AUTO 36001KT 9999 // CLR M03/M09 A3030 RMK A02 TSNO=
METAR KQFV 180000Z AUTO 11001KT 6000 HZ CLR M11/M14 A3033 RMK A02 TSNO=


293 
SAUS14 KAWN 180000 RRX
METAR KAPC 172354Z 20008KT 10SM SCT022 12/08 A3020 RMK AO2 SLP217 T01220078
      10128 20061 55009=
METAR KASL 172355Z AUTO 17007KT 10SM CLR 10/08 A2975 RMK AO2 60000
      T01000081 10117 20092 58004 $=
METAR KATS 172355Z AUTO 28020KT 10SM CLR 16/M05 A2981 RMK AO2=
METAR KBFL 172354Z 34006KT 10SM CLR 19/M04 A3014 RMK AO2 SLP205 T01891039
      10194 20111 56015=
METAR KBVU 172355Z AUTO 15008KT 10SM CLR 16/M11 A2999 RMK AO2=
METAR KBWD 172355Z AUTO 26020G28KT 3SM HZ BKN033 OVC250 21/M04 A2969
      RMK AO2 PK WND 28028/2352 T02101038 $=
METAR KBXK 172355Z AUTO 23005KT 10SM CLR 18/M04 A3006 RMK AO2=
METAR KCOS 172354Z 05012KT 10SM FEW030 FEW080 SCT200 00/M06 A2980 RMK
      AO2 SLP100 T00001056 10117 20000 $=
METAR KCPT 172355Z AUTO 16009KT 10SM CLR 15/07 A2961 RMK AO2 T01520068
      $=
METAR KJSO 172355Z AUTO 18009KT 8SM SCT100 OVC240 12/09 A2974 RMK AO2
      T01250093 $=
METAR KJWY 172355Z AUTO 18011KT 10SM CLR 14/08 A2966 RMK AO2 T01360080=
METAR KL08 172355Z AUTO 34014KT 10SM CLR 19/M01 A3004 RMK AO2=
METAR KL35 172355Z AUTO 25007KT 10SM 05/M11 A3014 RMK AO2=
METAR KMMH 172355Z AUTO 26008KT 10SM CLR 09/M12 A3012 RMK AO2=
METAR KMRY 172354Z 26005KT 10SM SCT020 13/07 A3022 RMK AO2 SLP245 T01280072
      10133 20106 55008=
METAR KO22 172355Z AUTO 22003KT 10SM CLR 15/M03 A3017 RMK A01=
METAR KO32 172355Z AUTO 00000KT CLR 16/02 A3014 RMK AO2 T01640018 PWINO
      $=
METAR KONM 172355Z AUTO 33010G19KT 10SM CLR 11/M06 A2991 RMK AO2 T01141060
      10144 20114=
METAR KORS 172355Z AUTO 32006KT 9SM SCT018 06/03 A3048 RMK AO2=


294 
SAUS14 KAWN 180000 RRX
METAR K1AW 172355Z AUTO 01023G27KT 6SM -SN BKN060 OVC075 M05/M08 A2986
      RMK AO2 PK WND 01027/52 SNB19 SLP134 P0000 60000 T10511080
      11007 21051 52015 $=
METAR KALM 172355Z AUTO 25011G19KT 10SM CLR 13/M08 A2991 RMK AO2=
METAR KATT 172351Z AUTO VRB04KT 10SM CLR 16/10 A2980 RMK AO2 SLP091
      T01560100 10161 20133 56005=
METAR KBDG 172355Z AUTO 11004KT 10SM CLR 04/M15 A2990 RMK AO2 T00391154
      $=
METAR KBKS 172355Z AUTO 20005KT 10SM CLR 22/15 A2981 RMK AO2 SLP054
      T02170150 10240 20205 56018 $=
METAR KBYY 172355Z AUTO 19007KT 6SM BR OVC160 18/16 A2977 RMK AO2 PRESRR
      T01820163 $=
METAR KCMR 172355Z AUTO 26011G17KT 10SM CLR 07/M10 A3005 RMK AO2=
METAR KCVH 172355Z AUTO 27007KT 9SM CLR 13/07 A3021 RMK A01=
METAR KDNA 172355Z AUTO 28014G28KT 10SM CLR 13/M08 A2999 RMK AO2=
METAR KFEW 172355Z AUTO 01011G16KT 8SM -SN M M06/M09 A2985 RMK AO2
      SLP128 P0000 60000 T10621089 10018 21062 52011 $=
METAR KJAQ 172355Z AUTO 32004KT 10SM CLR 13/M01 A3018 RMK AO1 T01281010
      10136 20114=
METAR KJDD 172355Z AUTO 18006KT 10SM CLR 13/08 A2969 RMK AO2 T01310079
      $=
METAR KLWT 172354Z AUTO 29010KT 9SM BKN038 OVC120 M13/M15 A3019 RMK
      AO2 SNE15 SLP287 P0000 60000 T11331150 11094 21133 53002=
METAR KOLM 172354Z 01003KT 10SM SCT014 BKN036 06/03 A3045 RMK AO2 SLP311
      60000 T00610028 10067 20006 55003=
METAR KOLS 172354Z AUTO 25009KT 10SM CLR 13/M07 A3008 RMK AO2 SLP164
      T01331072 10150 20117 53001=
METAR KT70 172355Z AUTO 08007KT 9SM OVC150 19/08 A2979 RMK AO2 SLP082
      T01880076 10206 20159 55004 $=


367 
SAUS14 KAWN 180000 RRX
METAR KEUG 172354Z 34009KT 4SM BR OVC005 03/01 A3040 RMK AO2 SLP298
      T00280011 10028 20017 55004=
METAR KF70 172355Z AUTO 19006KT 10SM CLR 15/04 A3014 RMK AO2=
METAR KFFZ 172354Z AUTO 26005KT 10SM CLR 17/M03 A3005 RMK AO2 SLP163
      T01671028 10172 20139 55006=
METAR KGDK 172355Z AUTO 18008KT 150V210 10SM CLR 03/M02 A2981 RMK AO2=
METAR KHAF 172355Z AUTO 32005KT 7SM SCT017 11/08 A3023 RMK AO2=
METAR KLRU 172355Z AUTO 26025G36KT 7SM SCT030 SCT036 11/M07 A2996 RMK
      AO2 T01051072 10121 20100=
METAR KMAN 172355Z AUTO 31013G21KT 10SM CLR 04/M08 A3022 RMK A01=
METAR KPLU 172355Z AUTO 00000KT 10SM 05/02 A3043 RMK AO2=
METAR KRBL 172354Z AUTO 00000KT 10SM CLR 16/02 A3019 RMK AO2 SLP222
      T01560017 10156 20078 55006=
METAR KRKS 172354Z AUTO 29010G25KT 7SM -SN BKN037 OVC048 M04/M08 A2987
      RMK AO2 PK WND 28026/2333 SNE03B26 SLP142 P0000 60000
      T10391083 10011 21039 53015=
METAR KRPH 172355Z AUTO 23010KT 7SM CLR 20/M00 A2956 RMK AO2 T02041001
      10220 20149 55006=
METAR KSJN 172354Z AUTO 24014G22KT 10SM FEW060 08/M06 A2997 RMK AO2
      SLP132 T00831061 10100 20072 55001=
METAR KSLC 172354Z 32005KT 8SM BKN044 BKN060 OVC080 02/M03 A3001 RMK
      AO2 SLP172 SH DSNT N BINOVC NW T00221033 10028 20006 53008 $=
METAR KSOW 172355Z AUTO 22013G21KT 10SM CLR 05/M05 A3004 RMK AO2=
METAR KT69 172355Z AUTO 19011KT 10SM CLR 20/17 A2980 RMK A01=
METAR KTMA 172355Z AUTO 00000KT 10SM OVC220 10/03 A3009 RMK AO2 T00990025
      $=
METAR KTSP 172355Z AUTO 30017G23KT 9SM CLR 09/M11 A3016 RMK AO2=
METAR KVCB 172353Z AUTO 22006KT 10SM CLR 15/07 A3018 RMK AO2 SLP220
      T01500067 10161 20094 55007=


508 
SAZZ40 KAWN 180000 RRX
METAR ETAD 172355Z AUTO 07009KT 6000 BR OVC001 M00/M01 A3046 RMK AO2
      VIS 2800 RWY22 SLP321 T10031010 10003 21036 56015 FZRANO $=
METAR ETAR 172355Z 06010KT 9999 OVC011 01/01 A3049 RMK AO2A SLP338
      T00111011 10015 20008 57014 $=
METAR K1DN 172355Z AUTO 31019KT 4SM BLSN OVC024 M12/M15 A3004 RMK AO2
      SLP214 T11221154 11087 21122 52030 $=
METAR K1MN 172355Z AUTO 30018KT 10SM CLR M14/M17 A3010 RMK AO2 SLP236
      60000 T11421174 11089 21142 52029 $=
METAR KDMA 172355Z AUTO 27008KT 10SM CLR 16/M09 A3005 RMK AO2 SLP161
      T01601091 10167 20135 55001 $=
METAR KFEW 172355Z AUTO 01011G16KT 8SM -SN M M06/M09 A2985 RMK AO2
      SLP128 P0000 60000 T10621089 10018 21062 52011 $=
METAR KHEY 172355Z AUTO 00000KT 10SM OVC190 13/04 A3000 RMK AO2 SLP162
      T01310037 10184 20130 55003=
METAR KMCF 172355Z 08007KT 10SM SCT055 16/13 A3005 RMK AO2A SLP176
      ALSTG ESTMD T01560133 53001 FZRANO $=
METAR KNHK 172352Z 16007KT 10SM CLR 03/M05 A3016 RMK AO2 SLP212 T00331050
      10067 20033 51008 $=
METAR KNRS 172353Z 21006KT 10SM CLR A3018 RMK AO2 SLP221 56011 $=
METAR KOZR 172355Z AUTO 00000KT 10SM BKN180 OVC220 13/02 A3001 RMK
      AO2 SLP165 T01290019 10187 20129 55008 $=
METAR KRDR 172355Z 36019G26KT 10SM FEW020 FEW028 SCT036 M10/M15 A2998
      RMK AO2A PK WND 34030/2256 SLP172 60000 T10981155 11060
      21098 52052 $=
METAR KSXS 172355Z AUTO 00000KT 10SM OVC180 15/01 A3002 RMK AO2 SLP169
      T01450011 10181 20145 55006=
METAR KT70 172355Z AUTO 08007KT 9SM OVC150 19/08 A2979 RMK AO2 SLP082
      T01880076 10206 20159 55004 $=
METAR PHSF 172355Z AUTO 27012G18KT 10SM FEW013 18/11 A3022 RMK AO2
      SLP136 T01790107 10196 20088 57024 $=


509 
SAXX60 KAWN 180000 RRD
METAR KBKT 172355Z AUTO 00000KT 10SM CLR 02/M05 A3011 RMK AO2 SLP204
      T00181047 10096 20017 52004=
METAR KHLR 172355Z AUTO 19012G21KT 8SM OVC210 16/10 A2971 RMK AO2 SLP058
      T01640098 10192 20145 55009=
METAR PGSN 172354Z AUTO 09013KT 10SM CLR 29/23 A2990 RMK AO2 SLP145
      T02940233 10300 20256 50007 TSNO $=
METAR PGUA 172355Z AUTO 07012KT 10SM SCT017 28/23 A2990 RMK AO2 SLP115
      60000 T02840233 10285 20257 51010 $=
METAR PHBK 172351Z AUTO 36015KT 10SM FEW017 24/17 A2993 RMK AO2 PK
      WND 01026/2254 SLP136 T02440167 10250 20206 58016=
METAR PHBK 172351Z AUTO 36015KT 10SM FEW017 24/17 A2993 RMK AO2 PK
      WND 01026/2254 SLP136 T02440167 10250 20206 58016=
METAR PHHI 172355Z AUTO 29011KT 10SM CLR 25/18 A2995 RMK AO2 SLPNO
      60008 T02460178 10247 20186 57019 $=
METAR PHJR 172353Z 20009KT 10SM FEW060 27/19 A2993 RMK AO2 SLP141 60004
      T02720189 10283 20211 56021=
METAR PHNL 172353Z 18011KT 10SM FEW023 SCT038 SCT050 26/19 A2992 RMK
      AO2 SLP132 T02610189 10278 20211 56021 PNO VISNO RWY04R $=
METAR PHSF 172355Z AUTO 27012G18KT 10SM FEW013 18/11 A3022 RMK AO2
      SLP136 T01790107 10196 20088 57024 $=
METAR PHTO 172353Z 01009KT 8SM CLR 27/21 A2989 RMK AO2 SLP121 T02670206
      10267 20194 56035=
METAR PTPN 172351Z 08007KT 15SM SCT018 BKN300 30/26 A2982=
METAR PWAK 172355Z AUTO 11010KT 9SM FEW027 30/23 A2998 RMK AO2 SLP155
      60000 T03010228 10301 20253 58001=
METAR RJTY 172355Z AUTO 03010KT 10SM CLR 05/M09 A3023 RMK AO2 SLP245
      T00531093 10053 21017 52013 $=
METAR RODN 172355Z 06005KT 10SM CLR 15/09 A3016 RMK AO2A SLP216 T01520091
      10152 20075 52008 FZRANO $=


510 
SAUS14 KAWN 180000 RRX
METAR K0S9 172355Z AUTO VRB05KT 10SM BKN023 06/02 A3046 RMK AO2=
METAR K3T5 172355Z AUTO 18003KT 10SM BKN032 OVC190 14/13 A2980 RMK
      AO2 60000 T01420129 10158 20131 50016 $=
METAR K3U3 172355Z AUTO 36007KT 290V070 10SM FEW020 OVC038 M10/M15
      A3013 RMK AO2 T10991149=
METAR K4S2 172355Z AUTO 33003KT 10SM CLR 06/M01 A3037 RMK AO2 AWOS
      NOTAMED OS=
METAR K60R 172355Z AUTO 19007KT 10SM BKN030 OVC190 15/15 A2978 RMK
      AO2 SLP002 T01540146 $=
METAR K6S2 172355Z AUTO 00000KT 10SM CLR 09/03 A3037 RMK AO2=
METAR K77S 172355Z AUTO 33005KT 10SM OVC008 02/02 A3038 RMK A01=
METAR K79S 172355Z AUTO 29006KT 4SM -SN BR OVC060 M09/M11 A3031 RMK
      AO2 P0000 T10941112 $=
METAR KGCN 172354Z 27007G21KT 10SM CLR 06/M13 A3001 RMK AO2 SLP175
      T00611133 10083 20039 53004=
METAR KHBV 172355Z AUTO 18005KT 9SM CLR 20/13 A2983 RMK AO2 T02020127=
METAR KHCR 172355Z AUTO 00000KT 10SM SCT065 BKN080 01/M05 A2990 RMK
      AO2 T00151052=
METAR KHWD 172354Z 30010KT 10SM CLR 13/07 A3021 RMK AO2 SLP239 T01280067
      10144 20106 55007=
METAR KNRS 172353Z 21006KT 10SM CLR A3018 RMK AO2 SLP221 56011 $=
METAR KP69 172352Z AUTO 00000KT 02/M01 A3032 RMK AO1 SLP291 T00171011
      10028 20017 53005=
METAR KSPB 172354Z 08003KT 10SM CLR 05/02 A3042=
METAR KTAD 172354Z AUTO 03009KT 10SM CLR 03/M06 A2981 RMK AO2 SLP094
      T00331056 10139 20033 51043=
METAR KU42 172355Z AUTO 32009KT 10SM SCT070 OVC080 02/M05 A3000 RMK
      AO1 T00181055 10037 20016=
METAR KU64 172355Z AUTO 29006KT 10SM CLR 04/M15 A2994 RMK AO2 T00371150
      $=


386 
SAID31 WIII 180000
METAR WIII 180000Z 24009KT 5000 -RA SCT020 24/23 Q1009 NOSIG=


555 
SAZM31 NSFA 180000
METAR NSFA 180000Z 31006KT 9999 FEW020 SCT040 31/23 Q1009=


882 
SAHO31 MHTG 180000
METAR MHTE 180000Z 00000KT 9999 FEW020 25/22 Q1015 A2997=


025 
SAUS80 KWBC 180000 RRD
METAR
KMKG 172355Z 19018G29KT 10SM BKN200 06/M02 A2953 RMK AO2 PK WND
     18034/2335 SLP004 4/004 T00561017 10061 20033 55007=
KPHP 172355Z AUTO 34016G25KT 9SM -SN SCT022 BKN029 OVC034 M04/M08
     A3003 RMK AO2 PK WND 33027/2259 SNB29 SLP188 P0000 60000
     T10441083 10006 21044 51036=
KRNO 172355Z 34014G19KT 10SM SCT200 13/M13 A3010 RMK AO2 SLP189
     T01331128 10144 20011 55001 $=
KSCK 172355Z VRB03KT 10SM CLR 16/04 A3017 RMK AO2 SLP217 T01610044
     10167 20089 56010=
PADK 172356Z AUTO 07004KT 10SM OVC009 04/03 A2897 RMK AO2 SLP811
     60000 T00390033 10044 20028 51011=
PFNO 172356Z AUTO 08025G31KT 1/4SM SN FZFG BKN012 OVC021 M08/M09
     A2985 RMK AO2 PK WND 08033/2331 SLP109 P0000 60000 T10831094
     11083 21106 56012 FZRANO $=
PADK 172356Z AUTO 07004KT 10SM OVC009 04/03 A2897 RMK AO2 SLP811
     60000 T00390033 10044 20028 51011=
PHNY 172356Z AUTO 26008KT 240V300 10SM BKN017 BKN022 23/17 A2998
     RMK AO2 SLP131 T02330172 10233 20200 56021 $=
KREO 172352Z AUTO 35012KT 01/M08 A3018 RMK AO1 SLP248 T00111083
     10028 20006 53008=


026 
SAUS70 KWBC 180000 RRX
METAR
KPVC 172356Z AUTO 14003KT 10SM CLR M06/M08 A3012 RMK AO2 SLP198
     T10611078 10017 21061 50015 FZRANO=
KPVF 172355Z AUTO 00000KT 10SM CLR 12/M04 A3019 RMK AO1=
KPVG 172356Z AUTO 12004KT 10SM CLR 02/M03 A3018 RMK AO2 SLP222
     6//// T00221033 10089 20022 51011 FZRANO=
KPVU 172356Z 31017KT 10SM SCT080 OVC090 02/M04 A2996 RMK AO2
     SLP170 T00221039 10050 20000 53004=
KPWG 172356Z AUTO 19014G21KT 10SM CLR 16/10 A2972 RMK AO2 SLP060
     T01610100 10189 20139 58009=
KPWT 172356Z AUTO 06004KT 10SM BKN020 OVC026 06/03 A3045 RMK AO2
     SLP319 T00560028 10061 20050 53001=
KPXE 172355Z AUTO 00000KT 10SM CLR 11/M02 A3007 RMK AO2 T01141017
     10168 20106 401681033=
KRKD 172356Z AUTO 00000KT 10SM CLR M07/M09 A3009 RMK AO2 SLP190
     T10671094 11006 21072 51018 FZRANO=
KRUT 172356Z AUTO 00000KT 10SM BKN038 OVC045 M02/M05 A3002 RMK AO2
     SLP174 T10221050 10011 21022 53007 FZRANO $=
KRZL 172355Z AUTO 18015G20KT 10SM CLR 04/00 A2963 RMK AO2=
KSDY 172356Z AUTO 35019KT 10SM FEW023 M12/M16 A3021 RMK AO2 SLP270
     60000 T11171156 11078 21117 51013 FZRANO=
KSFM 172356Z AUTO 24003KT 10SM CLR M05/M08 A3008 RMK AO2 SLP192
     T10501083 10017 21050 51016 FZRANO=
KSFQ 172355Z AUTO 14004KT 10SM CLR 03/M03 A3018 RMK AO2 T00301026
     10093 20030=
KSFZ 172356Z AUTO 00000KT 10SM CLR M04/M07 A3011 RMK AO2 SLP202
     T10391072 10028 21044 51019 FZRANO $=
KSGH 172356Z AUTO 16009KT 10SM CLR 02/M03 A2983 RMK AO2 SLP113
     T00171033 10028 20017 56018=
KSGJ 172356Z 00000KT 10SM CLR 10/07 A3012 RMK AO2 SLP200 T01000072
     10150 20100 55003=
KSGT 172356Z AUTO 17012KT 10SM OVC055 09/05 A2982 RMK AO2 RAE56
     SLP099 P0001 60001 T00940050 10139 20089 56017=
KSGU 172356Z AUTO 23005KT 10SM CLR 12/M13 A2999 RMK AO2 SLP162
     60001 T01221128 10122 20017 55007=
KSKX 172356Z AUTO 24016KT 10SM CLR 04/M16 A2985 RMK AO2 SLP133
     T00441161 10083 20044 53011=
KSLG 172356Z AUTO 17015G21KT 10SM FEW095 BKN110 09/03 A2956 RMK
     AO2 RAE53 SLP009 P0000 60000 T00890028 10139 20089 58020=
KSMN 172356Z AUTO 29008KT 10SM OVC080 M01/M12 A3011 RMK AO2 SLP239
     T10111122 10011 21061 53014 FZRANO=
KSOP 172356Z AUTO 18004KT 10SM CLR 07/M03 A3013 RMK AO2 SLP211
     T00721033 10133 20067 53005=
KSRC 172356Z AUTO 17008KT 10SM -RA OVC050 08/05 A2979 RMK AO2
     SLP089 P0000 60000 T00780050 10156 20078 58008=
KTVF 172356Z AUTO 34018G26KT 6SM -SN CLR M11/M16 A2990 RMK AO2 PK
     WND 34030/2329 SLP148 P0000 60000 T11111156 11056 21111 51071
     FZRANO=
KTWT 172355Z AUTO 19011G16KT 10SM SCT085 BKN110 12/01 A2977 RMK
     AO2=
KTYL 172355Z AUTO 23016G24KT 10SM CLR 07/M05 A3003 RMK AO2=
KUDG 172356Z AUTO 16007KT 10SM CLR 07/M01 A3013 RMK AO2 SLP204
     P0003 60003 T00721011 10133 20056 53002=
KUYF 172355Z AUTO 17007KT 10SM CLR 01/M05 A2984 RMK AO2=
KVBT 172356Z AUTO 15017KT 10SM BKN070 BKN110 08/03 A2956 RMK AO2
     RAE16B36E51 PRESFR SLP017 P0000 60000 T00830033 10144 20083
     58019 $=
KVIS 172356Z AUTO 00000KT 10SM CLR 17/03 A3017 RMK AO2 SLP217
     T01720028 10178 20083 56015 $=
KWVL 172356Z AUTO 19004KT 10SM CLR M06/M11 A3003 RMK AO2 SLP206
     T10611111 10011 21061 53016 FZRANO=
KWWD 172356Z AUTO 00000KT 10SM CLR M01/M05 A3018 RMK AO2 SLP221
     T10111050 10056 21017 51016 FZRANO=
KY50 172356Z AUTO 26008KT 10SM OVC080 06/M02 A2945 RMK AO2 SLP978
     6//// T00561017 10083 20056 51012 $=
KYKN 172356Z AUTO 33030G36KT 10SM BKN031 BKN120 M02/M08 A2986 RMK
     AO2 PK WND 33036/2356 SLP140 T10171078 10056 21017 51047
     FZRANO=


028 
SAXX60 KWBC 180000 RRB
METAR
KSSC 172355Z AUTO 00000KT 10SM CLR 07/M02 A3008 RMK AO2 SLP189
     T00691025 10148 20069 50002 $=
KSVN 172355Z AUTO 10004KT 10SM CLR 08/04 A3007 RMK AO2 SLP186
     T00830043 10191 20077 50002 $=
KFFO 172355Z 16007KT 10SM CLR 03/M03 A2981 RMK AO2A SLP104 4/002
     T00301031 10048 20027 57018=
KHIF 172355Z AUTO 33015KT 10SM SCT050 BKN075 00/M05 A3000 RMK AO2
     SLP170 T00001054 10027 21011 53009=
KHST 172355Z AUTO 09010KT 10SM -DZ BKN035 BKN044 OVC070 21/18
     A3001 RMK AO2 DZE00RAB52E53DZB53 SLP166 P0000 60001 T02140178
     10214 20194 58005=
KLFI 172355Z AUTO 17005KT 10SM CLR 03/M04 A3017 RMK AO2 SLP223
     T00341039 10066 20034 50009 $=
KLTS 172355Z 29009KT 10SM CLR 18/M03 A2947 RMK AO2A SLP978
     T01791035 10236 20128 53011 $=
KMUO 172355Z 29020KT 10SM FEW049 03/M09 A3014 RMK AO2A PK WND
     31029/12 SLP225 T00301093 10047 20022 53012 FZRANO $=
KRCA 172355Z AUTO 35020G26KT 6SM -SN FEW008 BKN015 BKN026 OVC060
     M05/M09 A2998 RMK AO2 PK WND 34031/21 SNB10 CIG 015V025
     BKN015 V SCT CIG 014 RWY13 SLP184 P0000 60000 T10541093 11006
     21056 52032 $=
KTCM 172355Z AUTO M M M M M M RMK AO2 SLPNO 10072 20030 RVRNO
     $=
KVBG 172355Z AUTO 34009KT 6SM HZ CLR 12/08 A3020 RMK AO2 SLP231
     T01190078 10154 20111 56011 TSNO $=
PAED 172355Z 00000KT 10SM FEW080 BKN100 BKN170 M02/M07 A3024 RMK
     AO2A SLP239 T10201069 11019 21042 51009 $=
PHHI 172355Z AUTO 29011KT 10SM CLR 25/18 A2995 RMK AO2 SLPNO 60008
     T02460178 10247 20186 57019 $=
PACZ 172355Z AUTO 15030G41KT 1/2SM -RA FG VV003 01/01 A2938 RMK
     AO2 PK WND 15041/2348 RAB2310 SLP958 P0001 60036 T00100007
     10010 20000 52012=
PAED 172355Z 00000KT 10SM FEW080 BKN100 BKN170 M02/M07 A3024 RMK
     AO2A SLP239 T10201069 11019 21042 51009 $=
PAFB 172355Z AUTO 00000KT 10SM BKN055 M13/M15 A3017 RMK AO2 SLP240
     T11291155 11129 21190 55000 $=
PAFR 172355Z AUTO 00000KT 10SM OVC100 M02/M05 A3024 RMK AO2 SLP247
     T10231051 10038 21047 53004 $=
PAIM 172355Z AUTO 13008KT 070V160 1 1/2SM -SN BR OVC015 M14/M15
     A3009 RMK AO2 SNB2255 SLP236 P0000 60000 T11361155 11125
     21141 55003=
PGUA 172355Z AUTO 07012KT 10SM SCT017 28/23 A2990 RMK AO2 SLP115
     60000 T02840233 10285 20257 51010 $=
PHHI 172355Z AUTO 29011KT 10SM CLR 25/18 A2995 RMK AO2 SLPNO 60008
     T02460178 10247 20186 57019 $=
KDLF 172355Z AUTO 14008KT 10SM OVC160 19/06 A2976 RMK AO2 SLP073
     T01940061 10219 20155 55003 $=
KDMA 172355Z AUTO 27008KT 10SM CLR 16/M09 A3005 RMK AO2 SLP161
     T01601091 10167 20135 55001 $=
KGRF 172355Z 33005KT 10SM FEW037 06/01 A3042 RMK AO2A SLP307
     T00560008 10066 20024 58001 $=
KINS 172355Z AUTO 25013KT 10SM CLR 15/M11 A3000 RMK AO2 SLP153
     T01471109 10156 20047 55004 $=
KRIV 172355Z AUTO 32008KT 10SM CLR 14/03 A3013 RMK AO2 SLP203
     T01370032 10147 20083 56014=
KSEQ 172355Z AUTO 00000KT 9SM OVC170 15/11 A2979 RMK AO2 SLP088
     60000 T01450107 10166 20127 51003=
KSKA 172355Z AUTO 15004KT 10SM CLR M01/M04 A3026 RMK AO2 SLP274
     T10071039 10005 21023 53004 $=
KSKF 172355Z AUTO 00000KT 10SM BKN160 15/09 A2979 RMK AO2 SLP087
     T01450091 10162 20134 57004 $=
K9L2 172355Z AUTO 25013KT 7SM CLR 18/M08 A3004 RMK AO2 SLP175
     T01771077 10197 20111 55004=
KADW 172355Z AUTO 12007KT 10SM CLR 00/M06 A3010 RMK AO2 SLP203
     T00011061 10061 20001 51004 $=
KBIX 172355Z AUTO 13003KT 10SM OVC042 16/10 A2997 RMK AO2 SLP152
     T01610097 10176 20158 55006=
KFCS 172355Z AUTO 05012KT 10SM CLR 01/M06 A2979 RMK AO2 SLP110
     T00121062 10099 20012 52029 $=


029 
SAUS70 KWBC 180000 RRT
METAR
K0S9 172355Z AUTO VRB05KT 10SM BKN023 06/02 A3046 RMK AO2=
K3T5 172355Z AUTO 18003KT 10SM BKN032 OVC190 14/13 A2980 RMK AO2
     60000 T01420129 10158 20131 50016 $=
K4S2 172355Z AUTO 33003KT 10SM CLR 06/M01 A3037 RMK AO2 AWOS
     NOTAMED OS=
K60R 172355Z AUTO 19007KT 10SM BKN030 OVC190 15/15 A2978 RMK AO2
     SLP002 T01540146 $=
K6S2 172355Z AUTO 00000KT 10SM CLR 09/03 A3037 RMK AO2=
KGCN 172354Z 27007G21KT 10SM CLR 06/M13 A3001 RMK AO2 SLP175
     T00611133 10083 20039 53004=
KHBV 172355Z AUTO 18005KT 9SM CLR 20/13 A2983 RMK AO2
     T02020127=
KHCR 172355Z AUTO 00000KT 10SM SCT065 BKN080 01/M05 A2990 RMK AO2
     T00151052=
KHWD 172354Z 30010KT 10SM CLR 13/07 A3021 RMK AO2 SLP239 T01280067
     10144 20106 55007=
KSPB 172354Z 08003KT 10SM CLR 05/02 A3042=
KTAD 172354Z AUTO 03009KT 10SM CLR 03/M06 A2981 RMK AO2 SLP094
     T00331056 10139 20033 51043=
KU42 172355Z AUTO 32009KT 10SM SCT070 OVC080 02/M05 A3000 RMK AO1
     T00181055 10037 20016=
KU64 172355Z AUTO 29006KT 10SM CLR 04/M15 A2994 RMK AO2 T00371150
     $=
K04W 172355Z AUTO 32017G21KT 10SM OVC030 M02/M08 A2961 RMK AO2=
K06D 172355Z AUTO 33021G28KT 8SM CLR M14/M18 A3000 RMK AO2=
K22N 172355Z AUTO 00000KT 10SM CLR M03/M05 A3008 RMK AO2=
K2D5 172355Z AUTO 34024G29KT BKN021 OVC026 M10/M15 A2998 RMK
     AO2=
K2R2 172355Z AUTO 17008KT 10SM CLR 05/M01 A2971 RMK AO2 T00551007
     $=
K46D 172355Z AUTO 34009G14KT 7SM FEW010 BKN015 OVC031 M11/M12
     A3001 RMK A01=
K4B8 172355Z AUTO 19003KT 10SM SCT050 00/M04 A3010 RMK AO2
     T00021041 $=
K6B9 172355Z AUTO VRB05G11KT 10SM OVC035 00/M03 A2992 RMK AO2=
K7L2 172355Z AUTO 34015G22KT 9SM FEW017 OVC030 M10/M14 A3009 RMK
     AO2=
K8B0 172355Z AUTO 00000KT 10SM BKN023 OVC041 M06/M10 A2994 RMK
     AO2=
K96D 172355Z AUTO 33021G27KT 10SM SCT014 M13/M17 A3002 RMK AO2=
KFFM 172355Z AUTO 34024G32KT 5SM -SN HZ SCT020 M10/M13 A2986 RMK
     AO2 TSNO=
KGDB 172355Z AUTO 31022G32KT 7SM SCT014 SCT020 SCT025 M06/M09
     A2983 RMK AO2 T10571087 10053 21057=
KHCD 172355Z AUTO 32023G33KT 10SM CLR M06/M12 A2972 RMK AO2
     T10561116 10035 21056=
KBKT 172355Z AUTO 00000KT 10SM CLR 02/M05 A3011 RMK AO2 SLP204
     T00181047 10096 20017 52004=
K0E0 172355Z AUTO 30009KT 10SM CLR 07/M14 A2987 RMK AO2 T00731139
     10109 20073=
K1M4 172356Z AUTO 18008KT 10SM SCT110 12/M01 A2996 RMK AO2 SLP907
     T01171011 10150 20117 58004=
K54J 172355Z AUTO 16004KT 10SM CLR 11/01 A3006 RMK AO2 T01120007
     10180 20112=
K5H4 172355Z AUTO 33019G27KT 10SM OVC030 M12/M18 A3007 RMK AO2=
K9D7 172355Z AUTO 10SM OVC030 M13/M14 A3005 RMK AO2=
KADF 172356Z AUTO 17005KT 10SM OVC042 09/06 A2977 RMK AO2 RAE24
     SLP080 P0000 60000 T00890056 10117 20083 56026=
KAFJ 172356Z AUTO 17006KT 10SM CLR 01/M05 A2995 RMK AO2 SLP153
     T00111050 10039 20006 58012 FZRANO $=
KAIZ 172356Z AUTO 23005KT 10SM SCT120 11/M01 A2960 RMK AO2 RAE04
     SLP023 P0000 60000 T01111006 10144 20111 53003=
KAJO 172356Z AUTO 29006KT 10SM CLR 16/06 A3015 RMK AO2 SLP207
     T01610056 10178 20111 56014=
KARG 172356Z AUTO 19020G25KT 10SM -RA FEW070 OVC085 09/04 A2976
     RMK AO2 RAE2257B17 SLP081 P0000 60000 T00890039 10133 20089
     55013=
KASH 172356Z 00000KT 10SM CLR M05/M07 A3010 RMK AO2 SLP195
     T10501072 10022 21050 51020=
KAUO 172356Z AUTO 16005KT 10SM CLR 13/M01 A3004 RMK AO2 SLP169
     T01281011 10156 20128 56004=
KAWO 172356Z AUTO 33005KT 10SM OVC028 06/01 A3046 RMK AO2 SLP322
     T00560011 10061 20017 55001=
KBCB 172355Z AUTO 16003KT 10SM CLR 00/M05 A3006 RMK AO2 T00041047
     10078 20004=


030 
SAXX60 KWBC 180000 RRC
METAR
KFRI 172355Z AUTO 35008KT 10SM CLR 05/M01 A2967 RMK AO2 SLP052
     T00521015 10070 20047 52039 $=
KGUS 172355Z AUTO 18009KT 10SM FEW180 03/M02 A2966 RMK AO2 SLP054
     T00311018 10053 20028 56016 $=
KSVN 172355Z AUTO 10004KT 10SM CLR 08/04 A3007 RMK AO2 SLP186
     T00830043 10191 20077 50002 $=
KVOK 172355Z AUTO 26011KT 10SM OVC100 04/M03 A2946 RMK AO2 SLP987
     T00381035 10086 20038 52018 $=
KVPS 172355Z AUTO 14007KT 10SM BKN210 14/05 A3003 RMK AO2 SLP176
     60000 T01420053 10175 20133 57009 $=
KBAD 172355Z AUTO 11009KT 10SM FEW130 10/06 A2976 RMK AO2 SLP082
     60000 T00970059 10115 20096 57018=
KDLF 172355Z AUTO 14008KT 10SM OVC160 19/06 A2976 RMK AO2 SLP073
     T01940061 10219 20155 55003 $=
KHOP 172355Z AUTO 19009KT 10SM BKN130 14/M02 A2980 RMK AO2 SLP095
     T01401016 10171 20140 57011=
KLOR 172355Z AUTO 00000KT 10SM BKN180 12/04 A3002 RMK AO2 SLP151
     T01150035 10186 20115 55005=
KLRF 172355Z AUTO 19010KT 10SM -RA OVC045 09/03 A2976 RMK AO2
     RAE02DZB02E05RAB35 SLP082 P0001 60001 T00930031 10141 20093
     55012 $=
KMMT 172355Z AUTO 08004KT M M CLR 06/M02 A3007 RMK AO2 SLP188
     T00551017 10153 20055 50001 RVRNO VISNO RWY32 $=
KOFF 172355Z 35017G25KT 10SM BKN120 BKN250 05/M06 A2972 RMK AO2A
     PK WND 34032/20 SLP077 T00491058 10106 20049 52046 $=
KRIV 172355Z AUTO 32008KT 10SM CLR 14/03 A3013 RMK AO2 SLP203
     T01370032 10147 20083 56014=
KSKF 172355Z AUTO 00000KT 10SM BKN160 15/09 A2979 RMK AO2 SLP087
     T01450091 10162 20134 57004 $=
PWAK 172355Z AUTO 11010KT 9SM FEW027 30/23 A2998 RMK AO2 SLP155
     60000 T03010228 10301 20253 58001=
K1BW 172355Z AUTO 35021KT 10SM SCT075 OVC100 M05/M11 A2990 RMK AO2
     PK WND 35029/26 SLP154 60000 T10541106 11025 21054 52021
     $=
KADW 172355Z AUTO 12007KT 10SM CLR 00/M06 A3010 RMK AO2 SLP203
     T00011061 10061 20001 51004 $=
KDOV 172355Z AUTO 16003KT 10SM CLR 01/M06 A3014 RMK AO2 SLP210
     T00051057 10065 20004 50011=
KFFO 172355Z 16007KT 10SM CLR 03/M03 A2981 RMK AO2A SLP104 4/002
     T00301031 10048 20027 57018=
KOFF 172355Z 35017G25KT 10SM BKN120 BKN250 05/M06 A2972 RMK AO2A
     PK WND 34032/20 SLP077 T00491058 10106 20049 52046 $=
KRCA 172355Z AUTO 35020G26KT 6SM -SN FEW008 BKN015 BKN026 OVC060
     M05/M09 A2998 RMK AO2 PK WND 34031/21 SNB10 CIG 015V025
     BKN015 V SCT CIG 014 RWY13 SLP184 P0000 60000 T10541093 11006
     21056 52032 $=
KBAD 172355Z AUTO 11009KT 10SM FEW130 10/06 A2976 RMK AO2 SLP082
     60000 T00970059 10115 20096 57018=
KDLF 172355Z AUTO 14008KT 10SM OVC160 19/06 A2976 RMK AO2 SLP073
     T01940061 10219 20155 55003 $=
KDMA 172355Z AUTO 27008KT 10SM CLR 16/M09 A3005 RMK AO2 SLP161
     T01601091 10167 20135 55001 $=
KDOV 172355Z AUTO 16003KT 10SM CLR 01/M06 A3014 RMK AO2 SLP210
     T00051057 10065 20004 50011=
KFFO 172355Z 16007KT 10SM CLR 03/M03 A2981 RMK AO2A SLP104 4/002
     T00301031 10048 20027 57018=
KGRF 172355Z 33005KT 10SM FEW037 06/01 A3042 RMK AO2A SLP307
     T00560008 10066 20024 58001 $=
KGSB 172355Z 17006KT 10SM CLR 07/M02 A3013 RMK AO2A SLP207
     T00741016 10127 20057 52009 $=
KHIF 172355Z AUTO 33015KT 10SM SCT050 BKN075 00/M05 A3000 RMK AO2
     SLP170 T00001054 10027 21011 53009=
KHOP 172355Z AUTO 19009KT 10SM BKN130 14/M02 A2980 RMK AO2 SLP095
     T01401016 10171 20140 57011=
KHST 172355Z AUTO 09010KT 10SM -DZ BKN035 BKN044 OVC070 21/18
     A3001 RMK AO2 DZE00RAB52E53DZB53 SLP166 P0000 60001 T02140178
     10214 20194 58005=
KLRF 172355Z AUTO 19010KT 10SM -RA OVC045 09/03 A2976 RMK AO2
     RAE02DZB02E05RAB35 SLP082 P0001 60001 T00930031 10141 20093
     55012 $=


031 
SAUS70 KWBC 180000 RRX
METAR
PAAK 172356Z AUTO 09003KT 2 1/2SM BR OVC003 04/04 A2897 RMK AO2
     SLP809 60000 T00440044 10044 20039 51000 TSNO=
PABV 172356Z AUTO 23004KT 10SM OVC090 M01/M05 A3027 RMK AO2 SLP252
     60000 T10111050 11011 21050 53004 FZRANO=
PACM 172356Z AUTO 13018G23KT 3/4SM BR OVC002 01/01 A2946 RMK AO2
     PK WND 14027/2304 RAB07E09B33E38SNE33 SLP975 P0001 60017
     T00110011 10017 20011 52014 FZRANO=
PAFE 172356Z AUTO 00000KT 10SM OVC011 01/01 A3064 RMK AO2 SLP384
     T00060006 10033 21022 53008 FZRANO=
PAGL 172356Z AUTO 12024G32KT 3/4SM -SN BR OVC017 M02/M03 A2964 RMK
     AO2 PK WND 13032/2353 SLP032 P0000 60000 T10221033 11022
     21044 50000 FZRANO TSNO=
PAGN 172356Z AUTO 07005KT 10SM OVC017 02/01 A3062 RMK AO2 SLP357
     6//// T00170011 10022 20006 51007 FZRANO=
PAII 172356Z AUTO 13019G34KT 10SM CLR 04/03 A2973 RMK AO2 PK WND
     13034/2348 SLP064 T00440033 10044 20039 58003=
PAKP 172356Z AUTO 24017KT 9SM FEW060 OVC090 M15/M21 A3004 RMK AO2
     PK WND 23026/2325 SLP253 T11501211 11150 21206 56011
     FZRANO=
PANA 172356Z AUTO 11008KT 10SM FEW030 BKN065 03/01 A2958 RMK AO2
     SLP016 T00330011 10039 20022 51011 TSNO=
PANI 172356Z AUTO 15010KT 8SM OVC028 04/00 A2971 RMK AO2 SLP063
     T00390000 10044 20017 51017 $=
PANV 172356Z AUTO 06012KT 8SM -SN SCT035 BKN044 OVC060 M07/M08
     A2970 RMK AO2 SLP180 P0000 60000 T10721078 11072 21111 50003
     FZRANO TSNO=
PASL 172356Z AUTO 00000KT 10SM OVC043 M01/M02 A2988 RMK AO2 SLP110
     60005 T10061017 10000 21078 53005 FZRANO=
PATQ 172356Z AUTO 09016KT 10SM CLR A3001 RMK AO2 SLPNO 60000 58030
     FZRANO TSNO $=
PFCL 172356Z AUTO 13020G27KT 10SM SCT007 04/04 A2970 RMK AO2 PK
     WND 13031/2340 SLP050 T00390039 10039 20028 51001=
PFKW 172356Z AUTO 12010KT 10SM BKN090 A2960 RMK AO2 SLPNO 51010
     FZRANO $=
PFSH 172356Z AUTO 13025G33KT 1SM -SN BR SCT015 BKN022 OVC045
     M02/M03 A2968 RMK AO2 PK WND 13037/2343 SNE05B34 SLP052 P0000
     60000 T10221033 11006 21028 53010 FZRANO TSNO=
PFWS 172356Z AUTO 14017KT 10SM CLR 05/03 A2977 RMK AO2 PK WND
     14030/2304 SLP083 T00500028 10056 20033 57000=
PPIT 172356Z AUTO 13012KT 10SM SCT047 BKN055 BKN070 02/01 A2956
     RMK AO2 SLPNO 6//// T00220006 FZRANO=
PAAK 172356Z AUTO 09003KT 2 1/2SM BR OVC003 04/04 A2897 RMK AO2
     SLP809 60000 T00440044 10044 20039 51000 TSNO=
PABL 172356Z AUTO 11032G42KT 3/4SM -SN BR CLR M09/M11 A2978 RMK
     AO2 PK WND 10044/2323 SLP085 P0000 60000 T10941106 11094
     21117 56013 FZRANO=
PABV 172356Z AUTO 23004KT 10SM OVC090 M01/M05 A3027 RMK AO2 SLP252
     60000 T10111050 11011 21050 53004 FZRANO=
PACM 172356Z AUTO 13018G23KT 3/4SM BR OVC002 01/01 A2946 RMK AO2
     PK WND 14027/2304 RAB07E09B33E38SNE33 SLP975 P0001 60017
     T00110011 10017 20011 52014 FZRANO=
PADL 172356Z 12016G25KT 10SM OVC010 04/03 A2972 RMK AO2 SLP067
     T00440028 10044 20033 50003=
PADM 172356Z AUTO 13019G26KT 10SM SCT036 BKN043 OVC120 04/00 A2964
     RMK AO2 PK WND 14028/2331 RAE19 SLP042 P0000 60002 T00440000
     10044 20017 51007=
PAFE 172356Z AUTO 00000KT 10SM OVC011 01/01 A3064 RMK AO2 SLP384
     T00060006 10033 21022 53008 FZRANO=
PAGA 172356Z AUTO 11020G27KT 3/4SM -SN BR BKN020 OVC036 M11/M13
     A2995 RMK AO2 PK WND 11027/2356 SLP148 P0000 60000 T11061128
     11106 21117 58012 FZRANO TSNO $=
PAGL 172356Z AUTO 12024G32KT 3/4SM -SN BR OVC017 M02/M03 A2964 RMK
     AO2 PK WND 13032/2353 SLP032 P0000 60000 T10221033 11022
     21044 50000 FZRANO TSNO=
PAGN 172356Z AUTO 07005KT 10SM OVC017 02/01 A3062 RMK AO2 SLP357
     6//// T00170011 10022 20006 51007 FZRANO=


032 
SAUS70 KWBC 180000 RRU
METAR
KBHB 172356Z AUTO 23004KT 10SM CLR M04/M09 A3009 RMK AO2 SLP192
     T10441089 11017 21067 53019 FZRANO=
KBID 172356Z AUTO 28004KT 10SM CLR M01/M04 A3013 RMK AO2 SLP203
     T10061044 10011 21011 51015 FZRANO $=
KBKX 172356Z AUTO 34019G28KT 9SM FEW018 M07/M11 A2985 RMK AO2 PK
     WND 34030/2308 SNB40E55 PRESRR SLP145 P0000 60000 T10721111
     10039 21072 51058 FZRANO=
KBLM 172356Z AUTO 16004KT 10SM CLR 01/M06 A3015 RMK AO2 SLP210
     T00111056 10050 21006 53015 FZRANO=
KBMI 172356Z 18015KT 10SM OVC055 05/00 A2960 RMK AO2 SLP028
     T00500000 10078 20044 58001=
KBOK 172356Z AUTO 29003KT 10SM CLR A3022 RMK AO2 SLPNO 6//// 56010
     PNO $=
KEKY 172356Z AUTO 16003KT 10SM CLR 12/M02 A2998 RMK AO2 SLP134
     6//// T01221017 10156 20122 58005=
KENV 172356Z AUTO 19008KT 10SM FEW060 03/M06 A3004 RMK AO2 SLP207
     T00331056 10050 21017 53009=
KESC 172356Z AUTO 22005KT 10SM OVC110 02/M02 A2938 RMK AO2 SLP959
     T00171017 10022 20017 53010 FZRANO=
KEUL 172356Z AUTO 28018KT 10SM CLR 04/M08 A3023 RMK AO2 PK WND
     28026/2259 SLP257 T00391078 10061 20028 53013=
KEWK 172356Z AUTO 34016KT 10SM CLR 01/M01 A2965 RMK AO2 SLP047
     T00111011 10056 20011 51043 FZRANO=
KEZF 172355Z AUTO 13004KT 10SM CLR 00/M04 A3011 RMK AO2 T00041042
     10080 20003=
KFAM 172356Z AUTO 18014G21KT 10SM BKN100 08/01 A2967 RMK AO2
     RAB05E17 SLP063 P0000 60000 T00830006 10117 20083 55001=
KFCI 172356Z AUTO 00000KT 10SM CLR 02/M05 A3013 RMK AO2 SLP218
     T00171050 10083 20011 51005 FZRANO=
KFKL 172356Z AUTO 18012KT 10SM CLR M01/M04 A2989 RMK AO2 SLP141
     T10061044 10017 21006 58008 FZRANO=
KFKN 172355Z AUTO 14008KT 10SM CLR 04/M03 A3017 RMK AO2 T00351035
     10090 20029=
KFNL 172356Z 07010KT 10SM FEW032 OVC046 M02/M08 A2992 RMK AO2
     SNE30 SLP154 P0000 60000 T10221078 10133 21022 51053=
KFOD 172356Z AUTO 35014G21KT 10SM FEW038 OVC110 01/M07 A2969 RMK
     AO2 PRESRR SLP081 T00061067 10089 20006 53041 FZRANO=
KFPY 172355Z AUTO 00000KT 10SM CLR 10/02 A3008 RMK AO2 T01020016
     10205 20102=
KFRM 172356Z AUTO 33026G36KT 10SM FEW120 M03/M08 A2970 RMK AO2 PK
     WND 33038/2339 SLP077 T10281078 10044 21028 51044 FZRANO=
KGAD 172356Z AUTO 00000KT 10SM CLR 11/M02 A3000 RMK AO2 SLP164
     T01111017 10156 20106 51002 $=
KGAI 172356Z AUTO 13005KT 10SM CLR 01/M06 A3010 RMK AO2 SLP214
     6//// T00061056 10050 20006 50001 FZRANO PNO $=
KGDV 172356Z AUTO 33012KT 10SM SCT022 M10/M13 A3019 RMK AO2 SNE03
     SLP259 P0000 60000 T11001133 11067 21106 53019 FZRANO
     TSNO=
KGTR 172356Z 14006KT 10SM OVC090 12/03 A2993 RMK AO2 PRESFR SLP136
     T01170033 10150 20111 58018=
KGTU 172356Z 20010KT 10SM CLR 16/11 A2978 RMK AO2 SLP082 T01560106
     10167 20133 58006=
KGUC 172356Z AUTO 00000KT 10SM FEW065 M14/M18 A2990 RMK AO2 SLP278
     60000 T11441178 11128 21217 55002 FZRANO=
KBTP 172356Z AUTO 16008KT 10SM CLR 01/M05 A2993 RMK AO2 SLP153
     T00061050 10028 20006 58008 FZRANO=
KBVX 172356Z AUTO 17009G14KT 10SM OVC055 09/03 A2976 RMK AO2 RAE48
     SLP081 P0000 60000 T00890033 10144 20089 56006=
KBWW 172355Z AUTO 34019KT 10SM OVC016 M12/M14 A3008 RMK AO2=
KCIU 172356Z AUTO VRB06KT 10SM -RA OVC012 02/01 A2938 RMK AO2
     UPB04E14B45E50RAB14SNE04 SLP957 P0000 60000 T00170006 10022
     21006 56011 FZRANO=
KCKM 172355Z AUTO 15007KT 10SM 09/ A2986 RMK A01=
KCMA 172355Z 26006KT 10SM SCT025 14/08 A3016 RMK AO2 SLP221
     T01390083 10156 20133 58004=
KCOD 172356Z AUTO 36011G16KT 9SM -SN OVC037 M10/M13 A3010 RMK AO2
     SLP241 P0000 60000 T11001133 11072 21100 53016 FZRANO=


033 
SAUS70 KWBC 180000 RRQ
METAR
KN79 172355Z AUTO 19004KT 10SM CLR 01/M06 A3002 RMK AO2
     T00051060=
KALO 172354Z 31009KT 10SM BKN038 04/M03 A2960 RMK AO2 SLP031
     T00391033 53031=
KAXV 172355Z AUTO 16013G17KT 10SM CLR 01/01 A2976 RMK AO2=
KBIS 172352Z AUTO 35011G22KT 10SM OVC029 M09/M15 A3009 RMK AO2 PK
     WND 33029/2307 SLP216 60000 T10941150 11044 21094 51032=
KBWI 172354Z 15006KT 10SM CLR 02/M06 A3012 RMK AO2 SLP202
     T00221056 10067 20011 51009=
KCDA 172355Z AUTO 00000KT 10SM OVC040 M04/M08 A2999 RMK AO2
     T10441078 11043 21052=
KCFE 172355Z AUTO 32023G28KT 10SM FEW022 SCT030 M06/M10 A2967 RMK
     AO2=
KCKZ 172355Z AUTO 00000KT 10SM OVC042 M02/M05 A3010 RMK AO2=
KIMT 172354Z AUTO 24007KT 10SM FEW038 02/M04 A2934 RMK AO2 SLP950
     T00171039 10028 20006 53014=
KISW 172354Z AUTO 26008G17KT 10SM FEW120 02/M02 A2948 RMK AO2
     SLP992 T00221022 10044 20022 53017=
KJYG 172355Z AUTO 32032G42KT 10SM FEW017 BKN024 OVC120 M04/M08
     A2970 RMK AO2=
KLAF 172354Z 20007KT 10SM CLR 06/M01 A2967 RMK AO2 SLP054
     T00561011 10072 20050 56010=
KMGG 172355Z AUTO 31017G26KT 10SM CLR M05/M11 A2970 RMK AO2
     T10551107 10036 21055=
KMQS 172355Z AUTO 00000KT 10SM CLR M00/M05 A3011 RMK AO2=
KMVE 172355Z AUTO 34029G37KT 10SM -SN BKN019 M08/M11 A2983 RMK
     AO2=
KACQ 172355Z AUTO 30019G27KT 10SM CLR M02/M07 A2965 RMK AO2=
KBDH 172355Z AUTO 32024G35KT 9SM OVC013 M08/M11 A2977 RMK AO2=
KD09 172355Z AUTO 33016KT 10SM CLR M14/M18 A3005 RMK AO2=
KDEC 172354Z 18014KT 10SM FEW060 BKN120 06/M01 A2963 RMK AO2
     SLP039 T00561011 10078 20056 55006=
KDTL 172355Z AUTO 34023G33KT 3SM -SN HZ M11/M13 A2984 RMK AO2=
KDYL 172354Z AUTO 16003KT 10SM SCT046 01/M05 A3009 RMK AO2 SLP200
     T00111050 10061 20006 50011=
KELO 172355Z AUTO 33014G28KT 10SM OVC032 M07/M13 A2953 RMK AO2=
KHZE 172355Z AUTO 34015KT 9SM -SN OVC025 M11/M16 A3013 RMK AO2=
KIDI 172355Z AUTO 00000KT 10SM CLR M01/M06 A2995 RMK A01=
KIRS 172355Z AUTO 18014KT 10SM CLR 02/M02 A2964 RMK AO2 10046
     20018=
KJKJ 172355Z AUTO 35030G38KT 1SM -SN BKN011 OVC017 M09/M12 A2994
     RMK AO2 VIS 3/4V2=
KLDM 172355Z AUTO 21017G25KT 10SM CLR 05/00 A2948 RMK AO2
     T00470000 10050 20040=
KLWM 172354Z 21004KT 10SM CLR M03/M09 A3010 RMK AO2 SLP196
     T10281089 10017 21028 53016=
KMIV 172354Z AUTO 00000KT 10SM CLR M02/M07 A3016 RMK AO2 SLP211
     T10221072 10067 21033 51016=
KONZ 172355Z AUTO 18010KT 10SM CLR 00/M02 A2974 RMK AO2 10016
     20000=
KAPC 172354Z 20008KT 10SM SCT022 12/08 A3020 RMK AO2 SLP217
     T01220078 10128 20061 55009=
KASL 172355Z AUTO 17007KT 10SM CLR 10/08 A2975 RMK AO2 60000
     T01000081 10117 20092 58004 $=
KATS 172355Z AUTO 28020KT 10SM CLR 16/M05 A2981 RMK AO2=
KBFL 172354Z 34006KT 10SM CLR 19/M04 A3014 RMK AO2 SLP205
     T01891039 10194 20111 56015=
KBVU 172355Z AUTO 15008KT 10SM CLR 16/M11 A2999 RMK AO2=
KBWD 172355Z AUTO 26020G28KT 3SM HZ BKN033 OVC250 21/M04 A2969 RMK
     AO2 PK WND 28028/2352 T02101038 $=
KBXK 172355Z AUTO 23005KT 10SM CLR 18/M04 A3006 RMK AO2=
KCPT 172355Z AUTO 16009KT 10SM CLR 15/07 A2961 RMK AO2 T01520068
     $=
KJSO 172355Z AUTO 18009KT 8SM SCT100 OVC240 12/09 A2974 RMK AO2
     T01250093 $=
KJWY 172355Z AUTO 18011KT 10SM CLR 14/08 A2966 RMK AO2
     T01360080=
KL08 172355Z AUTO 34014KT 10SM CLR 19/M01 A3004 RMK AO2=
KL35 172355Z AUTO 25007KT 10SM 05/M11 A3014 RMK AO2=
KMMH 172355Z AUTO 26008KT 10SM CLR 09/M12 A3012 RMK AO2=
KMRY 172354Z 26005KT 10SM SCT020 13/07 A3022 RMK AO2 SLP245
     T01280072 10133 20106 55008=
KO22 172355Z AUTO 22003KT 10SM CLR 15/M03 A3017 RMK A01=


034 
SAUS70 KWBC 180000 RRX
METAR
PAGS 172356Z AUTO 33004KT 1 1/2SM UP BR OVC008 01/00 A3059 RMK AO2
     UPB18 CIG 006V012 SLP357 P0000 60000 T00060000 10006 21006
     53003 FZRANO=
PAHC 172356Z AUTO 08005KT 10SM FEW060 OVC075 04/01 A2971 RMK AO2
     SLP064 60000 T00390006 10039 20011 51014=
PAHL 172356Z AUTO 07012G25KT 3/4SM -SN BR BKN017 OVC032 M12/M14
     A3001 RMK AO2 SLP169 P0000 60000 T11171139 11117 21128 53001
     FZRANO TSNO=
PAIG 172356Z AUTO 06021G26KT 10SM CLR 03/02 A2984 RMK AO2 PK WND
     05028/2259 SLP113 T00330017 10044 20022 50004=
PAII 172356Z AUTO 13019G34KT 10SM CLR 04/03 A2973 RMK AO2 PK WND
     13034/2348 SLP064 T00440033 10044 20039 58003=
PAIN 172356Z AUTO 13011G18KT 10SM BKN048 OVC055 M01/M09 A3015 RMK
     AO2 SNE08B35E44 SLP242 P0000 60000 T10111089 11011 21033
     53011 FZRANO=
PAJZ 172356Z AUTO 12025G35KT 6SM BR BKN010 OVC048 03/01 A2985 RMK
     AO2 PK WND 11037/2342 SLP109 T00280011 10028 20022 50006=
PAKP 172356Z AUTO 24017KT 9SM FEW060 OVC090 M15/M21 A3004 RMK AO2
     PK WND 23026/2325 SLP253 T11501211 11150 21206 56011
     FZRANO=
PALG 172356Z AUTO 09011G17KT 10SM BKN085 04/01 A2966 RMK AO2
     SLP045 T00390006 10044 20028 51013=
PAMB 172356Z AUTO 12015G21KT 10SM BKN120 03/03 A2970 RMK AO2 SLPNO
     T00330028 10033 20022 50003=
PAMD 172356Z AUTO 13020G25KT 10SM SCT011 BKN023 OVC075 04/03 A3036
     RMK AO2 PK WND 14026/2348 RAE12B33E48 SLP282 P0000 60001
     T00390028 10044 20033 58001=
PAMH 172356Z AUTO 11006KT 10SM SCT075 OVC090 M14/M16 A3009 RMK AO2
     SLP203 60000 T11391161 11139 21172 57007 FZRANO TSNO=
PAMK 172356Z AUTO 13015KT 10SM SCT080 03/M01 A2964 RMK AO2 PK WND
     15033/2325 SLP038 T00281006 10033 21022 53014=
PAMM 172356Z AUTO RMK AO2 SLPNO 6//// PWINO FZRANO $=
PAMO 172356Z AUTO 14020G26KT 10SM OVC010 02/01 A2954 RMK AO2 PK
     WND 15029/2315 RAE56UPB20E22 SLP008 P0000 60001 T00170011
     10017 21022 51015 FZRANO=
PANA 172356Z AUTO 11008KT 10SM FEW030 BKN065 03/01 A2958 RMK AO2
     SLP016 T00330011 10039 20022 51011 TSNO=
PANI 172356Z AUTO 15010KT 8SM OVC028 04/00 A2971 RMK AO2 SLP063
     T00390000 10044 20017 51017 $=
PANV 172356Z AUTO 06012KT 8SM -SN SCT035 BKN044 OVC060 M07/M08
     A2970 RMK AO2 SLP180 P0000 60000 T10721078 11072 21111 50003
     FZRANO TSNO=
PANW 172356Z AUTO 10018G30KT 10SM FEW008 OVC042 02/01 A2979 RMK
     AO2 PK WND 10030/2353 SLP096 T00220011 10028 20022 50004
     FZRANO=
PAOU 172356Z AUTO 13030KT 10SM -RA FEW027 SCT038 OVC046 04/02
     A2934 RMK AO2 PK WND 13033/2356 SLP935 P0001 60001 T00440022
     10044 20033 58033=
PAPG 172356Z 22003KT 10SM FEW005 FEW017 SCT044 M01/M01 A3063 RMK
     AO2 SLP374 T10061006 10000 21028 51007=
PAPH 172356Z AUTO 13023G33KT 10SM BKN020 OVC031 07/04 A2956 RMK
     AO2 PK WND 13033/2353 SLP011 T00720044 10072 20061 58010
     $=
PAPM 172356Z AUTO 12023G32KT 10SM FEW013 SCT065 OVC080 04/04 A2950
     RMK AO2 PK WND 12032/2350 SLP993 60000 T00390039 10050 20033
     58005 TSNO=
PAPO 172356Z AUTO 13022G28KT 3/4SM -SN BR BKN014 OVC025 M07/M09
     A2971 RMK AO2 PK WND 13031/2335 SLP060 P0000 60000 T10721089
     11067 21083 58024 FZRANO=
PFKW 172356Z AUTO 12010KT 10SM BKN090 A2960 RMK AO2 SLPNO 51010
     FZRANO $=
PFYU 172356Z 02004KT 9SM SCT100 M23/M26 A3036 RMK AO2 SLP310
     T12331256 11233 21306 56009=
PPIT 172356Z AUTO 13012KT 10SM SCT047 BKN055 BKN070 02/01 A2956
     RMK AO2 SLPNO 6//// T00220006 FZRANO=
PPIZ 172356Z AUTO 09017KT 10SM FEW100 M10/M13 A2979 RMK AO2 SLP093
     T11001128 11100 21172 56030 FZRANO=


035 
SAUS70 KWBC 180000 RRN
METAR
KMSP 172353Z 31023G36KT 10SM -SN BKN038 M03/M09 A2963 RMK AO2 PK
     WND 31036/2347 SLP043 4/001 T10281089 10033 21028 53046=
KOTM 172353Z AUTO 32010KT 10SM CLR 04/M02 A2958 RMK AO2 SLP022
     T00391017 10128 20039 53023=
KPHD 172353Z AUTO 13005KT 10SM CLR 01/M06 A2989 RMK AO2 SLP130
     T00111056 10039 20011 58016 PWINO FZRANO=
KSDC 172355Z AUTO 00000KT 10SM CLR 00/M03 A2992 RMK AO2=
KSMQ 172353Z AUTO 00000KT 10SM BKN050 M02/M05 A3010 RMK AO2 SLP196
     T10221050 10061 21022 53013=
KSPW 172353Z AUTO 33026G36KT 10SM FEW033 SCT120 M01/M09 A2974 RMK
     AO2 PK WND 33036/2352 SLP085 T10111094 10067 21011 53046
     PWINO FZRANO $=
KBUR 172353Z 19007KT 10SM CLR 14/06 A3014 RMK AO2 SLP199 T01390061
     10161 20111 56015=
KGUR 172355Z AUTO 35014G19KT 10SM BKN070 OVC085 M04/M10 A2995 RMK
     AO2 SLP185 60000 T10441100 10003 21044 52023=
KTTS 172355Z AUTO 00000KT 10SM CLR 13/11 A3008 RMK AO2 SLP190
     T01280107 10189 20127 58002 $=
PASC 172353Z 09009KT 7SM FEW150 M29/M32 A3018 RMK AO2 SLP224
     T12891322 11278 21294 58023 $=
PAHN 172354Z AUTO 29007KT 10SM OVC018 M03/M08 A3060 RMK AO2 SLP365
     T10281078 11022 21056 53001 TSNO=
PAKN 172354Z 14007KT 10SM FEW030 BKN045 05/02 A2975 RMK AO2 SLP073
     T00500017 10061 20039 58001=
K1MW 172355Z AUTO 01011KT 10SM OVC085 M01/M08 A2986 RMK AO2 SLP131
     60000 T10121078 10053 21013 52036 $=
KMLS 172353Z AUTO 35015KT 10SM OVC085 M09/M13 A3020 RMK AO2 SLP261
     60000 T10941133 11056 21094 51028=
KMWL 172353Z AUTO 22014KT 5SM HZ OVC049 21/01 A2959 RMK AO2 SLP013
     T02060006 10228 20150 55009=
KTTD 172353Z AUTO 30004KT 10SM OVC019 06/01 A3042 RMK AO2 SLP301
     T00560011 10061 20028 55002=
KTWF 172353Z 29020G32KT 10SM CLR 00/M09 A3007 RMK AO2 PK WND
     29039/2330 SLP192 T00001089 10028 20000 53015=
KGFA 172355Z AUTO 27004KT 9SM -SN OVC040 M09/M13 A3026 RMK AO2
     SNE05SNB07 SLP308 P0000 60000 T10911131 11083 21093 53001=
KHFF 172355Z AUTO 00000KT 10SM CLR 04/M02 A3008 RMK AO2 SLP192
     T00441025 10140 20031 50001 $=
KGFA 172355Z AUTO 27004KT 9SM -SN OVC040 M09/M13 A3026 RMK AO2
     SNE05SNB07 SLP308 P0000 60000 T10911131 11083 21093 53001=
K2DP 172355Z AUTO 00000KT M M CLR M02/M03 A3020 RMK AO2 SLP234
     T10161029 10090 21018 51012 RVRNO PWINO TSNO $=
KTOI 172353Z AUTO 15003KT 10SM CLR 13/01 A3003 RMK AO2 SLP169
     T01330006 10172 20133 55005=
TIST 172353Z AUTO 09011KT 6SM -RA BR FEW021 SCT035 OVC045 24/23
     A3009 RMK AO2 WSHFT 2321 RAB37 SLP191 P0002 60003 T02390228
     10300 20239 53018=
TISX 172353Z 06007KT 10SM FEW021 BKN060 OVC075 27/22 A3009 RMK AO2
     SLP186 60000 T02670222 10289 20261 53014 $=
KCMY 172355Z AUTO 26003KT 10SM FEW031 OVC100 03/M02 A2948 RMK AO2
     SLP993 T00281023 10084 20028 52017 $=
KTTS 172355Z AUTO 00000KT 10SM CLR 13/11 A3008 RMK AO2 SLP190
     T01280107 10189 20127 58002 $=
K11R 172355Z AUTO 00000KT 10SM OVC030 16/12 A2981 RMK AO2
     T01600122 10170 20142=
K14Y 172355Z AUTO 32019G26KT 7SM OVC016 M08/M12 A2974 RMK AO2=
K1A9 172355Z AUTO 00000KT 10SM CLR 12/01 A3001 RMK AO2 T01200013
     10160 20120=
K3N8 172355Z AUTO 33021G25KT 10SM SCT023 M10/M15 A2987 RMK AO2
     T11051147 11043 21106=
K66R 172355Z AUTO 00000KT 10SM OVC023 17/14 A2983 RMK AO2
     T01680140 10173 20143=
K6A2 172355Z AUTO 16004KT 10SM CLR 10/M06 A3004 RMK AO2=
K6B0 172355Z AUTO 18005KT 10SM SCT019 OVC040 M01/M05 A3001 RMK AO2
     T10141055 11014 21028=
K82V 172355Z AUTO 01017G27KT 10SM M04/M10 A2987 RMK AO2=
K9A4 172355Z AUTO 17009KT 10SM SCT090 OVC110 12/M02 A2994 RMK
     AO2=


036 
SAUS80 KWBC 180000 RRA
METAR
KDSM 172354Z 34007KT 10SM SCT120 SCT250 05/M04 A2964 RMK AO2
     SLP043 T00501039 10100 20050 53032=
KFWA 172354Z 17011KT 10SM SCT230 04/M03 A2970 RMK AO2 SLP065 4/001
     T00391028 10056 20028 56022=
KGSO 172354Z 20003KT 10SM CLR 06/M05 A3008 RMK AO2 SLP189
     T00561050 10111 20056 53003=
KINL 172354Z AUTO 33014G24KT 3SM -SN OVC027 M09/M13 A2969 RMK AO2
     PK WND 34033/2321 VIS 2 RWY 31 UPB34E36SNE34B36 SLP073 P0000
     60001 T10941133 11006 21094 51050 $=
KJAN 172354Z 17010KT 10SM -RA BKN075 OVC090 12/04 A2990 RMK AO2
     RAB16 SLP126 P0000 60000 T01220044 10156 20117 58019=
KLAN 172353Z 18019G28KT 10SM CLR 04/M03 A2960 RMK AO2 PK WND
     16028/2344 SLP033 T00391028 58019 $=
KLEX 172354Z 15008KT 10SM CLR 08/M02 A2985 RMK AO2 SLP111
     T00781022 10089 20056 58020 $=
KLYH 172354Z 00000KT 10SM CLR 01/M06 A3008 RMK AO2 SLP191
     T00111061 10083 20006 50000=
KM21 172355Z AUTO 17007KT 10SM SCT070 SCT085 13/00 A2980 RMK AO2
     T01280001 10156 20124=
KMVL 172354Z AUTO 17004KT 10SM OVC044 M03/M07 A2999 RMK AO2 SLP170
     T10281072 11022 21039 51009=
KNY0 172355Z AUTO 10004KT 10SM OVC039 M03/M05 A3001 RMK AO2
     T10331051 11019 21033=
KNYC 172351Z AUTO 24004KT 10SM FEW050 04/M07 A3013 RMK AO2 SLP195
     T00391067 10056 20033 51016=
KROA 172354Z 12005KT 10SM CLR 05/M06 A3007 RMK AO2 SLP189
     T00501056 10094 20050 50000=
KROC 172354Z 17007KT 10SM FEW040 SCT120 BKN200 01/M06 A2989 RMK
     AO2 SLP131 4/002 T00111056 10028 20011 58013=
KROS 172355Z AUTO 32013G19KT 10SM OVC037 M02/M07 A2962 RMK AO2=
KSBN 172354Z 19013KT 10SM CLR 04/M02 A2963 RMK AO2 PK WND
     17026/2304 SLP040 T00441022 10061 20039 56014=
KSNC 172355Z AUTO 00000KT 10SM CLR M00/M03 A3010 RMK AO2=
KSOW 172355Z AUTO 22013G21KT 10SM CLR 05/M05 A3004 RMK AO2=
KSUS 172354Z VRB04KT 10SM OVC110 11/M01 A2960 RMK AO2 RAE22 SLP029
     P0000 60000 T01061011 10139 20083 56002=
KSYR 172354Z 16006KT 10SM BKN043 BKN150 BKN200 02/M04 A2997 RMK
     AO2 SLP148 4/011 T00171044 10028 20017 55001=
KTKC 172355Z AUTO 33023G30KT 10SM BKN018 BKN022 BKN027 M06/M10
     A2978 RMK AO2=
KORH 172354Z 24007KT 10SM OVC044 M02/M07 A3005 RMK AO2 SLP190
     T10171072 10011 21028 51016=
KPIA 172354Z 21005KT 10SM OVC060 05/M01 A2959 RMK AO2 SLP024
     T00501006 10100 20050 53001=
KPOV 172355Z AUTO 15003KT 10SM CLR 00/M06 A2985 RMK AO2 T00031061
     PWINO=
KRFD 172354Z 18010KT 10SM FEW200 05/M02 A2953 RMK AO2 SLP006
     T00501022 10122 20050 53009=
KRIC 172354Z 14009KT 10SM FEW300 02/M04 A3014 RMK AO2 SLP211
     T00221044 10089 20022 53005=
KWAL 172354Z AUTO 00000KT 10SM CLR 00/M06 A3018 RMK AO2 SLP218
     T00001061 10078 20000 51013=
KCDR 172353Z AUTO 03017G24KT 10SM OVC055 M03/M08 A2999 RMK AO2
     SLP198 60000 T10331083 10000 21033 51033=
KVTN 172352Z AUTO 35016G28KT 10SM BKN025 OVC031 M04/M09 A2995 RMK
     AO2 PK WND 36033/2301 SLP173 T10441089 10022 21044 53028=
KCLL 172353Z 19007KT 10SM CLR 16/12 A2979 RMK AO2 SLP085 60000
     T01610117 10178 20139 50006=
KFAT 172353Z 00000KT 10SM CLR 18/01 A3017 RMK AO2 SLP215 T01780006
     10178 20094 56013=
KHVR 172353Z AUTO 32007KT 10SM SCT023 BKN090 OVC110 M09/M14 A3030
     RMK AO2 SLP304 60000 T10941139 11078 21094 53009=
KGCC 172353Z AUTO 32015KT 7SM FEW017 BKN024 OVC029 M08/M11 A3003
     RMK AO2 SNE11 SLP209 P0000 60000 T10781106 11039 21078 51017
     $=
KRIW 172353Z AUTO 02021G28KT 1 3/4SM -SN OVC019 M09/M12 A2998 RMK
     AO2 PK WND 02029/2317 SLP206 P0002 60009 T10941122 11044
     21094 53023=
KUIL 172353Z AUTO 27007KT 10SM CLR 07/02 A3044 RMK AO2 SLP309
     T00720017 10094 20017 55002=


037 
SAXX60 KWBC 180000 RRE
METAR
PWAK 172355Z AUTO 11010KT 9SM FEW027 30/23 A2998 RMK AO2 SLP155
     60000 T03010228 10301 20253 58001=
KDMA 172355Z AUTO 27008KT 10SM CLR 16/M09 A3005 RMK AO2 SLP161
     T01601091 10167 20135 55001 $=
KHEY 172355Z AUTO 00000KT 10SM OVC190 13/04 A3000 RMK AO2 SLP162
     T01310037 10184 20130 55003=
KMCF 172355Z 08007KT 10SM SCT055 16/13 A3005 RMK AO2A SLP176 ALSTG
     ESTMD T01560133 53001 FZRANO $=
KNHK 172352Z 16007KT 10SM CLR 03/M05 A3016 RMK AO2 SLP212
     T00331050 10067 20033 51008 $=
KNRS 172353Z 21006KT 10SM CLR A3018 RMK AO2 SLP221 56011 $=
KOZR 172355Z AUTO 00000KT 10SM BKN180 OVC220 13/02 A3001 RMK AO2
     SLP165 T01290019 10187 20129 55008 $=
KRDR 172355Z 36019G26KT 10SM FEW020 FEW028 SCT036 M10/M15 A2998
     RMK AO2A PK WND 34030/2256 SLP172 60000 T10981155 11060 21098
     52052 $=
KSXS 172355Z AUTO 00000KT 10SM OVC180 15/01 A3002 RMK AO2 SLP169
     T01450011 10181 20145 55006=
KT70 172355Z AUTO 08007KT 9SM OVC150 19/08 A2979 RMK AO2 SLP082
     T01880076 10206 20159 55004 $=
PHSF 172355Z AUTO 27012G18KT 10SM FEW013 18/11 A3022 RMK AO2
     SLP136 T01790107 10196 20088 57024 $=
KADW 172355Z AUTO 12007KT 10SM CLR 00/M06 A3010 RMK AO2 SLP203
     T00011061 10061 20001 51004 $=
KBIX 172355Z AUTO 13003KT 10SM OVC042 16/10 A2997 RMK AO2 SLP152
     T01610097 10176 20158 55006=
KFBG 172355Z AUTO 00000KT 10SM CLR 05/M01 A3010 RMK AO2 SLP198
     T00511014 10133 20051 50002 $=
KFRI 172355Z AUTO 35008KT 10SM CLR 05/M01 A2967 RMK AO2 SLP052
     T00521015 10070 20047 52039 $=
KDMA 172355Z AUTO 27008KT 10SM CLR 16/M09 A3005 RMK AO2 SLP161
     T01601091 10167 20135 55001 $=
KGUS 172355Z AUTO 18009KT 10SM FEW180 03/M02 A2966 RMK AO2 SLP054
     T00311018 10053 20028 56016 $=
KLFI 172355Z AUTO 17005KT 10SM CLR 03/M04 A3017 RMK AO2 SLP223
     T00341039 10066 20034 50009 $=
KLRF 172355Z AUTO 19010KT 10SM -RA OVC045 09/03 A2976 RMK AO2
     RAE02DZB02E05RAB35 SLP082 P0001 60001 T00930031 10141 20093
     55012 $=
KMMT 172355Z AUTO 08004KT M M CLR 06/M02 A3007 RMK AO2 SLP188
     T00551017 10153 20055 50001 RVRNO VISNO RWY32 $=
KMXF 172355Z AUTO 17003KT 10SM OVC170 13/00 A2998 RMK AO2 SLP156
     T01300004 10174 20127 55005=
PAFR 172355Z AUTO 00000KT 10SM OVC100 M02/M05 A3024 RMK AO2 SLP247
     T10231051 10038 21047 53004 $=
PGUA 172355Z AUTO 07012KT 10SM SCT017 28/23 A2990 RMK AO2 SLP115
     60000 T02840233 10285 20257 51010 $=
PAFB 172355Z AUTO 00000KT 10SM BKN055 M13/M15 A3017 RMK AO2 SLP240
     T11291155 11129 21190 55000 $=
PAED 172355Z 00000KT 10SM FEW080 BKN100 BKN170 M02/M07 A3024 RMK
     AO2A SLP239 T10201069 11019 21042 51009 $=
PHHI 172355Z AUTO 29011KT 10SM CLR 25/18 A2995 RMK AO2 SLPNO 60008
     T02460178 10247 20186 57019 $=
PMDY 172356Z AUTO 35006KT 10SM OVC020 22/17 A3013 RMK AO2 SLP204
     60001 T02170172 10222 20194 58013=


038 
SAUS70 KWBC 180000 RRR
METAR
KO32 172355Z AUTO 00000KT CLR 16/02 A3014 RMK AO2 T01640018 PWINO
     $=
KONM 172355Z AUTO 33010G19KT 10SM CLR 11/M06 A2991 RMK AO2
     T01141060 10144 20114=
KORS 172355Z AUTO 32006KT 9SM SCT018 06/03 A3048 RMK AO2=
KADC 172355Z AUTO 33021G26KT 10SM SCT024 M10/M14 A2977 RMK AO2=
KAIT 172355Z AUTO 31012G21KT 270V340 7SM -SN BKN028 OVC035 M06/M09
     A2966 RMK AO2=
KCOQ 172355Z AUTO 31015G26KT 7SM -SN OVC032 M04/M11 A2954 RMK AO2
     TSNO=
KCVX 172355Z AUTO 20012G17KT 10SM FEW065 05/M02 A2939 RMK AO2
     10050 20010=
KDDH 172354Z AUTO 00000KT 9SM OVC037 M02/M05 A3003 RMK AO2 SLP180
     60000 T10221050 11011 21028 53005=
KEFK 172355Z AUTO 17005KT 10SM OVC042 M03/M08 A2999 RMK AO2
     T10351079 11025 21036=
KGHG 172355Z AUTO 00000KT 10SM BKN026 BKN034 M05/M08 A3010 RMK
     AO2=
KMGN 172355Z AUTO 23010G18KT 10SM BKN047 OVC055 04/M02 A2941 RMK
     AO2 T00461022=
KOSC 172355Z AUTO 21022G33KT 8SM -RA CLR 02/M03 A2949 RMK AO2 PK
     WND 22029/43 10029 21008=
KROX 172355Z 33018G26KT 7SM M12/M19 A2987 RMK AO2=
KSAZ 172355Z AUTO 34027G34KT 4SM -SN BKN023 OVC030 M08/M12 A2974
     RMK AO2=
KVTA 172354Z AUTO 16005KT 10SM CLR 03/M06 A2987 RMK AO2 SLP122
     T00281056 10050 20022 58015=
KW99 172355Z AUTO 29004KT 10SM CLR M01/M04 A3000 RMK AO2 T10151041
     $=
KY63 172355Z AUTO 34024G33KT 5SM HZ OVC012 M09/M13 A2984 RMK AO2
     60001 T10901130 11009 21090=
KD95 172355Z AUTO 18012G26KT 10SM CLR 03/M03 A2965 RMK AO2
     T00251029 10040 20023=
KDSV 172354Z AUTO 13007KT 10SM CLR 02/M06 A2991 RMK AO2 SLP145
     T00221056 10033 20006 58005=
KEKM 172355Z AUTO 17009KT 10SM CLR 02/M01 A2964 RMK AO2 T00211013
     $=
KHZL 172355Z AUTO 00000KT 10SM CLR M02/M07 A3004 RMK AO2=
KILN 172354Z AUTO 17006KT 10SM CLR 03/M04 A2983 RMK AO2 SLP129
     T00281039 10039 20022 56018=
KLJF 172355Z AUTO 33020G29KT 10SM CLR M07/M12 A2972 RMK AO2=
KLXL 172355Z AUTO 32008G16KT 10SM CLR M06/M11 A2971 RMK AO2=
KMGJ 172354Z AUTO 00000KT 10SM SCT050 M02/M06 A3006 RMK AO2 SLP184
     T10221061 10044 21022 51012=
KMOX 172355Z AUTO 34033G43KT 8SM FEW008 BKN013 OVC020 M09/M12
     A2981 RMK AO2 TSNO=
KOWX 172355Z AUTO 17017KT 10SM CLR 02/M00 A2975 RMK AO2 10035
     20019=
KOZW 172355Z AUTO 17017G21KT 10SM CLR 02/M02 A2964 RMK AO2
     T00171025 10030 20015=
KRGK 172355Z AUTO 33011G16KT 10SM OVC036 01/M07 A2957 RMK AO2=
KTMA 172355Z AUTO 00000KT 10SM OVC220 10/03 A3009 RMK AO2
     T00990025 $=
KUIN 172354Z AUTO 00000KT 10SM OVC065 07/M02 A2957 RMK AO2 SLP017
     T00721017 10094 20067 53006=
KVVV 172355Z AUTO 34022G35KT 5SM -SN SCT013 BKN020 BKN026 M09/M12
     A2988 RMK AO2=
KDXX 172355Z AUTO 35024G32KT 1/2SM SN BKN002 OVC009 M07/M09 A2990
     RMK AO2=
KEVV 172354Z 17005KT 10SM SCT110 09/00 A2977 RMK AO2 SLP084
     T00890000 10117 20078 56010 $=
KIZG 172354Z AUTO 00000KT 10SM CLR M08/M11 A3004 RMK AO2 SLP183
     T10781111 10000 21078 51015=
KOVL 172355Z AUTO 33028G36KT 10SM BKN016 M07/M11 A2976 RMK AO2=
KPJC 172355Z AUTO 00000KT 10SM CLR M03/M05 A2993 RMK AO2=
KPSF 172354Z AUTO 00000KT 10SM OVC036 M02/M05 A3002 RMK AO2 SLP181
     T10171050 11011 21022 53010=
KRNP 172355Z AUTO 18014G23KT 10SM CLR 03/M02 A2960 RMK AO2
     T00281022 10043 20028=
KRVL 172355Z AUTO 00000KT 10SM CLR 00/M06 A3002 RMK AO2=
KS25 172355Z AUTO 32010G20KT 10SM M13/M16 A3019 RMK AO2=
KSPF 172355Z AUTO 31011KT 1 1/2SM -SN SCT005 BKN014 OVC021 M08/M10
     A3004 RMK AO2=
KY70 172355Z AUTO 19015G21KT 10SM CLR 04/M02 A2955 RMK AO2 10041
     20033=
KEVM 172355Z AUTO 33014G28KT 4SM -SN SCT011 BKN020 OVC036 M06/M10
     A2957 RMK AO2 T10571100 10008 21057=


039 
SAUS70 KWBC 180000 RRO
METAR
KAMN 172355Z AUTO 19017G21KT 10SM CLR 02/M02 A2954 RMK AO2 10035
     20016=
KARM 172355Z AUTO 00000KT 10SM CLR 18/15 A2983 RMK AO2 T01770151
     10188 20162 TSNO=
KAUM 172355Z AUTO 32013G28KT 10SM OVC030 M01/M06 A2960 RMK AO2=
KBAX 172355Z AUTO 19018G25KT 10SM CLR 01/M02 A2958 RMK AO2
     T00111020 10023 20003=
KBIJ 172355Z AUTO 00000KT 10SM CLR 10/04 A3005 RMK AO2=
KBJI 172355Z AUTO 34017G23KT 3SM -SN BKN019 BKN026 OVC031 M10/M14
     A2978 RMK AO2 T10981139 11028 21098=
KBPC 172355Z AUTO 10SM CLR 13/M03 A2965 RMK AO2=
KBXA 172355Z AUTO 14006KT 10SM BKN037 BKN046 16/07 A2997 RMK AO2
     T01580072 10200 20158=
KCAD 172355Z AUTO 21011G17KT 10SM CLR 03/M03 A2946 RMK AO2 10041
     20012=
KCBG 172355Z AUTO 31017G26KT 10SM -SN OVC035 M03/M08 A2964 RMK
     AO2=
KCFS 172355Z AUTO 18021G28KT 10SM SCT120 03/M03 A2958 RMK AO2
     T00301028 10040 20022=
KCKN 172355Z AUTO 33027G31KT 1/2SM SN OVC002 M11/M12 A2995 RMK
     AO2=
KCTJ 172355Z AUTO 20003KT 10SM CLR 11/M06 A3005 RMK AO2
     T01081063=
KD39 172355Z AUTO 32021G31KT 7SM CLR M09/M12 A2974 RMK AO2
     T10901124 10011 21090=
KDTA 172355Z AUTO 08005KT 10SM CLR 07/M11 A2994 RMK AO1=
KDUH 172355Z AUTO 18007KT 10SM CLR 02/M03 A2972 RMK AO2 T00151035
     10037 20015=
KDWX 172355Z AUTO 27015G20KT SCT032 BKN038 OVC047 M01/M04 A2984
     RMK AO2 T10101042 10200 21269 PWINO=
KERY 172355Z AUTO 22017G21KT 10SM BKN017 OVC070 03/01 A2935 RMK
     AO2 T00310006 10031 20001=
KFFX 172355Z AUTO 21018G30KT 10SM CLR 05/M02 A2951 RMK AO2
     T00531016 10056 20035=
KFGN 172355Z AUTO 33022G29KT 1 1/2 SM -SN M12/M15 A2981 RMK AO2
     VIS 1V2 1/2=
KFKS 172355Z AUTO 19014G22KT 10SM SCT110 05/00 A2944 RMK AO2
     T00520000 10056 20045=
KHCO 172355Z AUTO 32019G27KT M13/M16 A2998 RMK AO2 PWINO=
KHOE 172355Z AUTO 00000KT 10SM CLR 09/04 A3008 RMK AO2
     T00920043=
KHQZ 172350Z 16012G18KT 10SM CLR 13/07 A2966=
KHZX 172355Z AUTO 32019G25KT 4SM SCT020 BKN028 OVC033 M04/M07
     A2963 RMK AO2=
KI69 172356Z AUTO 16006KT 10SM CLR 05/M03 A2985 RMK AO1 T00461029
     10070 20043=
KJYM 172355Z AUTO 18013G19KT 10SM CLR 01/M03 A2965 RMK AO2 10027
     20007=
KLUD 172355Z AUTO 16009KT 7SM CLR 17/04 A2958 RMK AO2 T01660042
     10192 20125=
KMCD 172355Z AUTO 21010G19KT 10SM BKN026 BKN035 OVC041 03/M01
     A2939 RMK AO2 10038 20002=
KMNH 172355Z AUTO 04010G15KT 10SM BKN011 OVC017 M03/M05 A2982 RMK
     AO2=
KMOP 172355Z AUTO 18008G15KT 10SM CLR 03/M03 A2952 RMK AO2
     T00301031 10044 20016=
KMWM 172355Z AUTO 32029G39KT 10SM CLR M05/M09 A2973 RMK AO2=
KMYP 172356Z AUTO 28029G41KT M1/4SM -SN VV000 M10/M15 A2991 RMK
     AO2 VIS M1/4V2=
KONA 172355Z AUTO 28020G31KT 10SM SCT037 01/M06 A2957 RMK AO2
     TSNO=
KOPN 172355Z AUTO 17006KT 10SM CLR 11/M03 A3006 RMK AO2=
KPNM 172355Z AUTO 32019G27KT 10SM OVC037 M03/M09 A2967 RMK AO2=
KPWC 172355Z AUTO 31013G24KT 10SM OVC034 M07/M12 A2975 RMK AO2=
KPYX 172355Z AUTO 03019G29KT 10SM CLR 10/M01 A2966 RMK AO2
     T01041008 10167 20097=
KRMY 172355Z AUTO 17008KT 10SM CLR 02/M03 A2963 RMK AO2 T00151029
     10041 20014=
KRQB 172355Z AUTO 20007G14KT 170V240 10SM CLR 04/M02 A2951 RMK AO2
     T00421025 10055 20037=
KRRT 172355Z AUTO 30018G23KT 10SM SCT031 M13/M18 A2984 RMK AO2=
KSBO 172355Z AUTO 00000KT 10SM CLR 10/M01 A3008 RMK AO2=
KSGS 172355Z AUTO 30016G21KT 7SM OVC037 M01/M07 A2962 RMK AO2
     T10081075 10036 21008=
KSJX 172355Z AUTO 22014G22KT 10SM OVC065 04/01 A2937 RMK AO2 PK
     WND 23028/15 10044 20018=
KT82 172355Z AUTO 20009G14KT 10SM CLR 15/07 A2980 RMK AO2
     T01450068 10170 20117=


040 
SAXX60 KWBC 180000 CCA
METAR
PHBK 172351Z AUTO 36015KT 10SM FEW017 24/17 A2993 RMK AO2 PK WND
     01026/2254 SLP136 T02440167 10250 20206 58016=
PHBK 172351Z AUTO 36015KT 10SM FEW017 24/17 A2993 RMK AO2 PK WND
     01026/2254 SLP136 T02440167 10250 20206 58016=
KNJK 172356Z 06006KT 10SM CLR 22/M03 A3005 RMK AO2 SLP191
     T02221028 10228 20178 55006 $=


041 
SAUS70 KWBC 180000 RRM
METAR
KRHI 172353Z AUTO 26010KT 10SM FEW026 OVC037 01/M04 A2938 RMK AO2
     SLP966 T00061039 10017 20006 53016=
KRYM 172355Z AUTO 33015G27KT 8SM -SN BKN023 OVC029 M06/M10 A2969
     RMK AO2 PK WND 33031/01 SLP075 P0000 60000 T10631104 10025
     21063 52064 $=
KSEG 172353Z AUTO 00000KT 10SM CLR M03/M05 A3005 RMK AO2 SLP182
     T10281050 10033 21033 53000=
KTTN 172353Z 00000KT 10SM CLR 01/M06 A3011 RMK AO2 SLP192
     T00061061 10056 20006 51011=
KVGC 172355Z AUTO 15009KT 10SM OVC034 00/M05 A2995 RMK AO2=
KYIP 172353Z 17013KT 10SM CLR 02/M03 A2972 RMK AO2 SLP068
     T00171028 10044 20017 58015=
KEMT 172345Z 19007KT 10SM SCT050 16/06 A3015=
KIDA 172353Z 00000KT 7SM BKN075 M03/M06 A3003 RMK AO2 SLP214 60000
     T10331061 11022 21050 53016=
KJER 172353Z AUTO 28024G31KT 10SM CLR 01/M09 A3006 RMK AO2 PK WND
     27036/2311 SLP206 T00061089 10028 21006 53012=
KLOL 172353Z AUTO 04010KT 10SM CLR 08/M04 A3011 RMK AO2 WSHFT 2323
     SLP218 T00831039 10111 20000 53003=
KMFE 172353Z 14009KT 10SM CLR 23/16 A2985 RMK AO2 SLP106 T02280161
     10256 20206 55006=
KMLP 172353Z AUTO 35003KT 2 1/2SM -SN BR OVC001 M08/M11 A3007 RMK
     AO2 VIS 1V4 SLP251 P0000 60000 T10831106 11067 21083
     52006=
KMMV 172353Z AUTO A3041 RMK AO2 SLPNO 56003 PWINO FZRANO=
KODO 172353Z AUTO 27020G34KT 4SM HZ OVC033 16/M06 A2980 RMK AO2 PK
     WND 26045/2318 SLP066 T01611061 10183 20161 53013=
KOLF 172353Z AUTO 32013KT 10SM BKN026 M10/M16 A3026 RMK AO2 SLP280
     T11001161 11072 21100 51017=
KRNT 172353Z 03005KT 10SM OVC037 07/01 A3046 RMK AO2 SLP318
     T00670011 10072 20044 53002=
KUTS 172353Z AUTO 20007KT 10SM OVC030 17/12 A2979 RMK AO2 SLP087
     T01670122 10172 20139 51015=
KVEL 172353Z AUTO 13003KT 10SM CLR 03/M12 A2983 RMK AO2 SLP130
     T00281117 10044 21011 55004=
KVUO 172353Z AUTO VRB03KT 10SM OVC015 04/00 A3044 RMK AO2 SLP309
     T00390000 10044 20033 55001=
KWRL 172353Z AUTO 32009G16KT 10SM OVC075 M07/M13 A3007 RMK AO2
     SLP235 T10721128 11044 21072 51022=
KDTO 172353Z 15009KT 10SM FEW080 15/05 A2961 RMK AO2 SLP023 60000
     T01500050 10183 20128 56013=
KIPL 172353Z AUTO 09007KT 10SM CLR 21/00 A3003 RMK AO2 SLP170
     T02110000 10228 20172 55006=
KLVK 172353Z AUTO 29008KT 10SM CLR 13/ A3018 RMK AO2 SLP220 T0133
     10144 20072=
KPDT 172353Z 31004KT 10SM CLR 05/M03 A3035 RMK AO2 SLP282 60000
     T00501033 10056 20017 53001=
KRWL 172353Z AUTO 01008KT 3SM -SN OVC024 M08/M11 A2986 RMK AO2
     SLP147 P0001 60003 T10781106 11011 21078 51018=
KTIW 172353Z 02006KT 10SM CLR 07/02 A3045 RMK AO2 SLP314 60001
     T00670022 10072 20039 53000 $=
KTOR 172353Z AUTO 36020G33KT 10SM OVC085 M05/M10 A2995 RMK AO2 PK
     WND 36033/2346 UPB05E13 SLP160 P0000 60000 T10501100 11006
     21050 53025 FZRANO $=
KTVL 172353Z AUTO 00000KT 10SM CLR 06/M06 A3015 RMK AO2 SLP213
     T00611061 10083 20017 53002=
KVGT 172353Z 14005KT 10SM CLR 16/M03 A2999 RMK AO2 SLP174
     T01561033 10156 20083 56011=
KDET 172353Z 18013G21KT 10SM CLR 03/M03 A2973 RMK AO2 SLP072
     T00281033 10039 20028 56016=
KDTW 172353Z 17013KT 10SM FEW140 SCT230 02/M03 A2973 RMK AO2
     SLP075 T00171033 10033 20017 58016=
KFOK 172353Z 00000KT 10SM CLR M06/M08 A3014 RMK AO2 SLP209 6////
     T10561078 10044 21061 53013=
KIML 172353Z AUTO 36016KT 10SM OVC070 01/M07 A2986 RMK AO2 PK WND
     01034/2305 SLP126 T00061067 10094 20006 53020 TSNO=
KLPR 172353Z AUTO 19016KT 10SM CLR 02/M06 A2981 RMK AO2 SLP102
     T00221056 10033 20022 56020 PWINO FZRANO $=
KMPO 172353Z AUTO 18004KT 10SM SCT031 M03/M07 A3000 RMK AO2 SLP186
     T10281072 11017 21028 50005=


042 
SAXX60 KWBC 180000 RRD
METAR
KMMT 172355Z AUTO 08004KT M M CLR 06/M02 A3007 RMK AO2 SLP188
     T00551017 10153 20055 50001 RVRNO VISNO RWY32 $=
KMUO 172355Z 29020KT 10SM FEW049 03/M09 A3014 RMK AO2A PK WND
     31029/12 SLP225 T00301093 10047 20022 53012 FZRANO $=
KMXF 172355Z AUTO 17003KT 10SM OVC170 13/00 A2998 RMK AO2 SLP156
     T01300004 10174 20127 55005=
KNKT 172356Z 11003KT 7SM CLR 04/M02 A3020 RMK SLP223 T00441017=
KPAM 172355Z 17007KT 10SM FEW220 11/06 A3004 RMK AO2A SLP176
     T01100059 10178 20110 58003=
KPOB 172355Z AUTO 00000KT 10SM CLR 04/M03 A3011 RMK AO2 SLP201
     T00401031 10133 20040 50003 $=
KRCA 172355Z AUTO 35020G26KT 6SM -SN FEW008 BKN015 BKN026 OVC060
     M05/M09 A2998 RMK AO2 PK WND 34031/21 SNB10 CIG 015V025
     BKN015 V SCT CIG 014 RWY13 SLP184 P0000 60000 T10541093 11006
     21056 52032 $=
KRIV 172355Z AUTO 32008KT 10SM CLR 14/03 A3013 RMK AO2 SLP203
     T01370032 10147 20083 56014=
KSKA 172355Z AUTO 15004KT 10SM CLR M01/M04 A3026 RMK AO2 SLP274
     T10071039 10005 21023 53004 $=
KSKF 172355Z AUTO 00000KT 10SM BKN160 15/09 A2979 RMK AO2 SLP087
     T01450091 10162 20134 57004 $=
KSSC 172355Z AUTO 00000KT 10SM CLR 07/M02 A3008 RMK AO2 SLP189
     T00691025 10148 20069 50002 $=
KSZL 172355Z AUTO 31004KT 10SM BKN060 10/00 A2955 RMK AO2 SLP012
     T00960000 10113 20078 52016 VISNO RWY01 CHINO RWY01 $=
KTCM 172355Z AUTO M M M M M M RMK AO2 SLPNO 10072 20030 RVRNO
     $=
KVBG 172355Z AUTO 34009KT 6SM HZ CLR 12/08 A3020 RMK AO2 SLP231
     T01190078 10154 20111 56011 TSNO $=
KVOK 172355Z AUTO 26011KT 10SM OVC100 04/M03 A2946 RMK AO2 SLP987
     T00381035 10086 20038 52018 $=
KVPS 172355Z AUTO 14007KT 10SM BKN210 14/05 A3003 RMK AO2 SLP176
     60000 T01420053 10175 20133 57009 $=
KGTB 172355Z AUTO 18012KT 10SM BKN036 OVC130 M00/M04 A2988 RMK AO2
     SLP126 T10021043 10001 21011 58009=
KPAM 172355Z 17007KT 10SM FEW220 11/06 A3004 RMK AO2A SLP176
     T01100059 10178 20110 58003=
KSSC 172355Z AUTO 00000KT 10SM CLR 07/M02 A3008 RMK AO2 SLP189
     T00691025 10148 20069 50002 $=
KNJK 172356Z 06006KT 10SM CLR 22/M03 A3005 RMK AO2 SLP191
     T02221028 10228 20178 55006 $=
K1AW 172355Z AUTO 01023G27KT 6SM -SN BKN060 OVC075 M05/M08 A2986
     RMK AO2 PK WND 01027/52 SNB19 SLP134 P0000 60000 T10511080
     11007 21051 52015 $=
KT70 172355Z AUTO 08007KT 9SM OVC150 19/08 A2979 RMK AO2 SLP082
     T01880076 10206 20159 55004 $=
KMRT 172355Z AUTO 19012G16KT 10SM CLR 02/M04 A2983 RMK AO2
     T00151040 10021 20008=
KRDR 172355Z 36019G26KT 10SM FEW020 FEW028 SCT036 M10/M15 A2998
     RMK AO2A PK WND 34030/2256 SLP172 60000 T10981155 11060 21098
     52052 $=
KNRS 172353Z 21006KT 10SM CLR A3018 RMK AO2 SLP221 56011 $=
KFZY 172354Z AUTO 00000KT 10SM BKN045 00/M04 A2995 RMK AO2 SLP146
     T00001039 10017 21011 55006=
KNHK 172352Z 16007KT 10SM CLR 03/M05 A3016 RMK AO2 SLP212
     T00331050 10067 20033 51008 $=
KHLR 172355Z AUTO 19012G21KT 8SM OVC210 16/10 A2971 RMK AO2 SLP058
     T01640098 10192 20145 55009=
PGUA 172355Z AUTO 07012KT 10SM SCT017 28/23 A2990 RMK AO2 SLP115
     60000 T02840233 10285 20257 51010 $=
PHBK 172351Z AUTO 36015KT 10SM FEW017 24/17 A2993 RMK AO2 PK WND
     01026/2254 SLP136 T02440167 10250 20206 58016=
PHBK 172351Z AUTO 36015KT 10SM FEW017 24/17 A2993 RMK AO2 PK WND
     01026/2254 SLP136 T02440167 10250 20206 58016=
PHHI 172355Z AUTO 29011KT 10SM CLR 25/18 A2995 RMK AO2 SLPNO 60008
     T02460178 10247 20186 57019 $=
PHSF 172355Z AUTO 27012G18KT 10SM FEW013 18/11 A3022 RMK AO2
     SLP136 T01790107 10196 20088 57024 $=


043 
SAUS70 KWBC 180000 RRK
METAR
KGEY 172353Z AUTO 32030G39KT 10SM CLR M07/M13 A3005 RMK AO2 PK WND
     32044/2336 SLP229 T10671133 11028 21067 53023=
KHIO 172353Z 08006KT 10SM BKN021 04/01 A3041 RMK AO2 SLP301
     T00440011 10056 20011 55002=
KHLN 172353Z 33007KT 10SM FEW055 OVC110 M08/M14 A3024 RMK AO2
     SLP305 T10831139 11067 21083 53003=
KIAH 172353Z VRB03KT 10SM FEW035 FEW110 OVC170 19/13 A2980 RMK AO2
     SLP092 60000 T01890133 10194 20172 55023=
KMYV 172353Z AUTO 10SM CLR 14/03 A3018 RMK AO2 SLP224 T01440033
     10150 20106 55007 $=
KONT 172353Z 24005KT 10SM BKN045 14/04 A3014 RMK AO2 SLP208
     T01440039 10150 20100 56015=
KPIL 172353Z AUTO 17009KT 10SM CLR 21/17 A2986 RMK AO2 SLP110
     60000 T02110172 10239 20211 53002=
KPUC 172353Z AUTO 17004KT 10SM CLR 03/M10 A2987 RMK AO2 SLP156
     T00331100 10044 21006 55007=
KSHR 172353Z AUTO 33017KT 4SM HZ OVC034 M08/M11 A3012 RMK AO2
     SLP247 60000 T10781111 11044 21078 51018=
KBOI 172353Z 30016G22KT 10SM SCT055 03/M08 A3018 RMK AO2 PK WND
     31027/2310 SLP239 T00331083 10050 20006 53014=
KBUR 172353Z 19007KT 10SM CLR 14/06 A3014 RMK AO2 SLP199 T01390061
     10161 20111 56015=
KDFW 172353Z 17009KT 10SM FEW110 SCT250 15/05 A2961 RMK AO2 SLP025
     T01500050 10172 20128 56011=
KHOU 172353Z 18011KT 10SM SCT100 OVC170 18/14 A2980 RMK AO2 SLP095
     T01830139 10200 20178 55026=
KMAF 172353Z 28024G34KT 4SM BLDU OVC037 16/M03 A2978 RMK AO2 PK
     WND 29042/2323 SLP063 T01561033 10178 20156 53011=
KMFR 172353Z 00000KT 8SM CLR 04/02 A3028 RMK AO2 SLP263 I6002
     T00390017 10050 21006 55007=
KMOD 172353Z 34004KT 10SM CLR 16/03 A3017 RMK AO2 SLP216 T01560028
     10161 20078 55009=
KMTJ 172353Z AUTO 35005KT 10SM CLR 02/M12 A2988 RMK AO2 SLP137
     T00221117 10039 21022 53003=
KMYF 172353Z 23007KT 10SM CLR 14/07 A3017 RMK AO2 SLP216 T01390067
     10156 20128 56010 $=
KRIL 172353Z AUTO 13005KT 10SM BKN075 01/M09 A2986 RMK AO2 SLP147
     T00061089 10006 21061 55006=
KSBA 172353Z 12007KT 10SM CLR 14/10 A3014 RMK AO2 SLP205 T01440100
     10161 20144 56021 $=
KSJC 172353Z 33008KT 10SM CLR 14/07 A3020 RMK AO2 SLP225 T01440072
     10167 20100 56009=
KFHR 172353Z AUTO VRB04KT 10SM CLR 10/01 A3048 RMK AO2 SLP320
     T01000006 10122 20089 55002=
KGKY 172353Z 16013G20KT 10SM SCT065 16/06 A2963 RMK AO2 SLP031
     T01560056 10183 20128 56012=
KLAR 172353Z AUTO 06013KT 3/4SM -SN BR VV010 M08/M11 A2979 RMK AO2
     SLP112 P0001 60009 T10831106 10006 21083 53012=
KLFK 172353Z AUTO 20004KT 10SM OVC031 14/11 A2981 RMK AO2 SLP093
     60000 T01440106 10144 20133 55003=
KOGD 172353Z 35014G24KT 10SM FEW060 OVC080 02/M05 A3000 RMK AO2
     WSHFT 2311 SLP171 T00171050 10061 20011 53011=
KPIH 172353Z 26006KT 10SM FEW005 BKN040 BKN075 M03/M05 A3005 RMK
     AO2 SLP213 60010 T10331050 11022 21033 53013=
KPSX 172353Z AUTO 17010KT 10SM CLR 17/16 A2979 RMK AO2 SLP087
     T01720156 10206 20172 55032=
KSAC 172353Z AUTO VRB03KT 10SM CLR 14/07 A3018 RMK AO2 SLP220
     T01390067 10144 20072 56009=
KSNS 172353Z 31007KT 10SM SCT025 12/07 A3021 RMK AO2 SLP239
     T01220072 10139 20072 55009=
KSSF 172353Z 31003KT 10SM CLR 16/09 A2981 RMK AO2 SLP095 60000
     T01560094 10167 20133 55000=
KTRL 172353Z AUTO 19012KT 10SM CLR 14/08 A2967 RMK AO2 SLP047
     T01390078 10150 20111 55013=
KAMW 172353Z AUTO 34015KT 10SM CLR 05/M03 A2964 RMK AO2 SLP041
     T00501028 10089 20044 51031=
KBGM 172353Z AUTO 20007KT 10SM OVC029 M01/M06 A2994 RMK AO2 SLP158
     T10111061 11011 21017 58001=
KDKK 172353Z AUTO 19020G31KT 10SM FEW120 02/M04 A2985 RMK AO2 PK
     WND 20031/2352 SLP114 T00221044 10028 20022 58015=


044 
SAUS70 KWBC 180000 RRL
METAR
KFCM 172353Z 32016G23KT 10SM FEW033 M03/M09 A2964 RMK AO2 PK WND
     33035/2327 SLP045 T10281089 10044 21028 53045=
KGKJ 172353Z AUTO VRB06KT 10SM CLR 01/M06 A2985 RMK AO2 SLP122
     T00061061 10017 20006 58011=
KGRI 172353Z 34023G39KT 10SM BKN036 OVC110 02/M05 A2981 RMK AO2 PK
     WND 34039/2346 SLP114 T00171050 10094 20017 52043=
KHEI 172353Z AUTO 33020G27KT OVC019 M11/M15 A3008 RMK AO2 PK WND
     33028/2340 SNB01E24 SLP224 P0000 60000 T11111150 11056 21111
     51048=
KHVN 172353Z 00000KT 8SM FEW060 02/M02 A3011 RMK AO2 SLP195
     T00221022 10033 21028 53009=
KHZY 172353Z AUTO 18010G19KT 10SM CLR 02/M05 A2983 RMK AO2 SLP109
     T00221050 10033 20022 58016=
KICR 172353Z AUTO 34015G30KT 10SM OVC032 M03/M08 A2996 RMK AO2 PK
     WND 33033/2319 SLP166 T10331083 10028 21033 51039=
KLNS 172353Z 19005KT 10SM CLR 01/M06 A3009 RMK AO2 SLP195
     T00111061 10061 20011 51010=
KMBS 172353Z 19017G29KT 10SM CLR 03/M03 A2955 RMK AO2 PK WND
     18031/2300 SLP015 T00281033 10039 20022 58020=
KSNY 172353Z AUTO 01015G23KT 10SM FEW013 SCT026 OVC033 M02/M07
     A2987 RMK AO2 PK WND 35028/2326 UPB29E31SNB31E40 SLP139 P0000
     60000 T10221067 10006 21022 53016=
KTVC 172353Z 21010G17KT 10SM SCT100 OVC150 06/M02 A2942 RMK AO2
     SLP969 T00561022 10067 20028 51005=
KCXO 172353Z 21004KT 10SM OVC028 17/12 A2982 RMK AO2 SLP097 60000
     T01720122 10178 20161 55012=
KDLS 172353Z AUTO 32003KT 10SM CLR 08/M01 A3038 RMK AO2 SLP288
     T00831011 10094 20033 53000=
KDVT 172353Z 24009KT 10SM CLR 16/M04 A3005 RMK AO2 SLP167
     T01611044 10167 20133 55006=
KEVW 172353Z AUTO 31019G26KT 9SM FEW011 BKN044 OVC060 M05/M08
     A2989 RMK AO2 PK WND 28026/2259 SNB19E28 SLP150 P0000 60000
     T10501083 10006 21050 53012=
KGJT 172353Z 29005KT 10SM CLR 03/M12 A2988 RMK AO2 SLP139
     T00281122 10061 21017 55008=
KMCE 172353Z AUTO 32004KT 10SM CLR 18/01 A3016 RMK AO2 SLP213
     T01780011 10183 20100 56011=
KPSP 172353Z 33005KT 10SM CLR 20/M01 A3006 RMK AO2 SLP180
     T02001011 10211 20161 56007=
KRDD 172353Z 00000KT 10SM CLR 16/02 A3017 RMK AO2 SLP216 T01560017
     10161 20089 55006=
KSGR 172353Z 18010KT 10SM CLR 18/14 A2980 RMK AO2 SLP092 60000
     T01830139 10200 20183 55024=
KTKI 172353Z 17014KT 10SM CLR 13/06 A2964 RMK AO2 SLP044 60000
     T01330061 10156 20122 56010=
KBRO 172353Z 17007KT 10SM CLR 22/17 A2985 RMK AO2 SLP106 T02170172
     10256 20217 58001=
KFLL 172353Z 11013KT 10SM OVC049 21/17 A3003 RMK AO2 RAB06E53
     SLP169 P0000 60018 T02060167 10206 20189 58004=
KJFK 172351Z 22009KT 10SM SCT050 SCT250 03/M04 A3013 RMK AO2
     SLP202 T00281039 10067 20017 51016=
KMCO 172353Z 09005KT 10SM FEW035 FEW080 16/08 A3011=
KPBI 172353Z 12011KT 10SM SCT030 OVC065 21/17 A3006 RMK AO2
     RAB04E13 SLP179 P0000 60009 T02060172 10211 20189 58005 $=
TIST 172353Z AUTO 09011KT 6SM -RA BR FEW021 SCT035 OVC045 24/23
     A3009 RMK AO2 WSHFT 2321 RAB37 SLP191 P0002 60003 T02390228
     10300 20239 53018=
KELM 172353Z 19004KT 10SM BKN037 01/M06 A2995 RMK AO2 SLP152
     T00061056 10028 20006 58005=
KHYR 172353Z AUTO 30009G19KT 280V340 10SM OVC034 M01/M07 A2948 RMK
     AO2 SLP997 T10061072 10022 21006 53039=
KMCK 172353Z AUTO 36021KT 10SM OVC070 03/M06 A2984 RMK AO2 PK WND
     36031/2315 SLP124 T00331061 10117 20033 51034=
KMHE 172353Z AUTO 35023G35KT 10SM BKN030 M04/M10 A2993 RMK AO2 PK
     WND 36036/2328 SLP154 T10391100 10039 21039 53044=
KMTO 172353Z AUTO 16011KT BKN110 06/M01 A2966 RMK AO2 SLP050
     T00561006 10061 20056 58004 $=


045 
SAUS70 KWBC 180000 RRX
METAR
PARC 172356Z AUTO 01004KT 9SM CLR M30/M33 A3021 RMK AO2 SLP353
     T13001328 11300 21344 58016 FZRANO TSNO=
PARS 172356Z AUTO 00000KT 10SM BKN044 OVC055 03/01 A2964 RMK AO2
     RAE07 SLP040 6//// T00280011 10028 21011 51013 PNO $=
PARY 172356Z AUTO 08020G29KT 1/2SM SN FEW008 OVC012 M13/M16 A3001
     RMK AO2 PK WND 08029/2354 SLP182 P0000 60000 T11281156 11128
     21150 58005 FZRANO TSNO=
PASA 172356Z AUTO 05008KT 5SM -SN BR OVC010 M03/M04 A2935 RMK AO2
     SLP941 P0000 60000 T10331039 11033 21067 58007 FZRANO=
PASD 172356Z 14013G24KT 080V160 6SM -RA BR SCT018 BKN023 OVC030
     07/04 A2935 RMK AO2 PK WND 14026/2338 SLP942 6//// T00670044
     10067 20050 58046 PNO $=
PASK 172356Z AUTO 07021KT 1/2SM -SN FZFG OVC015 M09/M11 A2992 RMK
     AO2 PK WND 07028/2306 SLP128 P0000 60000 T10941106 11094
     21117 56007 FZRANO=
PASL 172356Z AUTO 00000KT 10SM OVC043 M01/M02 A2988 RMK AO2 SLP110
     60005 T10061017 10000 21078 53005 FZRANO=
PASM 172356Z AUTO 14016G25KT 10SM OVC018 03/01 A2957 RMK AO2 RAE28
     SLP022 P0000 60004 T00330011 10033 21022 53012=
PASX 172356Z AUTO 00000KT 10SM SCT065 M01/M02 A3018 RMK AO2 SLP227
     60000 T10061017 11006 21033 53002 FZRANO TSNO=
PATE 172356Z AUTO 13017KT 10SM OVC029 M02/M03 A2950 RMK AO2 SNE44
     SLP995 P0000 60000 T10171028 11017 21061 53000 FZRANO
     TSNO=
PATG 172356Z AUTO 10SM OVC100 03/02 A2962 RMK AO2 SLP030 T00330017
     10039 20022 58001=
PATQ 172356Z AUTO 09016KT 10SM CLR A3001 RMK AO2 SLPNO 60000 58030
     FZRANO TSNO $=
PAUN 172356Z AUTO 08033G38KT 10SM BKN100 OVC110 M05/M08 A2974 RMK
     AO2 PK WND 08040/2330 UPB2259E11SNE2257 SLP075 P0000 60000
     T10501083 11050 21089 50011 FZRANO=
PAVD 172356Z 00000KT 8SM -SN BR SCT032 BKN045 OVC055 M02/M04 A3054
     RMK AO2 SLP342 P0000 60000 T10221044 11022 21039 58002 $=
PAWG 172356Z 21003KT 10SM FEW010 OVC040 01/M01 A3063 RMK AO2
     SLP371 T00061006 10017 21006 53003 $=
PAWN 172356Z AUTO 8SM -SN OVC023 M06/M08 A2978 RMK AO2 SLP097
     P0000 60000 T10611083 11061 21100 58022 FZRANO $=
PAWS 172356Z AUTO 07010G14KT 10SM OVC085 02/M08 A3026 RMK AO2
     SLP252 T00171078 10017 21017 53003 FZRANO=
PFCL 172356Z AUTO 13020G27KT 10SM SCT007 04/04 A2970 RMK AO2 PK
     WND 13031/2340 SLP050 T00390039 10039 20028 51001=
KNSE 172356Z 13004KT 10SM SCT060 BKN150 BKN250 13/06 A3003 RMK AO2
     SLP157 T01330061 10183 20122 58008 $=


046 
SAPQ50 KWBC 180000
METAR
PGSN 172354Z AUTO 09013KT 10SM CLR 29/23 A2990 RMK AO2 SLP145
     T02940233 10300 20256 50007 TSNO $=
PTSA 172354Z 09011KT 10SM BKN022TCU BKN130 OVC300 30/24 A2978 RMK
     TCU NE-SW=
PGSN 172354Z AUTO 09013KT 10SM CLR 29/23 A2990 RMK AO2 SLP145
     T02940233 10300 20256 50007 TSNO $=
PTPN 172351Z 08007KT 15SM SCT018 BKN300 30/26 A2982=
PTRO 172350Z 07007G15KT 14SM SCT016TCU BKN130 BKN310 29/25 A2981
     RMK HZ ALQDS TCU ALQDS=
PTSA 172354Z 09011KT 10SM BKN022TCU BKN130 OVC300 30/24 A2978 RMK
     TCU NE-SW=
PGSN 172354Z AUTO 09013KT 10SM CLR 29/23 A2990 RMK AO2 SLP145
     T02940233 10300 20256 50007 TSNO $=
PTPN 172351Z 08007KT 15SM SCT018 BKN300 30/26 A2982=


047 
SAXX60 KWBC 180000 RRA
METAR
KFCS 172355Z AUTO 05012KT 10SM CLR 01/M06 A2979 RMK AO2 SLP110
     T00121062 10099 20012 52029 $=
K1GW 172355Z AUTO 36011KT 9SM -SN FEW009 SCT027 OVC038 M03/M04 M
     RMK AO2 SLPNO P0000 60000 T10271043 10014 21027 $=
KDTS 172353Z 14010KT 10SM CLR 16/07 A3004 RMK AO2 SLP170 T01610072
     10172 20156 55009=
KFHU 172355Z AUTO 26012KT 10SM CLR 12/M06 A3009 RMK AO2 SLP176
     T01231062 10136 20106 53002=
KGRK 172355Z AUTO 17012KT 8SM OVC200 17/11 A2973 RMK AO2 SLP065
     60000 T01710105 10204 20137 55006=
KLSF 172355Z AUTO 15003KT 10SM CLR 12/01 A3001 RMK AO2 SLP169
     T01150009 10181 20108 53001 RVRNO VISNO RWY33 $=
KPAM 172355Z 17007KT 10SM FEW220 11/06 A3004 RMK AO2A SLP176
     T01100059 10178 20110 58003=
KPOB 172355Z AUTO 00000KT 10SM CLR 04/M03 A3011 RMK AO2 SLP201
     T00401031 10133 20040 50003 $=
K1JW 172355Z AUTO 35016KT 10SM FEW022 OVC033 M02/M05 A2983 RMK AO2
     SLP116 60000 T10251055 10025 21025 52019 $=
K9L2 172355Z AUTO 25013KT 7SM CLR 18/M08 A3004 RMK AO2 SLP175
     T01771077 10197 20111 55004=
KABH 172355Z AUTO 05014KT 10SM SCT100 M01/M06 A2981 RMK AO2 PK WND
     05026/00 SLP129 T10061056 10120 21006 53020=
KHIF 172355Z AUTO 33015KT 10SM SCT050 BKN075 00/M05 A3000 RMK AO2
     SLP170 T00001054 10027 21011 53009=
KMUO 172355Z 29020KT 10SM FEW049 03/M09 A3014 RMK AO2A PK WND
     31029/12 SLP225 T00301093 10047 20022 53012 FZRANO $=
KTCM 172355Z AUTO M M M M M M RMK AO2 SLPNO 10072 20030 RVRNO
     $=
KVBG 172355Z AUTO 34009KT 6SM HZ CLR 12/08 A3020 RMK AO2 SLP231
     T01190078 10154 20111 56011 TSNO $=
KABH 172355Z AUTO 05014KT 10SM SCT100 M01/M06 A2981 RMK AO2 PK WND
     05026/00 SLP129 T10061056 10120 21006 53020=
KDOV 172355Z AUTO 16003KT 10SM CLR 01/M06 A3014 RMK AO2 SLP210
     T00051057 10065 20004 50011=
KGRF 172355Z 33005KT 10SM FEW037 06/01 A3042 RMK AO2A SLP307
     T00560008 10066 20024 58001 $=
KGSB 172355Z 17006KT 10SM CLR 07/M02 A3013 RMK AO2A SLP207
     T00741016 10127 20057 52009 $=
KINS 172355Z AUTO 25013KT 10SM CLR 15/M11 A3000 RMK AO2 SLP153
     T01471109 10156 20047 55004 $=
KMXF 172355Z AUTO 17003KT 10SM OVC170 13/00 A2998 RMK AO2 SLP156
     T01300004 10174 20127 55005=
KSKA 172355Z AUTO 15004KT 10SM CLR M01/M04 A3026 RMK AO2 SLP274
     T10071039 10005 21023 53004 $=
PGUA 172355Z AUTO 07012KT 10SM SCT017 28/23 A2990 RMK AO2 SLP115
     60000 T02840233 10285 20257 51010 $=
KADW 172355Z AUTO 12007KT 10SM CLR 00/M06 A3010 RMK AO2 SLP203
     T00011061 10061 20001 51004 $=
KBIX 172355Z AUTO 13003KT 10SM OVC042 16/10 A2997 RMK AO2 SLP152
     T01610097 10176 20158 55006=
KFBG 172355Z AUTO 00000KT 10SM CLR 05/M01 A3010 RMK AO2 SLP198
     T00511014 10133 20051 50002 $=
KFCS 172355Z AUTO 05012KT 10SM CLR 01/M06 A2979 RMK AO2 SLP110
     T00121062 10099 20012 52029 $=
KFHU 172355Z AUTO 26012KT 10SM CLR 12/M06 A3009 RMK AO2 SLP176
     T01231062 10136 20106 53002=
KFRI 172355Z AUTO 35008KT 10SM CLR 05/M01 A2967 RMK AO2 SLP052
     T00521015 10070 20047 52039 $=
KGRK 172355Z AUTO 17012KT 8SM OVC200 17/11 A2973 RMK AO2 SLP065
     60000 T01710105 10204 20137 55006=
KGUS 172355Z AUTO 18009KT 10SM FEW180 03/M02 A2966 RMK AO2 SLP054
     T00311018 10053 20028 56016 $=
KHLR 172355Z AUTO 19012G21KT 8SM OVC210 16/10 A2971 RMK AO2 SLP058
     T01640098 10192 20145 55009=
KLFI 172355Z AUTO 17005KT 10SM CLR 03/M04 A3017 RMK AO2 SLP223
     T00341039 10066 20034 50009 $=
KLSF 172355Z AUTO 15003KT 10SM CLR 12/01 A3001 RMK AO2 SLP169
     T01150009 10181 20108 53001 RVRNO VISNO RWY33 $=
KLTS 172355Z 29009KT 10SM CLR 18/M03 A2947 RMK AO2A SLP978
     T01791035 10236 20128 53011 $=


048 
SAUS70 KWBC 180000 RRJ
METAR
KULM 172355Z AUTO 32027G36KT 10SM CLR M06/M11 A2972 RMK AO2=
KUOX 172355Z AUTO 17007G13KT 140V200 10SM FEW033 BKN060 OVC070
     11/M00 A2989 RMK AO2 PWINO=
KUTA 172355Z AUTO 18010KT 9SM -RA OVC075 10/05 A2984 RMK AO2 P0000
     T00970050 $=
KUXL 172355Z AUTO 13008KT 10SM CLR A2985 RMK AO2 PWINO=
KUZA 172354Z AUTO 00000KT 10SM CLR 04/M03 A3009 RMK AO2 SLP198
     T00441033 10128 20039 53004=
KVAY 172354Z AUTO 19003KT 10SM CLR M03/M08 A3014 RMK AO2 SLP206
     T10281083 10061 21028 51017=
KVCB 172353Z AUTO 22006KT 10SM CLR 15/07 A3018 RMK AO2 SLP220
     T01500067 10161 20094 55007=
KVJI 172355Z AUTO 10004KT 10SM CLR 05/M05 A2997 RMK AO2 T00541050
     10099 20054=
KVLL 172355Z AUTO 19013G17KT 10SM CLR 02/M03 A2970 RMK AO2 10041
     20016=
KVNC 172355Z AUTO 07006G22KT 10SM BKN037 OVC042 A3006 RMK AO2=
KVSF 172354Z AUTO 00000KT 10SM OVC047 M01/M07 A3004 RMK AO2 SLP182
     T10061067 10017 21011 51011=
KVTA 172354Z AUTO 16005KT 10SM CLR 03/M06 A2987 RMK AO2 SLP122
     T00281056 10050 20022 58015=
KVVV 172355Z AUTO 34022G35KT 5SM -SN SCT013 BKN020 BKN026 M09/M12
     A2988 RMK AO2=
KW78 172355Z AUTO 11004KT 10SM CLR 03/M06 A3010 RMK AO1 T00281057
     10105 20020=
KW99 172355Z AUTO 29004KT 10SM CLR M01/M04 A3000 RMK AO2 T10151041
     $=
KX60 172355Z AUTO 09003KT 10SM OVC046 15/04 A3008 RMK AO2
     T01490043 10202 20133 402021003=
KXSA 172355Z AUTO 00000KT 10SM CLR 02/M04 A3016 RMK AO2 T00151045
     10076 20014=
KY63 172355Z AUTO 34024G33KT 5SM HZ OVC012 M09/M13 A2984 RMK AO2
     60001 T10901130 11009 21090=
KY70 172355Z AUTO 19015G21KT 10SM CLR 04/M02 A2955 RMK AO2 10041
     20033=
KS24 172355Z AUTO 18013G24KT 10SM CLR 03/M03 A2976 RMK AO2=
KUMP 172355Z AUTO 17012KT 10SM BKN180 BKN200 OVC220 05/M01 A2973
     RMK AO2 T00481006 $=
KABR 172353Z AUTO 35018G32KT 10SM FEW024 BKN032 M08/M14 A3001 RMK
     AO2 PK WND 36035/2256 SNE2256 PRESRR SLP179 P0000 60000
     T10781144 11006 21078 53058=
KAIA 172353Z AUTO 01016KT 2 1/2SM -SN BR FEW020 OVC036 M06/M07
     A2993 RMK AO2 PK WND 36029/2322 SLP166 P0000 60000 T10561067
     11011 21056 53034=
KBBW 172353Z AUTO 34023G37KT 10SM SCT031 OVC090 M01/M07 A2985 RMK
     AO2 PK WND 34038/2342 SLP125 T10061067 10072 21006 53038=
KFWN 172353Z AUTO 00000KT 10SM CLR M02/M06 A3008 RMK AO2 SLP191
     T10221061 10061 21028 51013=
KHIB 172353Z AUTO 33023G38KT 4SM BLSN OVC032 M07/M15 A2959 RMK AO2
     PK WND 32039/2330 UPB21E45SNE13B27E41 PRESRR SLP040 P0000
     60000 T10721150 10006 21072 51075=
KLSE 172353Z 31013KT 10SM FEW038 BKN120 03/M05 A2953 RMK AO2
     SLP008 T00331050 10083 20033 51020=
KMCW 172353Z AUTO 33021G34KT 10SM BKN031 OVC120 M01/M07 A2964 RMK
     AO2 PK WND 32040/2342 SLP043 T10061067 10078 21006 53037=
KMIC 172353Z 30015G34KT 10SM OVC038 M03/M09 A2963 RMK AO2 PK WND
     29036/2308 SLP043 T10281094 10033 21028 53048=
KMTJ 172353Z AUTO 35005KT 10SM CLR 02/M12 A2988 RMK AO2 SLP137
     T00221117 10039 21022 53003=
KPOU 172353Z 00000KT 10SM OVC050 01/M04 A3008 RMK AO2 SLP185
     T00061039 10044 20006 53013=
KY19 172355Z AUTO 34016KT 2SM -SN FEW003 FEW010 BKN026 M11/M12
     A3007 RMK AO2 VIS 1 1/2V2 1/2=
KADS 172353Z 18008G15KT 10SM SKC 15/06 A2964=
KBPT 172353Z 13004KT 10SM SCT028 BKN033 16/13 A2982 RMK AO2 SLP097
     T01560128 10183 20150 56038=
KEEO 172353Z AUTO 25013KT 10SM BKN070 02/M08 A2981 RMK AO2 SLP136
     T00171078 10039 21022 55000=
KFTW 172353Z 16009KT 10SM OVC055 14/06 A2961 RMK AO2 SLP023
     T01440056 10178 20117 56011=


049 
SAXX60 KWBC 180000
METAR
KGTB 172355Z AUTO 18012KT 10SM BKN036 OVC130 M00/M04 A2988 RMK AO2
     SLP126 T10021043 10001 21011 58009=
KSUU 172355Z AUTO 24012KT 10SM CLR 13/07 A3016 RMK AO2 SLP220
     T01330073 10139 20103 55008 $=
KTBN 172355Z AUTO 16014G20KT 10SM SCT100 BKN120 10/M00 A2954 RMK
     AO2 SLP010 60000 T01001002 10143 20100 57015=
KTIK 172355Z AUTO 19012KT 10SM CLR 13/03 A2947 RMK AO2 SLP982
     60000 T01310029 10158 20096 53000=
KCWN 172355Z AUTO 34011KT 10SM CLR M00/M05 A2977 RMK AO2 SLP989
     T10031053 10112 21003 52022 $=
KDYS 172355Z 25016G28KT 3SM HZ BKN034 OVC040 19/M02 A2968 RMK A02A
     PK WND 25028/2318 SLP036 WND DATA ESTMD T01931023 10148 20104
     402170060 52006=
KFBG 172355Z AUTO 00000KT 10SM CLR 05/M01 A3010 RMK AO2 SLP198
     T00511014 10133 20051 50002 $=
KGTB 172355Z AUTO 18012KT 10SM BKN036 OVC130 M00/M04 A2988 RMK AO2
     SLP126 T10021043 10001 21011 58009=
KHLR 172355Z AUTO 19012G21KT 8SM OVC210 16/10 A2971 RMK AO2 SLP058
     T01640098 10192 20145 55009=
KHRT 172355Z AUTO 15007KT 10SM OVC210 15/08 A3002 RMK AO2 SLP164
     T01520075 10175 20151 57011 $=
KNKT 172356Z 11003KT 7SM CLR 04/M02 A3020 RMK SLP223 T00441017=
KSHM 172355Z AUTO 03013KT 10SM FEW085 M01/M06 A2976 RMK AO2 SLP087
     T10071059 10125 21007 52023 $=
KSSC 172355Z AUTO 00000KT 10SM CLR 07/M02 A3008 RMK AO2 SLP189
     T00691025 10148 20069 50002 $=
KSZL 172355Z AUTO 31004KT 10SM BKN060 10/00 A2955 RMK AO2 SLP012
     T00960000 10113 20078 52016 VISNO RWY01 CHINO RWY01 $=
PAFR 172355Z AUTO 00000KT 10SM OVC100 M02/M05 A3024 RMK AO2 SLP247
     T10231051 10038 21047 53004 $=
KCWN 172355Z AUTO 34011KT 10SM CLR M00/M05 A2977 RMK AO2 SLP989
     T10031053 10112 21003 52022 $=
KHLR 172355Z AUTO 19012G21KT 8SM OVC210 16/10 A2971 RMK AO2 SLP058
     T01640098 10192 20145 55009=
K1EW 172355Z AUTO 36019G25KT 10SM BKN095 M05/M10 A2984 RMK AO2 PK
     WND 01034/01 SLP133 60000 T10461100 10003 21046 53017 $=
K1HW 172355Z AUTO 01020KT 2 1/2SM -SN BR FEW008 SCT017 BKN024
     OVC030 M03/M05 M RMK AO2 VIS 2V2 1/2 CIG 015V024 SLPNO P0000
     60000 T10341051 10010 21034 $=
KFHU 172355Z AUTO 26012KT 10SM CLR 12/M06 A3009 RMK AO2 SLP176
     T01231062 10136 20106 53002=
KGRK 172355Z AUTO 17012KT 8SM OVC200 17/11 A2973 RMK AO2 SLP065
     60000 T01710105 10204 20137 55006=
KIAG 172353Z 19015KT 10SM BKN100 03/M05 A2983 RMK AO2 SLP113
     T00281050 10028 20022 58020=
KFZY 172354Z AUTO 00000KT 10SM BKN045 00/M04 A2995 RMK AO2 SLP146
     T00001039 10017 21011 55006=
KHRT 172355Z AUTO 15007KT 10SM OVC210 15/08 A3002 RMK AO2 SLP164
     T01520075 10175 20151 57011 $=
KMRT 172355Z AUTO 19012G16KT 10SM CLR 02/M04 A2983 RMK AO2
     T00151040 10021 20008=
KXMR 172355Z AUTO 36003KT 10SM BKN039 BKN090 14/10 A3006 RMK AO2
     SLP182 T01370103 10200 20136 58002 $=
KBIX 172355Z AUTO 13003KT 10SM OVC042 16/10 A2997 RMK AO2 SLP152
     T01610097 10176 20158 55006=
KNKT 172356Z 11003KT 7SM CLR 04/M02 A3020 RMK SLP223 T00441017=
KPAM 172355Z 17007KT 10SM FEW220 11/06 A3004 RMK AO2A SLP176
     T01100059 10178 20110 58003=
KPOB 172355Z AUTO 00000KT 10SM CLR 04/M03 A3011 RMK AO2 SLP201
     T00401031 10133 20040 50003 $=
KSSC 172355Z AUTO 00000KT 10SM CLR 07/M02 A3008 RMK AO2 SLP189
     T00691025 10148 20069 50002 $=
KVPS 172355Z AUTO 14007KT 10SM BKN210 14/05 A3003 RMK AO2 SLP176
     60000 T01420053 10175 20133 57009 $=
KGUS 172355Z AUTO 18009KT 10SM FEW180 03/M02 A2966 RMK AO2 SLP054
     T00311018 10053 20028 56016 $=
KVOK 172355Z AUTO 26011KT 10SM OVC100 04/M03 A2946 RMK AO2 SLP987
     T00381035 10086 20038 52018 $=


050 
SAUS70 KWBC 180000 RRI
METAR
KSPF 172355Z AUTO 31011KT 1 1/2SM -SN SCT005 BKN014 OVC021 M08/M10
     A3004 RMK AO2=
KSTF 172355Z AUTO 14006KT 10SM OVC065 12/01 A2989 RMK AO2=
KSUZ 172355Z AUTO 18009KT 10SM 08/06 A2976 RMK A01=
KSYM 172355Z AUTO 00000KT 10SM CLR 06/M06 A2989 RMK AO2=
KT69 172355Z AUTO 19011KT 10SM CLR 20/17 A2980 RMK A01=
KTAD 172354Z AUTO 03009KT 10SM CLR 03/M06 A2981 RMK AO2 SLP094
     T00331056 10139 20033 51043=
KTEW 172355Z AUTO 18009G17KT 10SM CLR 02/M02 A2962 RMK AO2
     T00201017 10042 20020=
KORK 172355Z AUTO 18007KT 5SM -RA BR 07/06 A2977 RMK AO2=
KORS 172355Z AUTO 32006KT 9SM SCT018 06/03 A3048 RMK AO2=
KOSC 172355Z AUTO 21022G33KT 8SM -RA CLR 02/M03 A2949 RMK AO2 PK
     WND 22029/43 10029 21008=
KOVL 172355Z AUTO 33028G36KT 10SM BKN016 M07/M11 A2976 RMK AO2=
KOWA 172355Z AUTO 32020KT 10SM BKN028 BKN036 OVC130 M02/M07 A2961
     RMK AO2 PK WND 31027/2320 T10171066=
KOWX 172355Z AUTO 17017KT 10SM CLR 02/M00 A2975 RMK AO2 10035
     20019=
KOZS 172355Z AUTO 21009KT 10SM SCT120 10/M01 A2959 RMK AO2=
KOZW 172355Z AUTO 17017G21KT 10SM CLR 02/M02 A2964 RMK AO2
     T00171025 10030 20015=
KPHF 172354Z 12004KT 10SM CLR 01/M04 A3017 RMK AO2 SLP218
     T00111044 10078 20006 51008=
KPHL 172354Z 20006KT 10SM CLR 02/M06 A3014 RMK AO2 SLP205
     T00221061 10067 20017 51015 $=
KPJC 172355Z AUTO 00000KT 10SM CLR M03/M05 A2993 RMK AO2=
KPLN 172354Z AUTO 22015G23KT 10SM OVC046 05/M03 A2940 RMK AO2 PK
     WND 22032/2313 RAB06E27 SLP963 P0000 60000 T00501028 10050
     20022 58007=
KPLU 172355Z AUTO 00000KT 10SM 05/02 A3043 RMK AO2=
KPSF 172354Z AUTO 00000KT 10SM OVC036 M02/M05 A3002 RMK AO2 SLP181
     T10171050 11011 21022 53010=
KPTB 172355Z AUTO 00000KT 10SM CLR 00/M05 A3014 RMK AO2 T00001050
     10091 21004=
KPTD 172355Z AUTO 18008KT 10SM OVC039 M00/M03 A2991 RMK AO2=
KPTW 172354Z AUTO 00000KT 10SM CLR 01/M06 A3012 RMK AO2 SLP200
     T00061061 10056 20000 50012=
KPVG 172355Z 12004KT 10SM CLR 02/M03 A3018 RMK AO2 SLP302 10090
     20020 52010 PWINO FZRANO RVRNO=
KRBL 172354Z AUTO 00000KT 10SM CLR 16/02 A3019 RMK AO2 SLP222
     T01560017 10156 20078 55006=
KRBW 172355Z AUTO 14004KT 10SM CLR 08/00 A3014 RMK AO2=
KRDG 172354Z 16004KT 9SM CLR 02/M07 A3008 RMK AO2 SLP196 T00171067
     10056 20011 50007=
KRGK 172355Z AUTO 33011G16KT 10SM OVC036 01/M07 A2957 RMK AO2=
KRKS 172354Z AUTO 29010G25KT 7SM -SN BKN037 OVC048 M04/M08 A2987
     RMK AO2 PK WND 28026/2333 SNE03B26 SLP142 P0000 60000
     T10391083 10011 21039 53015=
KRMN 172355Z AUTO 00000KT 10SM CLR 02/M06 A3010 RMK AO2 T00201064
     10082 20020=
KRNP 172355Z AUTO 18014G23KT 10SM CLR 03/M02 A2960 RMK AO2
     T00281022 10043 20028=
PAKN 172354Z 14007KT 10SM FEW030 BKN045 05/02 A2975 RMK AO2 SLP073
     T00500017 10061 20039 58001=
KTKX 172355Z AUTO 19017G27KT 10SM FEW055 BKN095 BKN110 11/02 A2977
     RMK AO2=
KTMA 172355Z AUTO 00000KT 10SM OVC220 10/03 A3009 RMK AO2
     T00990025 $=
KTOB 172355Z AUTO 30013G24KT 10SM OVC030 M02/M06 A2959 RMK AO2=
KTQE 172354Z AUTO 34028G36KT 10SM OVC100 02/M08 A2977 RMK AO2 PK
     WND 34038/2337 SLP086 T00171083 10094 20017 53044=
KTSP 172355Z AUTO 30017G23KT 9SM CLR 09/M11 A3016 RMK AO2=
KTWM 172355Z AUTO 30009G25KT 271V001 10SM OVC037 M02/M08 A2950 RMK
     AO2=
KU42 172355Z AUTO 32009KT 10SM SCT070 OVC080 02/M05 A3000 RMK AO1
     T00181055 10037 20016=
KU64 172355Z AUTO 29006KT 10SM CLR 04/M15 A2994 RMK AO2 T00371150
     $=
KUIN 172354Z AUTO 00000KT 10SM OVC065 07/M02 A2957 RMK AO2 SLP017
     T00721017 10094 20067 53006=
KUKT 172355Z AUTO 00000KT 10SM CLR M02/M04 A3009 RMK AO2=


051 
SAUS70 KWBC 180000 RRH
METAR
KMGG 172355Z AUTO 31017G26KT 10SM CLR M05/M11 A2970 RMK AO2
     T10551107 10036 21055=
KMGJ 172354Z AUTO 00000KT 10SM SCT050 M02/M06 A3006 RMK AO2 SLP184
     T10221061 10044 21022 51012=
KMGN 172355Z AUTO 23010G18KT 10SM BKN047 OVC055 04/M02 A2941 RMK
     AO2 T00461022=
KMGR 172355Z AUTO 00000KT 9SM BKN210 12/03 A3008 RMK AO2 T01200028
     $=
KMIV 172354Z AUTO 00000KT 10SM CLR M02/M07 A3016 RMK AO2 SLP211
     T10221072 10067 21033 51016=
KMKC 172354Z 31007KT 10SM OVC050 07/M01 A2962 RMK AO2 SLP030
     T00721011 10106 20067 53025=
KMKS 172355Z AUTO 00000KT 10SM CLR 08/03 A3013 RMK AO2=
KMMH 172355Z AUTO 26008KT 10SM CLR 09/M12 A3012 RMK AO2=
KMNI 172355Z AUTO 13003KT 10SM 08/01 A3013 RMK AO2=
KMOT 172354Z 30016KT 10SM FEW024 M13/M17 A3009 RMK AO2 UPE2255
     SLP226 P0000 60000 T11331167 11089 21133 51030=
KMOX 172355Z AUTO 34033G43KT 8SM FEW008 BKN013 OVC020 M09/M12
     A2981 RMK AO2 TSNO=
KMPE 172355Z AUTO 16004KT 10SM FEW050 SCT065 BKN080 A2989 RMK
     AO2=
KMQJ 172355Z AUTO 17010KT 10SM BKN170 OVC190 04/M00 A2973 RMK AO2
     T00391005 $=
KMQS 172355Z AUTO 00000KT 10SM CLR M00/M05 A3011 RMK AO2=
KMRY 172354Z 26005KT 10SM SCT020 13/07 A3022 RMK AO2 SLP245
     T01280072 10133 20106 55008=
KMVE 172355Z AUTO 34029G37KT 10SM -SN BKN019 M08/M11 A2983 RMK
     AO2=
KN38 172355Z AUTO 19009KT 10SM CLR M02/M06 A2991 RMK AO2=
KN79 172355Z AUTO 19004KT 10SM CLR 01/M06 A3002 RMK AO2
     T00051060=
KNRN 172355Z AUTO 35025G30KT 10SM BKN085 03/M07 A2981 RMK AO2 PK
     WND 35034/10 10120 20030=
KO22 172355Z AUTO 22003KT 10SM CLR 15/M03 A3017 RMK A01=
KO32 172355Z AUTO 00000KT CLR 16/02 A3014 RMK AO2 T01640018 PWINO
     $=
KOFP 172354Z AUTO VRB03KT 10SM CLR 04/M06 A3014 RMK AO2 SLP209
     T00391056 10089 20011 53005=
KOKV 172355Z AUTO 16003KT 10SM CLR 00/M06 A3004 RMK AO2=
KOLM 172354Z 01003KT 10SM SCT014 BKN036 06/03 A3045 RMK AO2 SLP311
     60000 T00610028 10067 20006 55003=
KOLS 172354Z AUTO 25009KT 10SM CLR 13/M07 A3008 RMK AO2 SLP164
     T01331072 10150 20117 53001=
KONM 172355Z AUTO 33010G19KT 10SM CLR 11/M06 A2991 RMK AO2
     T01141060 10144 20114=
KONZ 172355Z AUTO 18010KT 10SM CLR 00/M02 A2974 RMK AO2 10016
     20000=
KROX 172355Z 33018G26KT 7SM M12/M19 A2987 RMK AO2=
KRPH 172355Z AUTO 23010KT 7SM CLR 20/M00 A2956 RMK AO2 T02041001
     10220 20149 55006=
KRSN 172355Z AUTO 14008KT 10SM OVC110 09/06 A2980 RMK AO2
     T00950061 $=
KRST 172354Z 33021G29KT 10SM OVC025 M01/M07 A2958 RMK AO2 PK WND
     31036/2320 SLP030 T10111067 10028 21011 53027=
KRVL 172355Z AUTO 00000KT 10SM CLR 00/M06 A3002 RMK AO2=
KS24 172355Z AUTO 18013G24KT 10SM CLR 03/M03 A2976 RMK AO2=
KS25 172355Z AUTO 32010G20KT 10SM M13/M16 A3019 RMK AO2=
KS32 172355Z AUTO 33018KT 4SM HZ FEW017 SCT024 M11/M13 A2999 RMK
     AO2 TSNO=
KSAZ 172355Z AUTO 34027G34KT 4SM -SN BKN023 OVC030 M08/M12 A2974
     RMK AO2=
KSBY 172354Z 13003KT 10SM CLR M03/M06 A3017 RMK AO2 SNE13 SLP220
     P0000 60000 T10281061 10061 21028 51012=
KSET 172354Z AUTO 14009KT 10SM SCT085 BKN110 06/M02 A2960 RMK AO2
     RAB05E19 SLP027 P0000 60000 T00561017 10078 20039 $=
KSHD 172355Z AUTO 17004KT 10SM CLR 02/M06 A3007 RMK AO2 T00161060
     10045 20014=
KSJN 172354Z AUTO 24014G22KT 10SM FEW060 08/M06 A2997 RMK AO2
     SLP132 T00831061 10100 20072 55001=
KSLC 172354Z 32005KT 8SM BKN044 BKN060 OVC080 02/M03 A3001 RMK AO2
     SLP172 SH DSNT N BINOVC NW T00221033 10028 20006 53008 $=
KSPA 172355Z AUTO 00000KT 10SM CLR 06/M05 A3007 RMK AO2=
KSPB 172354Z 08003KT 10SM CLR 05/02 A3042=


052 
SAUS70 KWBC 180000 RRG
METAR
KISW 172354Z AUTO 26008G17KT 10SM FEW120 02/M02 A2948 RMK AO2
     SLP992 T00221022 10044 20022 53017=
KIYA 172355Z AUTO 15007KT 10SM SCT160 SCT210 BKN260 16/11 A2991
     RMK AO2 T01570113 $=
KIZG 172354Z AUTO 00000KT 10SM CLR M08/M11 A3004 RMK AO2 SLP183
     T10781111 10000 21078 51015=
KJAQ 172355Z AUTO 32004KT 10SM CLR 13/M01 A3018 RMK AO1 T01281010
     10136 20114=
KJDD 172355Z AUTO 18006KT 10SM CLR 13/08 A2969 RMK AO2 T01310079
     $=
KJFX 172355Z AUTO VRB04KT 10SM SCT100 SCT120 13/M01 A2997 RMK
     AO2=
KJFZ 172355Z AUTO 14005KT 10SM CLR A2996 RMK AO2=
KJGG 172355Z AUTO 14005KT 10SM CLR 02/M05 A3016 RMK AO2 T00241047
     $=
KJKJ 172355Z AUTO 35030G38KT 1SM -SN BKN011 OVC017 M09/M12 A2994
     RMK AO2 VIS 3/4V2=
KJMR 172355Z AUTO 32015G26KT 10SM BKN039 OVC045 M03/M10 A2966 RMK
     AO2=
KJSO 172355Z AUTO 18009KT 8SM SCT100 OVC240 12/09 A2974 RMK AO2
     T01250093 $=
KJVW 172355Z AUTO 15006KT 10SM FEW028 BKN042 OVC075 12/05 A2989
     RMK AO2=
KJWY 172355Z AUTO 18011KT 10SM CLR 14/08 A2966 RMK AO2
     T01360080=
KJYG 172355Z AUTO 32032G42KT 10SM FEW017 BKN024 OVC120 M04/M08
     A2970 RMK AO2=
KJYL 172355Z AUTO 16003KT 10SM CLR 09/M01 A3011 RMK AO2 T00891010
     10157 20081=
KJZI 172355Z AUTO 00000KT 10SM CLR 07/05 A3013 RMK AO2=
KK62 172355Z AUTO 14007KT 10SM CLR 03/M02 A2983 RMK AO2=
KKY8 172355Z AUTO 15007KT 10SM FEW075 SCT100 BKN120 10/ A2978 RMK
     A01=
KL08 172355Z AUTO 34014KT 10SM CLR 19/M01 A3004 RMK AO2=
KL35 172355Z AUTO 25007KT 10SM 05/M11 A3014 RMK AO2=
KLAF 172354Z 20007KT 10SM CLR 06/M01 A2967 RMK AO2 SLP054
     T00561011 10072 20050 56010=
KLDM 172355Z AUTO 21017G25KT 10SM CLR 05/00 A2948 RMK AO2
     T00470000 10050 20040=
KLJF 172355Z AUTO 33020G29KT 10SM CLR M07/M12 A2972 RMK AO2=
KLKR 172355Z AUTO 00000KT 10SM BKN029 BKN035 07/M04 A3009 RMK
     AO2=
KLKU 172355Z AUTO 14005KT 10SM CLR 02/M06 A3010 RMK AO2 T00221056
     10083 20004 400831037=
KLNK 172354Z 36023G34KT 10SM OVC120 04/M04 A2975 RMK AO2 PK WND
     01035/2324 SLP084 T00441044 10117 20044 51046=
KLNP 172355Z AUTO 18004KT 10SM CLR 05/M08 A2994 RMK AO2=
KLRO 172355Z AUTO 00000KT 10SM CLR 07/06 A3013 RMK AO2=
KLRU 172355Z AUTO 26025G36KT 7SM SCT030 SCT036 11/M07 A2996 RMK
     AO2 T01051072 10121 20100=
KLRY 172355Z AUTO 33005KT 10SM CLR 07/01 A2961 RMK AO2=
KLUA 172355Z AUTO 19003KT 10SM M01/M04 A3005 RMK AO2=
KLUX 172355Z AUTO 12003KT 10SM CLR 06/M02 A3008 RMK AO2=
KLVL 172355Z AUTO 00000KT 10SM CLR 04/M04 A3014 RMK AO1 T00361039
     10108 20029=
KLWM 172354Z 21004KT 10SM CLR M03/M09 A3010 RMK AO2 SLP196
     T10281089 10017 21028 53016=
KLWT 172354Z AUTO 29010KT 9SM BKN038 OVC120 M13/M15 A3019 RMK AO2
     SNE15 SLP287 P0000 60000 T11331150 11094 21133 53002=
KLXL 172355Z AUTO 32008G16KT 10SM CLR M06/M11 A2971 RMK AO2=
KM01 172355Z AUTO 18014KT 9SM OVC080 11/01 A2982 RMK AO2 T01110015
     $=
KM40 172355Z AUTO 18010KT 10SM BKN060 BKN075 OVC100 13/00 A2994
     RMK AO2=
KMAN 172355Z AUTO 31013G21KT 10SM CLR 04/M08 A3022 RMK A01=
KMAO 172355Z AUTO 14005KT 10SM CLR 07/M01 A3014 RMK AO2=
KMBO 172355Z AUTO VRB04KT 10SM -RA FEW037 OVC070 12/02 A2989 RMK
     AO2=
KMBY 172355Z AUTO 00000KT 10SM OVC055 07/00 A2958 RMK AO2=
KMEM 172354Z 19015G24KT 10SM -RA BKN075 OVC100 12/M01 A2983 RMK
     AO2 RAB42 SLP101 P0000 60000 T01171006 10144 20117 58017
     $=
KMEZ 172355Z AUTO VRB05KT 10SM CLR 09/03 A2969 RMK AO2 T00870027
     10120 20087 56005 $=
KMFI 172354Z AUTO 26008KT 10SM FEW027 OVC033 02/M03 A2944 RMK AO2
     SLP983 T00221028 10033 20022 51014=


053 
SAUS80 KWBC 180000
METAR
K1V4 172354Z AUTO M03/M08 A2999 RMK AO1 SLP172 T10281078 11022
     21033 51008=
KFMN 172353Z 29010KT 10SM CLR 07/M18 A2989 RMK AO2 SLP146
     T00721183 10089 20011 53001=
KTUS 172353Z 29007KT 10SM CLR 16/M07 A3009 RMK AO2 SLP168
     T01611067 10172 20139 55001=
K77S 172355Z AUTO 33005KT 10SM OVC008 02/02 A3038 RMK A01=
K12N 172354Z AUTO 00000KT M04/M07 A3008 RMK AO1 SLP201 T10391067
     10050 21039 51012=
KBFF 172353Z AUTO 35016G24KT 10SM OVC065 M03/M09 A2995 RMK AO2 PK
     WND 34029/2306 SLP157 60001 T10281089 10017 21028 53028=
KLAX 172353Z 23009KT 10SM FEW010 SCT035 14/07 A3016 RMK AO2 SLP212
     T01390067 10156 20139 56013=
KFAR 172353Z 34022G36KT 6SM BLSN BKN021 M09/M13 A2995 RMK AO2 PK
     WND 34037/2258 SLP157 60000 T10941133 11033 21094 53035 $=
KFNB 172353Z AUTO 36013KT 10SM CLR 06/M03 A2966 RMK AO2 SLP048
     T00611033 10078 20050 53036=
KCRQ 172353Z AUTO 22007KT 10SM CLR 13/07 A3015 RMK AO2 SLP210
     T01330072 10144 20133 56013=
KDRT 172353Z AUTO 14009KT 10SM CLR 20/06 A2979 RMK AO2 SLP085
     T02000061 10228 20150 55005=
KPDX 172353Z 33005KT 10SM FEW007 BKN015 04/00 A3043 RMK AO2 SLP305
     T00440000 10050 20039 55002=
KBIL 172353Z 02011KT 10SM BKN050 BKN065 OVC085 M08/M14 A3018 RMK
     AO2 SLP264 4/002 SHSN DSNT NE-SW T10781139 11050 21078
     53019=
KELY 172353Z AUTO 32009G17KT 10SM CLR 07/M09 A3000 RMK AO2 SLP168
     T00671094 10083 20056 53004=
KDAL 172353Z 17008KT 10SM FEW040 FEW110 FEW250 15/06 A2964 RMK AO2
     SLP033 T01500056 10167 20128 56013=
KPGA 172353Z AUTO 00000KT 10SM CLR 09/M08 A2991 RMK AO2 SLP128
     T00941078 10094 20017 55007=
KCUT 172353Z AUTO 35009G16KT 9SM OVC025 M08/M14 A2987 RMK AO2
     SNB24E51 SLP162 P0000 60000 T10831139 11028 21083 53023=
KFNT 172353Z 19018G30KT 10SM CLR 03/M03 A2963 RMK AO2 PK WND
     18030/2351 SLP041 T00281028 10044 20028 58015=
KHTL 172353Z AUTO 19010KT 10SM 02/M03 A2948 RMK AO2 SLP996
     T00221033 10028 21006 55007 $=
KODX 172353Z AUTO 34025G34KT 10SM FEW029 OVC095 M01/M08 A2985 RMK
     AO2 PK WND 34040/2311 SLP133 T10111083 10083 21011 53043=
KSTC 172353Z 31019G26KT 10SM BKN022 BKN027 OVC035 M06/M11 A2970
     RMK AO2 PK WND 31034/2321 PRESRR SLP080 T10611111 10028 21061
     53061=
KACY 172354Z 19004KT 10SM CLR 00/M07 A3015 RMK AO2 SLP211
     T00001067 10067 20000 51020=
KAKQ 172354Z AUTO 11003KT 10SM CLR 02/M04 A3016 RMK AO2 SLP214
     T00221044 10094 20017 51005=
KAPN 172354Z AUTO 19011KT 10SM CLR 02/M04 A2947 RMK AO2 SLP987
     T00171039 10028 20006 56013=
KATT 172351Z AUTO VRB04KT 10SM CLR 16/10 A2980 RMK AO2 SLP091
     T01560100 10161 20133 56005=
KAVP 172354Z VRB04KT 10SM CLR 00/M07 A3001 RMK AO2 SLP173
     T00001067 10006 21006 58001=
KBTV 172354Z 19009KT 10SM OVC045 M01/M06 A2999 RMK AO2 SNE18
     SLP159 4/003 P0000 60000 T10061056 11006 21028 52002=
KBUF 172354Z 18012KT 10SM BKN130 OVC170 02/M04 A2985 RMK AO2
     SLP116 60000 T00171044 10017 20006 58016=
KCAR 172354Z AUTO 00000KT 10SM BKN033 M05/M10 A2997 RMK AO2 SLP164
     T10501100 11033 21050 51017=
KCDJ 172351Z AUTO 32005KT 06/M01 A2961 RMK AO1 SLP034 T00611006
     10083 20044 53016=
KCOS 172354Z 05012KT 10SM FEW030 FEW080 SCT200 00/M06 A2980 RMK
     AO2 SLP100 T00001056 10117 20000 $=
KCOU 172354Z 19005KT 10SM CLR 08/M01 A2958 RMK AO2 SLP019
     T00831006 10111 20083 53005=
KCRW 172354Z 00000KT 10SM FEW250 03/M04 A2993 RMK AO2 SLP141 4/002
     T00331044 10078 20033 58015=
KDBN 172355Z AUTO 00000KT 9SM FEW210 08/02 A3008 RMK AO2 T00790020
     10173 20077 55000=


054 
SAUS70 KWBC 180000 RRE
METAR
KBWD 172355Z AUTO 26020G28KT 3SM HZ BKN033 OVC250 21/M04 A2969 RMK
     AO2 PK WND 28028/2352 T02101038 $=
KBWI 172354Z 15006KT 10SM CLR 02/M06 A3012 RMK AO2 SLP202
     T00221056 10067 20011 51009=
KBXK 172355Z AUTO 23005KT 10SM CLR 18/M04 A3006 RMK AO2=
KBYY 172355Z AUTO 19007KT 6SM BR OVC160 18/16 A2977 RMK AO2 PRESRR
     T01820163 $=
KCBK 172355Z AUTO 35016KT 10SM CLR 01/M07 A2982 RMK AO2 T00131068
     10121 20012 401211041=
KCDA 172355Z AUTO 00000KT 10SM OVC040 M04/M08 A2999 RMK AO2
     T10441078 11043 21052=
KCDH 172355Z AUTO 14008KT 10SM BKN044 OVC050 10/05 A2978 RMK
     AO2=
KCDI 172355Z AUTO 00000KT 10SM CLR M01/M03 A2991 RMK AO2 T10061033
     10051 21009=
KCDN 172355Z AUTO 00000KT 10SM CLR 05/M02 A3011 RMK AO2=
KCEU 172354Z AUTO 00000KT 10SM CLR 09/M03 A3006 RMK AO2 SLP179
     T00891033 10128 20089 55001=
KCFE 172355Z AUTO 32023G28KT 10SM FEW022 SCT030 M06/M10 A2967 RMK
     AO2=
KCGC 172355Z AUTO 11003KT 10SM BKN043 16/05 A3008 RMK AO2
     PWINO=
KCKC 172355Z AUTO 33016G30KT 303V003 4SM -SN BKN023 M07/M11 A2934
     RMK AO2=
KCKI 172355Z AUTO 12005KT 10SM CLR 07/00 A3014 RMK AO2=
KCKZ 172355Z AUTO 00000KT 10SM OVC042 M02/M05 A3010 RMK AO2=
KCLW 172355Z AUTO 00000KT 10SM BKN060 BKN075 17/07 A3006 RMK
     AO2=
KCMR 172355Z AUTO 26011G17KT 10SM CLR 07/M10 A3005 RMK AO2=
KCNB 172355Z AUTO 32019G29KT 3SM -SN BKN013 BKN018 OVC022 M06/M09
     A2988 RMK AO2 T10651093 10042 21065=
KCOQ 172355Z AUTO 31015G26KT 7SM -SN OVC032 M04/M11 A2954 RMK AO2
     TSNO=
KCPK 172355Z AUTO 00000KT 10SM CLR 01/M04 A3018 RMK AO2 T00081044
     10078 20006=
KCPT 172355Z AUTO 16009KT 10SM CLR 15/07 A2961 RMK AO2 T01520068
     $=
KCQW 172355Z AUTO 00000KT 10SM CLR 06/M03 A3011 RMK AO2=
KCVH 172355Z AUTO 27007KT 9SM CLR 13/07 A3021 RMK A01=
KCVX 172355Z AUTO 20012G17KT 10SM FEW065 05/M02 A2939 RMK AO2
     10050 20010=
KD09 172355Z AUTO 33016KT 10SM CLR M14/M18 A3005 RMK AO2=
KD57 172355Z AUTO 34014G24KT 10SM OVC024 M11/M17 A3009 RMK AO2=
KD60 172355Z AUTO 34018G25KT 2 1/2SM BR OVC019 M14/M16 A3014 RMK
     AO2=
KD95 172355Z AUTO 18012G26KT 10SM CLR 03/M03 A2965 RMK AO2
     T00251029 10040 20023=
KDCM 172355Z AUTO 00000KT 10SM CLR 05/M03 A3010 RMK AO2=
KDDH 172354Z AUTO 00000KT 9SM OVC037 M02/M05 A3003 RMK AO2 SLP180
     60000 T10221050 11011 21028 53005=
KDEC 172354Z 18014KT 10SM FEW060 BKN120 06/M01 A2963 RMK AO2
     SLP039 T00561011 10078 20056 55006=
KDNA 172355Z AUTO 28014G28KT 10SM CLR 13/M08 A2999 RMK AO2=
KDNN 172355Z AUTO VRB03KT 10SM FEW190 12/M09 A2998 RMK AO2
     T01161090=
KDRI 172355Z AUTO 15008G21KT 120V190 10SM FEW095 SCT130 BKN160
     14/08 A2977 RMK AO2 T01430076=
KDRM 172355Z AUTO 20008G15KT 10SM -SN SCT017 BKN023 OVC028 03/M02
     A2941 RMK AO2 T00271016 10027 20002=
KDSV 172354Z AUTO 13007KT 10SM CLR 02/M06 A2991 RMK AO2 SLP145
     T00221056 10033 20006 58005=
KDTL 172355Z AUTO 34023G33KT 3SM -SN HZ M11/M13 A2984 RMK AO2=
KDXX 172355Z AUTO 35024G32KT 1/2SM SN BKN002 OVC009 M07/M09 A2990
     RMK AO2=
KDYB 172355Z AUTO 00000KT 10SM CLR 10/03 A3011 RMK AO2=
KDYL 172354Z AUTO 16003KT 10SM SCT046 01/M05 A3009 RMK AO2 SLP200
     T00111050 10061 20006 50011=
KDYT 172355Z AUTO 32022G33KT 10SM OVC036 M02/M08 A2956 RMK AO2=
KECG 172354Z 15003KT 10SM CLR 03/M02 A3020 RMK AO2 SLP227
     T00281022 10089 20011 51008=
KEFK 172355Z AUTO 17005KT 10SM OVC042 M03/M08 A2999 RMK AO2
     T10351079 11025 21036=
KEKM 172355Z AUTO 17009KT 10SM CLR 02/M01 A2964 RMK AO2 T00211013
     $=


055 
SAUS70 KWBC 180000 RRF
METAR
KELK 172355Z AUTO 35023G35KT 10SM CLR 14/M05 A2954 RMK AO2 PK WND
     35035/2346 PRESRR T01351048 10212 20129 53036 $=
KELO 172355Z AUTO 33014G28KT 10SM OVC032 M07/M13 A2953 RMK AO2=
KEUG 172354Z 34009KT 4SM BR OVC005 03/01 A3040 RMK AO2 SLP298
     T00280011 10028 20017 55004=
KEVM 172355Z AUTO 33014G28KT 4SM -SN SCT011 BKN020 OVC036 M06/M10
     A2957 RMK AO2 T10571100 10008 21057=
KEVU 172355Z AUTO 36006KT 10SM CLR 05/00 A2965 RMK AO2
     T00550004=
KEVV 172354Z 17005KT 10SM SCT110 09/00 A2977 RMK AO2 SLP084
     T00890000 10117 20078 56010 $=
KEWN 172354Z 10003KT 10SM CLR 04/M01 A3020 RMK AO2 SLP226
     T00391011 10100 20033 50009=
KF70 172355Z AUTO 19006KT 10SM CLR 15/04 A3014 RMK AO2=
KFBL 172355Z AUTO 32010G19KT 10SM SCT030 M01/M06 A2963 RMK AO2=
KFFM 172355Z AUTO 34024G32KT 5SM -SN HZ SCT020 M10/M13 A2986 RMK
     AO2 TSNO=
KFFZ 172354Z AUTO 26005KT 10SM CLR 17/M03 A3005 RMK AO2 SLP163
     T01671028 10172 20139 55006=
KFKA 172355Z AUTO 31021G32KT 10SM BKN027 OVC110 M01/M05 A2956 RMK
     AO2=
KFSO 172355Z AUTO 17008KT 10SM OVC046 00/M06 A2997 RMK AO2
     T10051060 11005 21021=
KFWB 172355Z AUTO 20009KT 8SM BKN060 OVC070 09/02 A2960 RMK AO2
     TSNO=
KFYG 172355Z AUTO 16005KT 10SM FEW110 09/08 A2960 RMK AO2=
KGCK 172354Z 02021KT 10SM CLR 06/M08 A2974 RMK AO2 PK WND
     03037/2258 SLP086 T00611083 10144 20061 53054=
KGCN 172354Z 27007G21KT 10SM CLR 06/M13 A3001 RMK AO2 SLP175
     T00611133 10083 20039 53004=
KGDB 172355Z AUTO 31022G32KT 7SM SCT014 SCT020 SCT025 M06/M09
     A2983 RMK AO2 T10571087 10053 21057=
KGHG 172355Z AUTO 00000KT 10SM BKN026 BKN034 M05/M08 A3010 RMK
     AO2=
KGWR 172355Z AUTO 35021G31KT 10SM SCT018 BKN024 M10/M11 A2996 RMK
     A01=
KGYL 172355Z AUTO 31020G31KT 10SM CLR M05/M09 A2969 RMK AO2
     T10511095 10030 21051=
KHAE 172355Z AUTO 24003KT 10SM OVC065 08/M01 A2958 RMK AO2=
KHAF 172355Z AUTO 32005KT 7SM SCT017 11/08 A3023 RMK AO2=
KHBV 172355Z AUTO 18005KT 9SM CLR 20/13 A2983 RMK AO2
     T02020127=
KHCD 172355Z AUTO 32023G33KT 10SM CLR M06/M12 A2972 RMK AO2
     T10561116 10035 21056=
KHCR 172355Z AUTO 00000KT 10SM SCT065 BKN080 01/M05 A2990 RMK AO2
     T00151052=
KHVS 172355Z AUTO 13007KT 10SM OVC039 05/M03 A3011 RMK AO2=
KHWD 172354Z 30010KT 10SM CLR 13/07 A3021 RMK AO2 SLP239 T01280067
     10144 20106 55007=
KHYW 172355Z AUTO 00000KT 10SM CLR 03/00 A3015 RMK AO2=
KHYX 172355Z AUTO 19019G28KT 10SM CLR 02/M03 A2956 RMK AO2 PK WND
     20028/47 10036 20014=
KHZE 172355Z AUTO 34015KT 9SM -SN OVC025 M11/M16 A3013 RMK AO2=
KHZL 172355Z AUTO 00000KT 10SM CLR M02/M07 A3004 RMK AO2=
KI68 172355Z AUTO 15009KT 10SM CLR 04/M00 A2982 RMK AO2=
KIDI 172355Z AUTO 00000KT 10SM CLR M01/M06 A2995 RMK A01=
KIIY 172355Z AUTO 11003KT 10SM CLR 06/M01 A3007 RMK AO2 T00631005
     10144 20059 401440014=
KILN 172354Z AUTO 17006KT 10SM CLR 03/M04 A2983 RMK AO2 SLP129
     T00281039 10039 20022 56018=
KIMT 172354Z AUTO 24007KT 10SM FEW038 02/M04 A2934 RMK AO2 SLP950
     T00171039 10028 20006 53014=
KIND 172354Z 15009KT 10SM BKN180 04/M02 A2972 RMK AO2 SLP069 4/002
     T00441017 10078 20044 57014 $=
KINF 172355Z AUTO 00000KT 7SM 15/06 A3009 RMK AO2=
KINT 172354Z 00000KT 10SM CLR 06/M06 A3009 RMK AO2 SLP194
     T00611056 10111 20056 53004=
KIPT 172354Z VRB04KT 10SM CLR 01/M05 A3003 RMK AO2 SLP173
     T00061050 10028 21011 58001=
KIRS 172355Z AUTO 18014KT 10SM CLR 02/M02 A2964 RMK AO2 10046
     20018=
KISO 172356Z 17009KT 10SM CLR 06/M01 A3018=
KISQ 172355Z AUTO 22008KT 10SM SCT075 OVC110 03/01 A2937 RMK AO2
     T00250008 10031 20025=


056 
SAUS70 KWBC 180000 RRD
METAR
KCPS 172353Z 18003KT 9SM RA BKN070 OVC090 09/01 A2964 RMK AO2
     RAB33 SLP039 P0002 60002 T00890006 10111 20072 55002 $=
KFDY 172353Z AUTO 17017KT 10SM CLR 03/M03 A2975 RMK AO2 PK WND
     17026/2302 SLP078 T00281033 10039 20022 58023 $=
KFRH 172355Z AUTO 18003KT 10SM CLR 08/00 A2976 RMK AO1=
KGRB 172353Z AUTO 22005KT 10SM OVC085 05/M02 A2942 RMK AO2 SLP968
     T00501017 10078 20044 51007=
KPKD 172353Z AUTO 33019G32KT 8SM -SN OVC022 M10/M13 A2976 RMK AO2
     PK WND 33033/2310
     UPB2257E2259B17E22B38E49SNE2257B2259E17B22E38B49 SLP102 P0000
     60000 T11001133 11022 21100 53046=
KTHV 172353Z AUTO 00000KT 10SM CLR 00/M06 A3008 RMK AO2 SLP193
     T00001061 10050 21006 50005 $=
KACB 172355Z AUTO 20007KT 10SM BKN085 BKN110 05/M02 A2944 RMK AO2
     T00481021 10052 20010=
KACJ 172355Z AUTO 00000KT 10SM CLR 10/01 A3004 RMK AO2 T00980013
     $=
KACQ 172355Z AUTO 30019G27KT 10SM CLR M02/M07 A2965 RMK AO2=
KADC 172355Z AUTO 33021G26KT 10SM SCT024 M10/M14 A2977 RMK AO2=
KAGO 172355Z AUTO VRB04KT 10SM BKN040 BKN045 09/06 A2975 RMK
     A01=
KAIK 172355Z AUTO 00000KT 10SM CLR 07/M02 A3009 RMK AO2 T00671022
     10151 20065 401511028=
KAIT 172355Z AUTO 31012G21KT 270V340 7SM -SN BKN028 OVC035 M06/M09
     A2966 RMK AO2=
KAKH 172354Z AUTO 00000KT 10SM CLR 07/M04 A3008 RMK AO2 SLP192
     T00671039 10128 20056 53005=
KAKR 172354Z AUTO 18009KT 10SM CLR 02/M06 A2984 RMK AO2 SLP113
     T00221056 10033 20017 58018=
KALM 172355Z AUTO 25011G19KT 10SM CLR 13/M08 A2991 RMK AO2=
KALO 172354Z 31009KT 10SM BKN038 04/M03 A2960 RMK AO2 SLP031
     T00391033 53031=
KAPC 172354Z 20008KT 10SM SCT022 12/08 A3020 RMK AO2 SLP217
     T01220078 10128 20061 55009=
KAQX 172355Z AUTO 14006KT 10SM BKN033 BKN038 09/01 A3009 RMK AO2
     TSNO=
KARW 172355Z AUTO 09003KT 10SM CLR 06/03 A3012 RMK AO2=
KASL 172355Z AUTO 17007KT 10SM CLR 10/08 A2975 RMK AO2 60000
     T01000081 10117 20092 58004 $=
KATS 172355Z AUTO 28020KT 10SM CLR 16/M05 A2981 RMK AO2=
KAUW 172354Z AUTO 25009G17KT 10SM FEW027 OVC035 02/M03 A2941 RMK
     AO2 SLP976 T00171033 10033 20017 53011=
KAVC 172355Z AUTO 00000KT 10SM CLR 01/M03 A3019 RMK AO2 T00121032
     10100 20008=
KAVL 172354Z 14005KT 10SM CLR 06/M05 A3004 RMK AO2 SLP177
     T00611050 10117 20056 50007=
KAXV 172355Z AUTO 16013G17KT 10SM CLR 01/01 A2976 RMK AO2=
KBAC 172355Z AUTO 34019KT 10SM UP M11/M14 A2998 RMK AO2=
KBBB 172355Z AUTO 33022G34KT 6SM -SN HZ FEW004 BKN012 OVC016
     M09/M11 A2982 RMK AO2=
KBBP 172355Z AUTO 13003KT 10SM CLR 04/M01 A3012 RMK AO2=
KBDG 172355Z AUTO 11004KT 10SM CLR 04/M15 A2990 RMK AO2 T00391154
     $=
KBDH 172355Z AUTO 32024G35KT 9SM OVC013 M08/M11 A2977 RMK AO2=
KBFL 172354Z 34006KT 10SM CLR 19/M04 A3014 RMK AO2 SLP205
     T01891039 10194 20111 56015=
KBIS 172352Z AUTO 35011G22KT 10SM OVC029 M09/M15 A3009 RMK AO2 PK
     WND 33029/2307 SLP216 60000 T10941150 11044 21094 51032=
KBKN 172355Z AUTO 33020G25KT 10SM CLR 08/01 A2957 RMK AO2=
KBKS 172355Z AUTO 20005KT 10SM CLR 22/15 A2981 RMK AO2 SLP054
     T02170150 10240 20205 56018 $=
KBNL 172355Z AUTO 00000KT 10SM SCT027 BKN035 BKN040 07/M01 RMK
     AO2=
KBOS 172354Z 21005KT 10SM CLR 01/M08 A3010 RMK AO2 SLP193
     T00111078 10033 21017 51016=
KBRY 172355Z AUTO 16004KT 10SM FEW220 08/M02 A2982 RMK AO2
     T00811015 $=
KBUY 172354Z AUTO 00000KT 10SM CLR 04/M06 A3008 RMK AO2 SLP191
     T00441061 10122 20033 50001=
KBVI 172355Z AUTO 18006KT 10SM CLR 02/M05 A2990 RMK AO2
     T00231047=
KBVU 172355Z AUTO 15008KT 10SM CLR 16/M11 A2999 RMK AO2=


057 
SAUS70 KWBC 180000 RRC
METAR
KONO 172353Z AUTO 32017KT 10SM CLR 04/M06 A3025 RMK AO2 PK WND
     32030/2254 SLP265 T00441061 10072 20039 53009=
KPAE 172353Z AUTO 36006KT 10SM CLR 06/00 A3044 RMK AO2 SLP314
     T00610000 10061 20028 55001=
KPSC 172353Z 31004KT 10SM CLR 07/M04 A3039 RMK AO2 SLP292
     T00721044 10089 20022 55002=
KRBG 172353Z AUTO 14003KT 10SM OVC022 06/01 A3035 RMK AO2 SLP281
     T00560011 10061 20033 55003=
KRXE 172353Z AUTO 00000KT 10SM BKN090 M05/M06 A3002 RMK AO2 SLP206
     60001 T10501061 11022 21061 53016=
KSHN 172353Z AUTO 10006KT 10SM BKN036 07/03 A3042 RMK AO2 SLP308
     T00670028 10072 21006 55001=
KWVI 172353Z AUTO 25005KT 10SM CLR 12/07 A3022 RMK AO2 SLP233
     T01170067 10133 20078 55009=
KASE 172353Z 00000KT 10SM SCT070 OVC100 M02/M12 A2983 RMK AO2
     SLP118 T10221122 10006 21039 53003=
KBPI 172353Z AUTO 33014KT 10SM FEW060 OVC080 M06/M12 A2984 RMK AO2
     SLP167 60000 T10561122 11022 21089 53018=
KCRS 172353Z AUTO 20017G30KT 10SM CLR 16/09 A2970 RMK AO2 PK WND
     20030/2337 SLP057 60000 T01560094 10156 20122 56016=
KGGG 172353Z 18012KT 10SM CLR 13/08 A2974 RMK AO2 SLP072 60000
     T01280083 10133 20111 56009=
KGGW 172353Z AUTO 33015KT 10SM OVC025 M09/M15 A3024 RMK AO2 SLP280
     60000 T10891150 11072 21094 52016=
KGTF 172353Z 23005KT 6SM -SN BR SCT030 OVC036 M11/M12 A3026 RMK
     AO2 SNB05E34B47 SLP317 P0000 60000 T11061117 11089 21111
     53001=
KHJO 172353Z AUTO 00000KT 10SM CLR 18/03 A3017 RMK AO2 SLP218
     T01780033 10183 20078 56016=
KHQM 172353Z AUTO 10008KT 10SM CLR 07/02 A3043 RMK AO2 SLP307
     T00670022 10067 20000 55003=
KLBX 172353Z AUTO 19013G21KT 10SM CLR 19/15 A2978 RMK AO2 PK WND
     16032/2319 RAB20E32 SLP085 P0000 60000 T01940150 10206 20189
     58036=
KRAL 172353Z 30003KT 10SM CLR 15/04 A3014 RMK AO2 SLP200 T01500039
     10156 20111 56015=
KSMF 172353Z 18006KT 10SM CLR 14/06 A3018 RMK AO2 SLP218 T01440061
     10156 20083 56009=
KALI 172353Z AUTO 21008KT 10SM CLR 21/14 A2980 RMK AO2 SLP091
     T02110144 10239 20200 55015=
KBCE 172353Z AUTO 33013KT 10SM CLR 04/M13 A2995 RMK AO2 SLP145
     T00391133 10067 20028 53005=
KBKE 172353Z AUTO 32012KT 10SM CLR 02/M08 A3024 RMK AO2 SLP262
     T00171083 10033 20011 53003=
KBYI 172353Z AUTO 28015G31KT 10SM OVC075 01/M07 A3004 RMK AO2 PK
     WND 28034/2255 SLP189 T00111072 10033 20000 53012=
KCAG 172353Z AUTO 00000KT 10SM OVC065 M02/M07 A2982 RMK AO2 SLP172
     T10221072 11006 21078 55004=
KCEZ 172353Z AUTO 29012KT 10SM CLR 04/M15 A2991 RMK AO2 SLP142
     T00391150 10067 20033 53002=
KCOT 172353Z AUTO 00000KT 10SM CLR 21/11 A2981 RMK AO2 SLP090
     T02060106 10228 20161 53006=
KDEW 172353Z AUTO 00000KT 3SM BR OVC003 M04/M04 A3030 RMK AO2
     SLP292 I6007 T10391044 11028 21056 53004=
KFUL 172353Z VRB04KT 10SM CLR 16/01 A3014 RMK AO2 SLP208 T01560006
     10161 20133 56014=
KPRB 172353Z AUTO 20007KT 10SM CLR 17/06 A3014 RMK AO2 SLP209
     T01670056 10183 20050 56015=
KSIY 172353Z AUTO 00000KT 10SM CLR 10/01 A3019 RMK AO2 SLP245
     T01000011 10106 20000 55005 PWINO $=
KSNK 172355Z AUTO 27022G28KT 10SM CLR 19/M04 A2970 RMK AO2
     T01861037=
KSTS 172353Z 15007KT 10SM SCT022 12/08 A3020 RMK AO2 SLP222
     T01220078 10133 20050 55008=
KARB 172353Z 18011G19KT 9SM CLR 01/M03 A2970 RMK AO2 SLP067
     T00111033 10028 20011 58016=
KASX 172353Z AUTO 29018G27KT 10SM OVC031 01/M06 A2946 RMK AO2 PK
     WND 29027/2352 SLP985 T00061056 10044 20006 53046=
KCDW 172353Z 21003KT 10SM SCT047 03/M04 A3011 RMK AO2 SLP205
     T00281044 10061 20028 53016=


058 
SAUS70 KWBC 180000 RRB
METAR
KOMK 172353Z AUTO 02010KT 10SM 03/M06 A3036 RMK AO2 SLP299
     T00281061 10044 21039 $=
KPUW 172353Z AUTO 28007KT 10SM FEW020 BKN029 M01/M05 A3028 RMK AO2
     SLP282 T10111050 10011 21033 53003=
KSNA 172353Z 19007KT 10SM FEW033 16/07 A3015 RMK AO2 SLP211
     T01560072 10161 20139 56014=
K1P1 172355Z AUTO 00000KT OVC050 M06/M08 A3004 RMK AO2 T10561079
     11003 21061 PWINO=
KADG 172353Z AUTO 18011KT 10SM CLR 02/M03 A2971 RMK AO2 SLP068
     T00171033 10033 20011 57019=
KAXN 172353Z AUTO 33017G34KT 5SM -SN OVC016 M10/M13 A2977 RMK AO2
     PK WND 35037/2316 SNB05E19B43 SLP107 P0000 60000 T11001133
     11006 21100 51052=
KBRL 172353Z AUTO 29003KT 10SM CLR 06/M01 A2955 RMK AO2 SLP013
     T00561011 10122 20044 53010=
KCFJ 172355Z AUTO 20011KT 10SM CLR 04/M05 A2969 RMK AO2 T00371046
     10051 20037=
KCMX 172353Z AUTO 26017G27KT 10SM OVC050 03/M03 A2929 RMK AO2 PK
     WND 27031/2333 SLP927 T00281033 10050 20028 51021=
KDFI 172353Z AUTO 18012G21KT 10SM CLR 03/M03 A2971 RMK AO2 SLP067
     T00331033 10039 20028 58022=
KHSI 172353Z AUTO 35019G28KT 10SM OVC110 03/M04 A2978 RMK AO2 PK
     WND 35037/2311 SLP100 T00281044 10100 20028 51040=
KPIR 172353Z AUTO 36020G27KT 10SM OVC030 M04/M09 A3001 RMK AO2 PK
     WND 35033/2306 SNB20E32 SLP178 P0000 60000 T10441094 10022
     21044 53041=
KRWF 172353Z AUTO 32021G34KT 10SM CLR M07/M12 A2976 RMK AO2 PK WND
     30042/2304 SLP095 60000 T10671117 10044 21067 52050=
KTDZ 172353Z AUTO 18017G26KT 10SM CLR 03/M03 A2974 RMK AO2 PK WND
     17027/2319 SLP075 T00281033 10050 20028 56027=
KACV 172353Z AUTO 32007KT 10SM FEW017 09/06 A3022 RMK AO2 SLP240
     T00890056 10106 20072 55006=
KALW 172353Z 27005KT 10SM CLR 04/M03 A3035 RMK AO2 SLP288
     T00391028 10044 20017 53000=
KAUS 172353Z 22006KT 10SM BKN100 BKN250 16/11 A2980 RMK AO2 SLP090
     T01560106 10161 20128 55006=
KCCR 172353Z 28008KT 10SM CLR 14/07 A3020 RMK AO2 SLP211 T01390072
     10150 20089 55005=
KCNO 172353Z 28007KT 10SM BKN040 16/06 A3015 RMK AO2 SLP210
     T01560056 10156 20111 56014=
KCYS 172353Z AUTO 01010G21KT 6SM HZ FEW011 BKN028 OVC035 M07/M09
     A2984 RMK AO2 PK WND 35027/2341 SLP129 60001 T10671094 10006
     21067 53015 PWINO FZRANO=
KDLN 172353Z AUTO 07011KT 10SM BKN045 OVC060 M09/M14 A3008 RMK AO2
     SLP236 T10941144 11067 21094 53011=
KLVJ 172353Z AUTO 17006KT 10SM CLR 18/14 A2981 RMK AO2 SLP094
     T01830144 10206 20183 55030=
KOVE 172353Z AUTO 29003KT 10SM CLR 14/03 A3019 RMK AO2 SLP226
     T01440033 10156 20117 55009=
KPMD 172353Z AUTO 27022KT 10SM CLR 15/M11 A3009 RMK AO2 PK WND
     28029/2323 SLP184 T01501106 10172 20139 55003=
KPRC 172353Z 25013KT 10SM CLR 08/M08 A3006 RMK AO2 SLP155
     T00831083 10106 20078 53004=
KRBD 172353Z 18013G21KT 10SM CLR 14/06 A2963 RMK AO2 PK WND
     21026/2312 SLP031 T01440061 10161 20122 56015=
KRKP 172353Z AUTO 18009G18KT 8SM CLR 18/16 A2980 RMK AO2 SLP092
     T01830161 10228 20183 56025=
KSFF 172353Z 00000KT 10SM FEW016 01/M05 A3031 RMK AO2 SLP285
     T00061050 10006 21039 53003=
KBMQ 172353Z AUTO 18010KT 10SM CLR 16/09 A2977 RMK AO2 SLP073
     T01610089 10183 20133 56008 $=
KDWH 172353Z 22004KT 10SM OVC030 18/13 A2981 RMK AO2 SLP094 60000
     T01830128 10189 20161 55014=
KELN 172353Z AUTO 12005KT 10SM CLR 04/M04 A3032 RMK AO2 SLP282
     T00441039 10050 20006 56001=
KLVM 172353Z AUTO 30009G18KT 10SM OVC037 M10/M16 A3015 RMK AO2
     SLP262 T11001161 11056 21100 53013=
KOAK 172353Z 28010KT 10SM FEW019 13/07 A3022 RMK AO2 SLP232
     T01330072 10144 20100 55008=


059 
SAUS70 KWBC 180000 RRA
METAR
K6L4 172355Z AUTO 17009KT 10SM CLR 07/M09 A2992 RMK AO2=
KATY 172353Z AUTO 34026G33KT 3SM -SN BKN016 BKN020 OVC032 M09/M12
     A2989 RMK AO2 PK WND 35035/2323 SNE11B46 SLP152 P0000 60000
     T10891122 10017 21089 53059=
KBDE 172353Z AUTO 33016G27KT 10SM OVC042 M08/M15 A2977 RMK AO2 PK
     WND 34034/2255 SLP097 60000 T10781150 11022 21083 51065=
KBKL 172353Z 16018G27KT 10SM CLR 03/M05 A2980 RMK AO2 PK WND
     17030/2342 SLP097 T00331050 10044 20033 56022 $=
KBRD 172353Z AUTO 32016G30KT 7SM UP OVC034 M06/M12 A2969 RMK AO2
     PK WND 30035/2343 UPB29SNE29 PRESRR SLP073 P0000 60000
     T10611117 10028 21061 51067=
KCKB 172353Z 00000KT 10SM CLR 01/M07 A2995 RMK AO2 SLP147
     T00061067 10044 21006 58009=
KDXR 172353Z 00000KT 10SM OVC050 01/M04 A3010 RMK AO2 SLP197
     T00061044 10056 20000 53013=
KFRG 172353Z 18003KT 10SM CLR 01/M04 A3012 RMK AO2 SLP200
     T00061044 10050 20006 52016=
KGFK 172353Z 34019G35KT 10SM FEW027 SCT036 BKN250 M09/M16 A2998
     RMK AO2 PK WND 34035/2349 SLP166 4/003 60000 T10941156 11061
     21094 51058=
KMDS 172355Z AUTO 34022G33KT 10SM -SN OVC022 M06/M08 A2984 RMK AO2
     TSNO=
KPBG 172353Z AUTO 17004KT 10SM OVC048 M02/M06 A2997 RMK AO2 SLP153
     T10171061 11011 21022 50002=
KPTK 172353Z 18013G21KT 10SM FEW140 BKN190 02/M03 A2967 RMK AO2
     SLP056 T00171033 10028 20017 58015=
KSTP 172353Z 32026G36KT 10SM OVC039 M01/M08 A2963 RMK AO2 PK WND
     31036/2347 PRESRR SLP039 T10111078 10039 21011 51047=
KAPA 172353Z 02014G22KT 10SM OVC013 M02/M06 A2986 RMK AO2 SLP133
     T10221056 10106 21022 53030=
KBFI 172353Z 01004KT 10SM BKN033 07/01 A3046 RMK AO2 SLP314
     T00670006 10072 20033 53001 $=
KBLI 172353Z 32004KT 10SM CLR 05/01 A3046 RMK AO2 SLP324 T00500006
     10067 20011 55001=
KBRO 172353Z 17007KT 10SM CLR 22/17 A2985 RMK AO2 SLP106 T02170172
     10256 20217 58001=
KBTM 172353Z AUTO 29007KT 10SM OVC065 M09/M17 A3009 RMK AO2 SLP244
     T10941167 11072 21094 51007=
KCDC 172353Z AUTO 20011KT 10SM CLR 08/M13 A2996 RMK AO2 SLP141
     T00781133 10100 20056 53001=
KDEN 172353Z 03019G24KT 9SM -SN OVC020 M03/M08 A2988 RMK AO2 PK
     WND 05026/2333 SNE10B19 SLP130 P0000 60000 T10281078 10106
     21028 51036=
KGUR 172355Z AUTO 35014G19KT 10SM BKN070 OVC085 M04/M10 A2995 RMK
     AO2 SLP185 60000 T10441100 10003 21044 52023=
KHRI 172353Z AUTO 00000KT 10SM CLR 08/M04 A3038 RMK AO2 SLP291
     T00781039 10078 20022 55002=
KAFW 172353Z 17013KT 10SM FEW130 FEW180 16/06 A2960 RMK AO2 SLP023
     T01560056 10183 20128 56012=
KBYG 172353Z AUTO 34027G36KT 1 1/2SM -SN BR SCT013 OVC047 M11/M12
     A3000 RMK AO2 PK WND 35036/2342 UPE08SNB08 SLP208 P0000 60000
     T11061117 11056 21106 51022=
KCDS 172353Z AUTO 32016KT 10SM CLR 17/M06 A2955 RMK AO2 PK WND
     32030/2334 SLP998 T01671061 10222 20167 53020=
KCLM 172353Z AUTO 13004KT 10SM CLR 06/01 A3047 RMK AO2 SLP320
     60000 T00560006 10072 20039 55001=
KCPR 172353Z 04012G23KT 2SM R03/5500VP6000FT -SN BR OVC016 M09/M11
     A2999 RMK AO2 SLP200 P0002 60004 T10941111 11044 21094
     51021=
KDRO 172353Z AUTO 23009G15KT 10SM CLR 04/M16 A2985 RMK AO2 PK WND
     25030/2257 SLP137 T00391161 10072 20006 53007=
KHHR 172353Z 23005KT 10SM CLR 15/08 A3016 RMK AO2 SLP211 T01500078
     10167 20139 56013 $=
KINK 172353Z AUTO 26025G40KT 2SM HZ SCT027 17/M06 A2980 RMK AO2 PK
     WND 26044/2324 SLP072 T01671056 10189 20161 53009=
KLMT 172353Z 33006KT 10SM CLR 04/M03 A3019 RMK AO2 SLP239
     T00441033 10067 20028 53001=
KMAE 172353Z AUTO 31004KT 10SM CLR 18/02 A3017 RMK AO2 SLP215
     T01780022 10189 20100 56013=


066 
SAUS70 KWBC 180000 RRW
METAR
KLEW 172356Z AUTO 16005KT 10SM OVC060 M04/M08 A3006 RMK AO2 SLP191
     6//// T10391083 10011 21061 53011 FZRANO PNO $=
KLGD 172356Z AUTO 31010KT 10SM FEW050 01/M08 A3029 RMK AO2 SLP282
     60000 T00111078 10028 20011 53004 FZRANO=
KLRD 172356Z 18011KT 10SM CLR 21/10 A2980 RMK AO2 SLP093 6////
     T02060100 10233 20194 56004=
KLZU 172356Z 14003KT 10SM CLR 10/M07 A3004 RMK AO2 SLP187
     T01001072 10156 20100 53002=
KM19 172356Z AUTO 19012KT 10SM RA FEW060 OVC085 08/04 A2979 RMK
     AO2 RAB11 SLP101 6//// T00780039 10128 20078 55008 PNO $=
KMBL 172356Z AUTO 20014G21KT 10SM CLR 05/M01 A2946 RMK AO2 SLP983
     T00501006 10056 20044 51005=
KMJX 172356Z AUTO 18003KT 10SM CLR M04/M07 A3015 RMK AO2 SLP216
     T10391072 10061 21039 51018 FZRANO=
KMKJ 172355Z AUTO 05006KT 10SM CLR 03/M06 A3002 RMK AO2 T00311065
     10065 20019=
KMKT 172356Z AUTO 31020G33KT 10SM CLR M04/M09 A2968 RMK AO2 PK WND
     31035/2259 SLP066 T10391094 10033 21039 53028 FZRANO=
KMKY 172356Z AUTO RMK AO2 SLPNO 6//// PWINO FZRANO PNO $=
KMML 172356Z AUTO 34027G31KT 9SM FEW013 BKN020 M07/M10 A2981 RMK
     AO2 PK WND 34038/2304 SNB43E55 SLP114 P0000 60000 T10671100
     10044 21067 53054 FZRANO=
KMQY 172356Z 17007KT 10SM CLR 12/M01 A2992 RMK AO2 SLP140
     T01221006 10156 20117 55000=
KMTV 172355Z AUTO 00000KT 10SM CLR 02/M08 A3010 RMK AO2 T00171077
     10105 20015=
KMTW 172356Z AUTO 22005KT 10SM OVC100 06/M02 RMK AO2 SLPNO
     T00561022 10083 20028 $=
KMVN 172356Z AUTO 19014G20KT 10SM SCT070 BKN090 OVC110 08/M01
     A2971 RMK AO2 SLP068 60000 T00831006 10089 20072 56007=
KMYR 172356Z 00000KT 10SM CLR 08/04 A3016 RMK AO2 SLP211 T00830039
     10106 20083 58002=
KN03 172355Z AUTO 18006KT 10SM OVC032 00/M04 A2994 RMK AO2=
KOAJ 172356Z 00000KT 10SM CLR 04/M01 A3018 RMK AO2 SLP225
     T00391006 10128 20039 50008=
KOCH 172356Z AUTO 16007KT OVC031 13/10 A2980 RMK AO2 SLP097 60001
     T01280100 10133 20117 58002 PWINO RVRNO $=
KOIC 172355Z AUTO 16011KT 10SM OVC036 M00/M05 A2996 RMK AO2 10003
     21004=
KOKK 172356Z AUTO 17017KT 10SM CLR 03/M01 A2969 RMK AO2 SLP062
     T00281011 10033 20022 56018=
KOLE 172355Z AUTO 20008G14KT 10SM SCT100 M02/M06 A2986 RMK AO2=
KOLU 172356Z AUTO 33025G31KT 10SM SCT031 OVC090 01/M07 A2980 RMK
     AO2 PK WND 33031/2352 SLP108 T00061072 10089 20006 53047
     FZRANO=
KOTG 172356Z AUTO 33029G36KT 10SM BKN025 M04/M09 A2976 RMK AO2
     SLP101 6//// T10441094 10050 21044 FZRANO $=
KOTH 172356Z 02010KT 10SM CLR 08/00 A3036 RMK AO2 SLP281 T00830000
     10100 20050 55003=
KOWB 172356Z 16010KT 10SM BKN120 09/01 A2978 RMK AO2 RAB12E25
     SLP086 P0000 60000 T00940011 10117 20078 56017=
KOXC 172356Z 17004KT 10SM OVC044 00/M04 A3009 RMK AO2 SLP213
     T00001039 10028 21011 53016=
KOYM 172355Z AUTO 15003KT 10SM BKN120 M01/M05 A2995 RMK AO2=
KPCD 172355Z AUTO 19013G18KT 10SM SCT075 BKN095 OVC120 09/00 A2969
     RMK AO2 T00881005 10105 20078 TSNO=
KPIB 172356Z AUTO 16008KT 10SM OVC039 14/04 A2998 RMK AO2 SLP151
     6//// T01440044 10189 20144 58008=
KPLR 172355Z AUTO 00000KT 10SM CLR 10/00 A3000 RMK A01=
KPQI 172356Z AUTO 22004KT 10SM OVC033 M05/M09 A3000 RMK AO2 SLP196
     60000 T10501089 11033 21050 51018=
KPRX 172356Z AUTO 15010KT CLR 11/06 A2967 RMK AO2 SLP048 T01060061
     10150 20106 56017 PWINO $=
KPTN 172356Z AUTO 11009KT 10SM SCT025 BKN030 OVC060 16/11 A2994
     RMK AO2 SLP140 T01610111 10178 20161 56016 $=
KPTV 172356Z AUTO RMK AO2 SLPNO 6//// PWINO FZRANO $=
KPUB 172353Z 07008KT 10SM CLR 03/M04 A2983 RMK AO2 SLP091
     T00331039 10144 20033 53040=


068 
SAUS70 KWBC 180000 RRV
METAR
KCOE 172356Z AUTO 25005KT 10SM OVC026 M01/M04 A3029 RMK AO2 SLP305
     T10111039 10017 21022 53007 FZRANO=
KCVN 172356Z AUTO 02008KT 10SM CLR 08/M04 A2974 RMK AO2 SLP071
     T00831044 10161 20083 53038=
KCVO 172356Z AUTO 05009KT 10SM SCT004 OVC008 02/02 A3042 RMK AO2
     SLP308 T00170017 10022 20006 55001 FZRANO=
KCWI 172356Z AUTO 30009KT 10SM FEW060 02/M03 A2954 RMK AO2 SLP014
     T00221028 10122 20022 53014 FZRANO=
KDIJ 172356Z AUTO 34005KT 10SM FEW030 SCT039 OVC050 M08/M13 A2998
     RMK AO2 SLP195 60000 T10831128 11044 21083 53016 $=
KDYR 172356Z AUTO 18008KT 10SM OVC110 12/M01 A2982 RMK AO2 SLP106
     T01221011 10156 20122 57009=
KEAT 172355Z AUTO 00000KT 10SM CLR 03/M06 A3036 RMK AO2 SLP292
     T00331056 10039 21022 53002=
KEEN 172356Z AUTO 19004KT 10SM OVC042 M01/M05 A3006 RMK AO2 SLP188
     T10061050 10017 21011 53013 FZRANO $=
KEGE 172356Z 23010KT 10SM OVC070 02/M12 A2984 RMK AO2 SLP141
     T00171117 10050 21072 53007=
KEHR 172356Z AUTO 20004KT 10SM FEW060 BKN100 BKN120 08/M01 A2978
     RMK AO2 RAB40E55 SLP086 P0000 60000 T00781006 10106 20072
     55007 $=
KEKQ 172356Z AUTO 17009KT 10SM CLR 09/M03 A2991 RMK AO2 SLP133
     T00891033 10133 20089 56011=
KGVQ 172356Z AUTO 19007KT 10SM SCT120 01/M05 A2986 RMK AO2 SLP124
     60000 T00061050 10017 20006 58009 FZRANO=
KGXY 172356Z 04014KT 9SM -SN BKN032 OVC060 M02/M08 A2994 RMK AO2
     SNB2259 SLP190 P0000 6//// T10171078 10106 21017 51041
     FZRANO=
KHDN 172356Z AUTO 21003KT 10SM OVC065 M03/M09 A2982 RMK AO2 SLP151
     T10331089 11006 21067 55007 FZRANO=
KHEF 172356Z 15005KT 10SM CLR 01/M06 A3011 RMK AO2 SLP204
     T00061056 10061 21011 58000 FZRANO=
KHEZ 172356Z AUTO 16011KT 10SM -RA OVC100 12/04 A2990 RMK AO2
     RAE17B48 SLP127 P0000 60000 T01220039 10156 20122 58022=
KHFF 172355Z AUTO 00000KT 10SM CLR 04/M02 A3008 RMK AO2 SLP192
     T00441025 10140 20031 50001 $=
KHLX 172355Z AUTO 17009KT 10SM CLR 03/M07 A3001 RMK AO2=
KHNB 172356Z AUTO 17008G16KT 10SM FEW080 BKN120 09/01 A2977 RMK
     AO2 SLP086 6//// T00890006 10094 20061 56014=
KHND 172356Z 06006KT 10SM CLR 16/M09 A3001 RMK AO2 SLP180
     T01561094 10161 20111 55008 $=
KHYI 172356Z 22008KT 14/11 A2982 RMK AO2 SLP095 T01440106 10156
     20122 58001 PWINO $=
KHYS 172356Z AUTO 36019G24KT 10SM CLR 04/M04 A2975 RMK AO2 PK WND
     01028/2257 SLP091 T00391044 10106 20039 53054=
KILE 172356Z AUTO 19013G18KT 10SM CLR 16/09 A2974 RMK AO2 SLP068
     T01560094 10183 20144 56007=
KIWD 172356Z AUTO 29016G21KT 10SM UP BKN031 OVC043 M01/M06 A2941
     RMK AO2 PK WND 28030/2259 RAB10E17UPB17E21B48SNE10 SLP972
     P0000 60000 T10061056 10033 21006 53033 FZRANO=
KJAC 172356Z 02013KT 10SM FEW043 BKN055 OVC070 M08/M13 A2992 RMK
     AO2 SLP180 60000 T10781133 11006 21078 51020=
KJHW 172356Z AUTO 18011KT 10SM BKN110 M01/M04 A2985 RMK AO2 SLP134
     T10111044 10006 21011 58006 FZRANO=
KJRB 172356Z AUTO 23006KT 10SM FEW050 03/M03 A3014 RMK AO2 PK WND
     28030/2325 SLP205 6//// T00331033 10072 20033 51018 PNO $=
KJRO 172355Z AUTO 03001KT 10SM CLR M00/M03 A2990 RMK AO2 10066
     21010=
KK82 172355Z AUTO 36023G30KT 10SM CLR 04/M05 A2979 RMK AO2 TSNO
     T00361050 10112 20035 401121048=
KKLS 172356Z AUTO 35010KT 10SM CLR 03/01 A3044 RMK AO2 SLP311
     T00280006 10056 20028 56003=
KLBL 172356Z AUTO 03016KT 10SM CLR 09/M04 A2972 RMK AO2 PK WND
     03029/2308 SLP072 T00891039 10161 20089 53056=
KLCI 172356Z AUTO 00000KT 10SM FEW050 M06/M08 A3005 RMK AO2 SLP187
     T10561083 10017 21061 51019 FZRANO=


069 
SAUS70 KWBC 180000 RRP
METAR
KTQH 172355Z AUTO 17007KT 10SM CLR 09/03 A2961 RMK AO2=
KTTS 172355Z AUTO 00000KT 10SM CLR 13/11 A3008 RMK AO2 SLP190
     T01280107 10189 20127 58002 $=
KUNU 172355Z AUTO 24006KT 10SM CLR 03/M04 A2948 RMK AO2 T00281038
     10088 20028=
KVTP 172355Z AUTO 18004KT 10SM BKN070 OVC080 M02/M13 A2993 RMK
     AO2=
KY31 172355Z AUTO 21011G17KT 10SM CLR 03/M04 A2950 RMK AO2
     T00251044 10035 20007=
KACB 172355Z AUTO 20007KT 10SM BKN085 BKN110 05/M02 A2944 RMK AO2
     T00481021 10052 20010=
KBBB 172355Z AUTO 33022G34KT 6SM -SN HZ FEW004 BKN012 OVC016
     M09/M11 A2982 RMK AO2=
KBOS 172354Z 21005KT 10SM CLR 01/M08 A3010 RMK AO2 SLP193
     T00111078 10033 21017 51016=
KBVI 172355Z AUTO 18006KT 10SM CLR 02/M05 A2990 RMK AO2
     T00231047=
KCDI 172355Z AUTO 00000KT 10SM CLR M01/M03 A2991 RMK AO2 T10061033
     10051 21009=
KDYT 172355Z AUTO 32022G33KT 10SM OVC036 M02/M08 A2956 RMK AO2=
KHYX 172355Z AUTO 19019G28KT 10SM CLR 02/M03 A2956 RMK AO2 PK WND
     20028/47 10036 20014=
KI68 172355Z AUTO 15009KT 10SM CLR 04/M00 A2982 RMK AO2=
KIND 172354Z 15009KT 10SM BKN180 04/M02 A2972 RMK AO2 SLP069 4/002
     T00441017 10078 20044 57014 $=
KISQ 172355Z AUTO 22008KT 10SM SCT075 OVC110 03/01 A2937 RMK AO2
     T00250008 10031 20025=
KMOT 172354Z 30016KT 10SM FEW024 M13/M17 A3009 RMK AO2 UPE2255
     SLP226 P0000 60000 T11331167 11089 21133 51030=
KN38 172355Z AUTO 19009KT 10SM CLR M02/M06 A2991 RMK AO2=
KALM 172355Z AUTO 25011G19KT 10SM CLR 13/M08 A2991 RMK AO2=
KBDG 172355Z AUTO 11004KT 10SM CLR 04/M15 A2990 RMK AO2 T00391154
     $=
KBKS 172355Z AUTO 20005KT 10SM CLR 22/15 A2981 RMK AO2 SLP054
     T02170150 10240 20205 56018 $=
KBYY 172355Z AUTO 19007KT 6SM BR OVC160 18/16 A2977 RMK AO2 PRESRR
     T01820163 $=
KCMR 172355Z AUTO 26011G17KT 10SM CLR 07/M10 A3005 RMK AO2=
KCVH 172355Z AUTO 27007KT 9SM CLR 13/07 A3021 RMK A01=
KDNA 172355Z AUTO 28014G28KT 10SM CLR 13/M08 A2999 RMK AO2=
KJAQ 172355Z AUTO 32004KT 10SM CLR 13/M01 A3018 RMK AO1 T01281010
     10136 20114=
KJDD 172355Z AUTO 18006KT 10SM CLR 13/08 A2969 RMK AO2 T01310079
     $=
KLWT 172354Z AUTO 29010KT 9SM BKN038 OVC120 M13/M15 A3019 RMK AO2
     SNE15 SLP287 P0000 60000 T11331150 11094 21133 53002=
KOLM 172354Z 01003KT 10SM SCT014 BKN036 06/03 A3045 RMK AO2 SLP311
     60000 T00610028 10067 20006 55003=
KOLS 172354Z AUTO 25009KT 10SM CLR 13/M07 A3008 RMK AO2 SLP164
     T01331072 10150 20117 53001=
KAKR 172354Z AUTO 18009KT 10SM CLR 02/M06 A2984 RMK AO2 SLP113
     T00221056 10033 20017 58018=
KAUW 172354Z AUTO 25009G17KT 10SM FEW027 OVC035 02/M03 A2941 RMK
     AO2 SLP976 T00171033 10033 20017 53011=
KBAC 172355Z AUTO 34019KT 10SM UP M11/M14 A2998 RMK AO2=
KCKC 172355Z AUTO 33016G30KT 303V003 4SM -SN BKN023 M07/M11 A2934
     RMK AO2=
KCNB 172355Z AUTO 32019G29KT 3SM -SN BKN013 BKN018 OVC022 M06/M09
     A2988 RMK AO2 T10651093 10042 21065=
KD57 172355Z AUTO 34014G24KT 10SM OVC024 M11/M17 A3009 RMK AO2=
KD60 172355Z AUTO 34018G25KT 2 1/2SM BR OVC019 M14/M16 A3014 RMK
     AO2=
KDRM 172355Z AUTO 20008G15KT 10SM -SN SCT017 BKN023 OVC028 03/M02
     A2941 RMK AO2 T00271016 10027 20002=
KIPT 172354Z VRB04KT 10SM CLR 01/M05 A3003 RMK AO2 SLP173
     T00061050 10028 21011 58001=
KJMR 172355Z AUTO 32015G26KT 10SM BKN039 OVC045 M03/M10 A2966 RMK
     AO2=
KLNK 172354Z 36023G34KT 10SM OVC120 04/M04 A2975 RMK AO2 PK WND
     01035/2324 SLP084 T00441044 10117 20044 51046=
KMFI 172354Z AUTO 26008KT 10SM FEW027 OVC033 02/M03 A2944 RMK AO2
     SLP983 T00221028 10033 20022 51014=
KMQJ 172355Z AUTO 17010KT 10SM BKN170 OVC190 04/M00 A2973 RMK AO2
     T00391005 $=


070 
SAUS80 KWBC 180000 RRB
METAR
KCNY 172353Z AUTO 33008KT 10SM CLR 03/M12 A2987 RMK AO2 SLP147
     T00331117 10056 21006 55008=
KGEG 172353Z 15005KT 10SM FEW010 FEW020 FEW055 M01/M05 A3028 RMK
     AO2 SLP281 T10111050 11011 21039 53004=
KLND 172353Z AUTO 09003KT 1/4SM SN FZFG VV012 M08/M10 A2998 RMK
     AO2 SLP205 P0004 60025 T10831100 11022 21083 53019=
KLXV 172353Z AUTO 32007KT 10SM SCT055 OVC080 M04/M14 A2981 RMK AO2
     SLP082 T10441144 11006 21044 50002=
KDAB 172353Z 00000KT 10SM FEW050 12/08 A3012 RMK AO2 SLP197
     T01220083 10183 20122 53001=
KSAV 172353Z 13006KT 10SM FU FEW250 09/03 A3011 RMK AO2 SLP198
     T00890028 50006=
KMSO 172353Z 00000KT 3SM -SN BR OVC036 M04/M06 A3021 RMK AO2
     SLP267 P0000 60003 T10391056 11011 21044 53007=
KYKM 172353Z 00000KT 10SM FEW060 07/M05 A3035 RMK AO2 SLP290
     T00671050 10078 20022 55000=
KLBB 172353Z 28025G34KT 7SM FEW000 17/M06 A2966 RMK AO2 PK WND
     27040/2303 SLP019 BLDU FEW000 BLDU ALQDS T01671061 10194
     20167 53021=
KRNM 172353Z 25007KT 10SM CLR 14/03 A3014 RMK AO2 SLP209 T01390028
     10156 20111 56012=
KSDM 172353Z 25006KT 10SM CLR 14/06 A3017 RMK AO2 SLP214 T01440061
     10167 20139 56009 $=
KSEA 172353Z 02007KT 10SM BKN031 05/01 A3045 RMK AO2 SLP320
     T00500006 10061 20028 53002=
KLWD 172353Z AUTO 35010KT 10SM CLR 04/M01 A2961 RMK AO2 SLP036
     T00441011 10100 20044 53027=
PHJR 172353Z 20009KT 10SM FEW060 27/19 A2993 RMK AO2 SLP141 60004
     T02720189 10283 20211 56021=
PHMK 172354Z 03008KT 10SM BKN022 BKN075 24/18 A2994 RMK AO2 SLP142
     60000 T02440178 10256 20211 56020=
PHOG 172354Z 34008KT 10SM FEW020 SCT030 BKN060 23/19 A2992 RMK AO2
     RAE08B40E50 SLP137 P0000 60000 T02330194 10278 20194
     56021=
KMWN 172349Z 28029KT 1/16SM -SN FZFG DRSN VV000 M14/M14 RMK VRY
     LGT ICG 60000 4/006 931002 11133 21146=
PHJR 172353Z 20009KT 10SM FEW060 27/19 A2993 RMK AO2 SLP141 60004
     T02720189 10283 20211 56021=
KPZQ 172355Z AUTO 19007KT 10SM CLR 02/M04 A2944 RMK AO2 T00181040
     10025 20002=
KSYN 172355Z AUTO 31020G28KT 10SM BKN037 M01/M07 A2961 RMK AO2
     6//// T10061066=
KACY 172354Z 19004KT 10SM CLR 00/M07 A3015 RMK AO2 SLP211
     T00001067 10067 20000 51020=
KAPN 172354Z AUTO 19011KT 10SM CLR 02/M04 A2947 RMK AO2 SLP987
     T00171039 10028 20006 56013=
KCAR 172354Z AUTO 00000KT 10SM BKN033 M05/M10 A2997 RMK AO2 SLP164
     T10501100 11033 21050 51017=
KORH 172354Z 24007KT 10SM OVC044 M02/M07 A3005 RMK AO2 SLP190
     T10171072 10011 21028 51016=
KATT 172351Z AUTO VRB04KT 10SM CLR 16/10 A2980 RMK AO2 SLP091
     T01560100 10161 20133 56005=
KAVP 172354Z VRB04KT 10SM CLR 00/M07 A3001 RMK AO2 SLP173
     T00001067 10006 21006 58001=
KLAN 172353Z 18019G28KT 10SM CLR 04/M03 A2960 RMK AO2 PK WND
     16028/2344 SLP033 T00391028 58019 $=
KBTV 172354Z 19009KT 10SM OVC045 M01/M06 A2999 RMK AO2 SNE18
     SLP159 4/003 P0000 60000 T10061056 11006 21028 52002=
KNYC 172351Z AUTO 24004KT 10SM FEW050 04/M07 A3013 RMK AO2 SLP195
     T00391067 10056 20033 51016=
KBUF 172354Z 18012KT 10SM BKN130 OVC170 02/M04 A2985 RMK AO2
     SLP116 60000 T00171044 10017 20006 58016=
KCRW 172354Z 00000KT 10SM FEW250 03/M04 A2993 RMK AO2 SLP141 4/002
     T00331044 10078 20033 58015=
KCOS 172354Z 05012KT 10SM FEW030 FEW080 SCT200 00/M06 A2980 RMK
     AO2 SLP100 T00001056 10117 20000 $=
KDSM 172354Z 34007KT 10SM SCT120 SCT250 05/M04 A2964 RMK AO2
     SLP043 T00501039 10100 20050 53032=
KTKC 172355Z AUTO 33023G30KT 10SM BKN018 BKN022 BKN027 M06/M10
     A2978 RMK AO2=
KPOV 172355Z AUTO 15003KT 10SM CLR 00/M06 A2985 RMK AO2 T00031061
     PWINO=


072 
SAUS70 KWBC 180000 RRS
METAR
KOWA 172355Z AUTO 32020KT 10SM BKN028 BKN036 OVC130 M02/M07 A2961
     RMK AO2 PK WND 31027/2320 T10171066=
KPHL 172354Z 20006KT 10SM CLR 02/M06 A3014 RMK AO2 SLP205
     T00221061 10067 20017 51015 $=
KPTD 172355Z AUTO 18008KT 10SM OVC039 M00/M03 A2991 RMK AO2=
KRDG 172354Z 16004KT 9SM CLR 02/M07 A3008 RMK AO2 SLP196 T00171067
     10056 20011 50007=
KRST 172354Z 33021G29KT 10SM OVC025 M01/M07 A2958 RMK AO2 PK WND
     31036/2320 SLP030 T10111067 10028 21011 53027=
KS24 172355Z AUTO 18013G24KT 10SM CLR 03/M03 A2976 RMK AO2=
KS32 172355Z AUTO 33018KT 4SM HZ FEW017 SCT024 M11/M13 A2999 RMK
     AO2 TSNO=
KSBY 172354Z 13003KT 10SM CLR M03/M06 A3017 RMK AO2 SNE13 SLP220
     P0000 60000 T10281061 10061 21028 51012=
KTOB 172355Z AUTO 30013G24KT 10SM OVC030 M02/M06 A2959 RMK AO2=
KTWM 172355Z AUTO 30009G25KT 271V001 10SM OVC037 M02/M08 A2950 RMK
     AO2=
KULM 172355Z AUTO 32027G36KT 10SM CLR M06/M11 A2972 RMK AO2=
KVAY 172354Z AUTO 19003KT 10SM CLR M03/M08 A3014 RMK AO2 SLP206
     T10281083 10061 21028 51017=
KEUG 172354Z 34009KT 4SM BR OVC005 03/01 A3040 RMK AO2 SLP298
     T00280011 10028 20017 55004=
KF70 172355Z AUTO 19006KT 10SM CLR 15/04 A3014 RMK AO2=
KFFZ 172354Z AUTO 26005KT 10SM CLR 17/M03 A3005 RMK AO2 SLP163
     T01671028 10172 20139 55006=
KHAF 172355Z AUTO 32005KT 7SM SCT017 11/08 A3023 RMK AO2=
KLRU 172355Z AUTO 26025G36KT 7SM SCT030 SCT036 11/M07 A2996 RMK
     AO2 T01051072 10121 20100=
KMAN 172355Z AUTO 31013G21KT 10SM CLR 04/M08 A3022 RMK A01=
KPLU 172355Z AUTO 00000KT 10SM 05/02 A3043 RMK AO2=
KRBL 172354Z AUTO 00000KT 10SM CLR 16/02 A3019 RMK AO2 SLP222
     T01560017 10156 20078 55006=
KRKS 172354Z AUTO 29010G25KT 7SM -SN BKN037 OVC048 M04/M08 A2987
     RMK AO2 PK WND 28026/2333 SNE03B26 SLP142 P0000 60000
     T10391083 10011 21039 53015=
KRPH 172355Z AUTO 23010KT 7SM CLR 20/M00 A2956 RMK AO2 T02041001
     10220 20149 55006=
KSJN 172354Z AUTO 24014G22KT 10SM FEW060 08/M06 A2997 RMK AO2
     SLP132 T00831061 10100 20072 55001=
KSLC 172354Z 32005KT 8SM BKN044 BKN060 OVC080 02/M03 A3001 RMK AO2
     SLP172 SH DSNT N BINOVC NW T00221033 10028 20006 53008 $=
KT69 172355Z AUTO 19011KT 10SM CLR 20/17 A2980 RMK A01=
KTMA 172355Z AUTO 00000KT 10SM OVC220 10/03 A3009 RMK AO2
     T00990025 $=
KTSP 172355Z AUTO 30017G23KT 9SM CLR 09/M11 A3016 RMK AO2=
KVCB 172353Z AUTO 22006KT 10SM CLR 15/07 A3018 RMK AO2 SLP220
     T01500067 10161 20094 55007=
KFBL 172355Z AUTO 32010G19KT 10SM SCT030 M01/M06 A2963 RMK AO2=
KFKA 172355Z AUTO 31021G32KT 10SM BKN027 OVC110 M01/M05 A2956 RMK
     AO2=
KFSO 172355Z AUTO 17008KT 10SM OVC046 00/M06 A2997 RMK AO2
     T10051060 11005 21021=
KGWR 172355Z AUTO 35021G31KT 10SM SCT018 BKN024 M10/M11 A2996 RMK
     A01=
KGYL 172355Z AUTO 31020G31KT 10SM CLR M05/M09 A2969 RMK AO2
     T10511095 10030 21051=
KPLN 172354Z AUTO 22015G23KT 10SM OVC046 05/M03 A2940 RMK AO2 PK
     WND 22032/2313 RAB06E27 SLP963 P0000 60000 T00501028 10050
     20022 58007=
KPTW 172354Z AUTO 00000KT 10SM CLR 01/M06 A3012 RMK AO2 SLP200
     T00061061 10056 20000 50012=
KTEW 172355Z AUTO 18009G17KT 10SM CLR 02/M02 A2962 RMK AO2
     T00201017 10042 20020=
KTQE 172354Z AUTO 34028G36KT 10SM OVC100 02/M08 A2977 RMK AO2 PK
     WND 34038/2337 SLP086 T00171083 10094 20017 53044=
KUKT 172355Z AUTO 00000KT 10SM CLR M02/M04 A3009 RMK AO2=
KUMP 172355Z AUTO 17012KT 10SM BKN180 BKN200 OVC220 05/M01 A2973
     RMK AO2 T00481006 $=
KVLL 172355Z AUTO 19013G17KT 10SM CLR 02/M03 A2970 RMK AO2 10041
     20016=
KVSF 172354Z AUTO 00000KT 10SM OVC047 M01/M07 A3004 RMK AO2 SLP182
     T10061067 10017 21011 51011=


073 
SAUS80 KWBC 180000 RRC
METAR
KRFD 172354Z 18010KT 10SM FEW200 05/M02 A2953 RMK AO2 SLP006
     T00501022 10122 20050 53009=
KP58 172355Z AUTO 18014G29KT 03/M03 A2954 RMK AO1 PK WND
     18029/2354 SLP011 T00281028 10033 20006 56025=
KINL 172354Z AUTO 33014G24KT 3SM -SN OVC027 M09/M13 A2969 RMK AO2
     PK WND 34033/2321 VIS 2 RWY 31 UPB34E36SNE34B36 SLP073 P0000
     60001 T10941133 11006 21094 51050 $=
KMVL 172354Z AUTO 17004KT 10SM OVC044 M03/M07 A2999 RMK AO2 SLP170
     T10281072 11022 21039 51009=
KNY0 172355Z AUTO 10004KT 10SM OVC039 M03/M05 A3001 RMK AO2
     T10331051 11019 21033=
KROC 172354Z 17007KT 10SM FEW040 SCT120 BKN200 01/M06 A2989 RMK
     AO2 SLP131 4/002 T00111056 10028 20011 58013=
KSYR 172354Z 16006KT 10SM BKN043 BKN150 BKN200 02/M04 A2997 RMK
     AO2 SLP148 4/011 T00171044 10028 20017 55001=
KPIA 172354Z 21005KT 10SM OVC060 05/M01 A2959 RMK AO2 SLP024
     T00501006 10100 20050 53001=
KROS 172355Z AUTO 32013G19KT 10SM OVC037 M02/M07 A2962 RMK AO2=
KSBN 172354Z 19013KT 10SM CLR 04/M02 A2963 RMK AO2 PK WND
     17026/2304 SLP040 T00441022 10061 20039 56014=
KSNC 172355Z AUTO 00000KT 10SM CLR M00/M03 A3010 RMK AO2=
KSOW 172355Z AUTO 22013G21KT 10SM CLR 05/M05 A3004 RMK AO2=
KFWA 172354Z 17011KT 10SM SCT230 04/M03 A2970 RMK AO2 SLP065 4/001
     T00391028 10056 20028 56022=
K77S 172355Z AUTO 33005KT 10SM OVC008 02/02 A3038 RMK A01=
KP69 172352Z AUTO 00000KT 02/M01 A3032 RMK AO1 SLP291 T00171011
     10028 20017 53005=
PHJR 172353Z 20009KT 10SM FEW060 27/19 A2993 RMK AO2 SLP141 60004
     T02720189 10283 20211 56021=
PHNL 172353Z 18011KT 10SM FEW023 SCT038 SCT050 26/19 A2992 RMK AO2
     SLP132 T02610189 10278 20211 56021 PNO VISNO RWY04R $=
PHTO 172353Z 01009KT 8SM CLR 27/21 A2989 RMK AO2 SLP121 T02670206
     10267 20194 56035=
K9Y1 172355Z AUTO 33022G28KT 10SM -SN FEW015 BKN019 M12/M15 A3011
     RMK AO2 PK WND 32032/34 11068 21123=
KAAT 172355Z AUTO 34005KT 10SM CLR 06/M06 A3018 RMK AO2 SLP240
     T00611056 10072 21006 53004=
KANJ 172355Z AUTO 17004KT 10SM OVC012 02/M01 A2939 RMK AO2 SNE18
     SLP959 P0000 60002 T00171006 10022 21006 55017=
KAST 172355Z AUTO 02004KT 10SM CLR 08/03 A3041 RMK AO2 SLP296
     T00830028 10094 20011 55004=
KEKX 172355Z AUTO 19006KT 10SM CLR 07/M01 A2981 RMK AO2 T00711007
     10102 20057=
KGPI 172355Z 01006KT 10SM CLR M06/M14 A3024 RMK AO2 SLP285
     T10611144 11033 21067 53007=
KGPZ 172356Z AUTO 32025G34KT 6SM -SN OVC029 M08/M13 A2968 RMK AO2
     PK WND 31034/2355 SLP072 P0000 60000 T10831128 10011 21083
     53077 FZRANO=
KCNK 172355Z AUTO 01020G34KT 10SM CLR 04/M03 A2973 RMK AO2 PK WND
     36034/2349 SLP074 T00441028 10083 20033 51051=
KDLH 172355Z 31014G33KT 9SM -SN OVC032 M04/M11 A2952 RMK AO2 PK
     WND 34035/2333 SLP016 P0000 60000 T10391106 10017 21039
     53061=
KDVL 172356Z AUTO 33016KT 10SM BKN030 M11/M16 A3002 RMK AO2 PK WND
     34027/2305 SNE10 SLP197 P0000 60000 T11111156 11078 21117
     51041 FZRANO=
KDWU 172356Z AUTO 09003KT 10SM CLR 02/M03 A2991 RMK AO2 SLP136
     T00221033 10072 20011 56024 FZRANO=
KEAR 172356Z AUTO 35023G33KT 10SM SCT036 OVC085 02/M06 A2982 RMK
     AO2 PK WND 35035/2346 SLP113 T00221061 10094 20022 53044
     FZRANO=
KHON 172355Z AUTO 34021G29KT 10SM BKN033 M05/M10 A2994 RMK AO2 PK
     WND 35034/2342 SLP156 T10501100 10044 21050 53050=
KIRK 172355Z AUTO 30004KT 10SM BKN050 06/M01 A2958 RMK AO2 SLP026
     T00611011 10106 20061 53010=
KISM 172356Z 08005KT 10SM FEW080 16/08 A3011 RMK AO2 SLP197 6////
     T01610083 10206 20161 53006 PNO $=
KLIC 172355Z AUTO 01012KT 10SM OVC020 M01/M05 A2984 RMK AO2 SLP117
     T10111050 10056 21011 52033=


074 
SAUS70 KWBC 180000
METAR
KBYS 172355Z AUTO 18007KT 10SM CLR 18/M08 A2999 RMK AO2 SLP151
     T01791083 10184 20107 56010 $=
KBYS 172355Z AUTO 18007KT 10SM CLR 18/M08 A2999 RMK AO2 SLP151
     T01791083 10184 20107 56010 $=
KFST 172353Z AUTO 29023G36KT 8SM OVC033 18/M08 A2985 RMK AO2 PK
     WND 28040/2258 SLP074 T01831078 10217 20183 53010=
KLAA 172353Z AUTO 04014G22KT 10SM CLR 06/M06 A2979 RMK AO2 PK WND
     05031/2257 SLP095 T00561056 10139 20056 53041=
KLVS 172353Z AUTO 36007KT 10SM CLR 06/M18 A2977 RMK AO2 SLP048
     T00611183 10117 20061 53020 $=
K04W 172355Z AUTO 32017G21KT 10SM OVC030 M02/M08 A2961 RMK AO2=
K06D 172355Z AUTO 33021G28KT 8SM CLR M14/M18 A3000 RMK AO2=
K0S9 172355Z AUTO VRB05KT 10SM BKN023 06/02 A3046 RMK AO2=
K0V4 172355Z AUTO 14004KT 10SM CLR 00/M04 A3009 RMK AO1=
K0VG 172355Z AUTO 00000KT 10SM CLR 02/M05 A2996 RMK AO2=
K1R7 172355Z AUTO 14004KT 10SM SCT032 BKN055 OVC110 12/04 A2993
     RMK A01 TSNO=
K21D 172355Z AUTO 31014G26KT 10SM OVC033 M01/M06 A2960 RMK AO2=
K22N 172355Z AUTO 00000KT 10SM CLR M03/M05 A3008 RMK AO2=
K24J 172355Z AUTO 00000KT 10SM CLR 10/03 A3006 RMK A01=
K2D5 172355Z AUTO 34024G29KT BKN021 OVC026 M10/M15 A2998 RMK
     AO2=
K2R2 172355Z AUTO 17008KT 10SM CLR 05/M01 A2971 RMK AO2 T00551007
     $=
K35A 172355Z AUTO 13003KT 10SM CLR 07/M03 A3012 RMK A02 T00741029
     10138 20072 401381037=
K3AU 172355Z AUTO 34011G15KT 10SM CLR 02/M03 A2961 RMK AO2=
K3T5 172355Z AUTO 18003KT 10SM BKN032 OVC190 14/13 A2980 RMK AO2
     60000 T01420129 10158 20131 50016 $=
K42J 172355Z AUTO 09005KT 10SM CLR 09/M02 A3009 RMK A01=
K46D 172355Z AUTO 34009G14KT 7SM FEW010 BKN015 OVC031 M11/M12
     A3001 RMK A01=
K4A6 172355Z AUTO 00000KT 10SM FEW036 10/M01 A2998 RMK AO2=
K4B8 172355Z AUTO 19003KT 10SM SCT050 00/M04 A3010 RMK AO2
     T00021041 $=
K4M3 172355Z AUTO 17010G18KT 5SM HZ FEW035 BKN048 OVC065 08/05
     A2977 RMK A01 P0002=
K4M9 172355Z AUTO 19021G28KT 8SM FEW046 SCT055 BKN065 10/04 A2975
     RMK A01=
K4O4 172355Z AUTO 14007KT 10SM CLR 10/06 A2970 RMK AO2=
K4S2 172355Z AUTO 33003KT 10SM CLR 06/M01 A3037 RMK AO2 AWOS
     NOTAMED OS=
K60R 172355Z AUTO 19007KT 10SM BKN030 OVC190 15/15 A2978 RMK AO2
     SLP002 T01540146 $=
K6B9 172355Z AUTO VRB05G11KT 10SM OVC035 00/M03 A2992 RMK AO2=
K6S2 172355Z AUTO 00000KT 10SM CLR 09/03 A3037 RMK AO2=
K7L2 172355Z AUTO 34015G22KT 9SM FEW017 OVC030 M10/M14 A3009 RMK
     AO2=
K8B0 172355Z AUTO 00000KT 10SM BKN023 OVC041 M06/M10 A2994 RMK
     AO2=
K8D4 172355Z AUTO 18009G16KT 10SM CLR 05/M03 A2952 RMK AO2 10062
     20046=
K96D 172355Z AUTO 33021G27KT 10SM SCT014 M13/M17 A3002 RMK AO2=
KAAO 172354Z AUTO 34020G26KT 10SM CLR 02/M02 A2961 RMK AO2 PK WND
     34027/2323 SLP033 T00221022 10094 20022 53034=
KACK 172353Z 10SM CLR M02/M07 A3014 RMK AO2 SLP206 T10221072 10006
     21022 53027 $=
KBFD 172353Z AUTO 17005KT 10SM CLR M01/M04 A2989 RMK AO2 SLP142
     T10111044 10000 21011 55005=
KCDD 172353Z AUTO 35013G22KT 10SM SCT024 BKN030 OVC035 M08/M09
     A2965 RMK AO2 TSNO=
KHAO 172353Z AUTO 00000KT 10SM CLR 08/M03 A2984 RMK AO2 SLP111
     T00831028 10167 20056 56013 $=
KHGR 172353Z 14007KT 10SM CLR 02/M06 A3005 RMK AO2 SLP191
     T00171056 10050 20011 58001 $=
KIWI 172353Z AUTO 00000KT 10SM CLR M06/M11 A3010 RMK AO2 SLP193
     T10611106 10011 21061 53017=
KMVY 172353Z AUTO 18005KT 10SM CLR M05/M09 A3013 RMK AO2 SLP204
     T10501094 10022 21072 53023=
KOSH 172353Z 23004KT 10SM SCT100 BKN120 05/M02 A2944 RMK AO2
     SLP979 T00501022 53008 $=
KRME 172353Z 12006KT 10SM OVC043 M01/M03 A2999 RMK AO2 SLP160
     T10061033 10000 21011 58002=


075 
SATO31 NFTF 180000
METAR NFTV 180000Z 02007KT 9999 FEW016TCU 29/24 Q1009=

METAR NFTL 180000Z 34008KT 9999 FEW017 30/24 Q1009=

METAR NFTF 180000Z 28006KT 9999 FEW016TCU 30/24 Q1009=


113 
SAPR01 SPIM 180000
METAR SPJC 180000Z 16013KT CAVOK 24/18 Q1014 NOSIG RMK PP000=


115 
SAHO31 MHTG 180000
METAR MHRO 180000Z 02005KT CAVOK 26/21 Q1016 A3000 NOSIG=
METAR MHLC 180000Z 12003KT 9999 FEW040 24/22 Q1016 A3000 NOSIG=
METAR MHLM 180000Z 03006KT 9999 FEW022 27/20 Q1015 A2997 NOSIG=
METAR MHTG 180000Z 05010KT 9999 FEW038 23/12 Q1020 A3012 NOSIG=


119 
SAPK31 OPST 180000
METAR OPST 180000Z 00000KT 0600 FG FEW040 SCT100 09/08 Q1017 BECMG 
0150 RH93=


485 
SAPM31 MPTO 180000
METAR MPMG 180000Z 34004KT 9999 SCT017 27/23 Q1012 NOSIG=


486 
SAFJ31 NFNL 180000
METAR NFNL 180000Z 35005KT 9999 SCT027 32/24 Q1008=


705 
SAGB20 GBYD 180000
METAR GBYD 180000Z 02005KT 9000 NSC 22/05 Q1015=


804 
SAUS14 KAWN 180000 RRX
METAR KAAT 172355Z AUTO 34005KT 10SM CLR 06/M06 A3018 RMK AO2 SLP240
      T00611056 10072 21006 53004=
METAR KAJO 172356Z AUTO 29006KT 10SM CLR 16/06 A3015 RMK AO2 SLP207
      T01610056 10178 20111 56014=
METAR KCOD 172356Z AUTO 36011G16KT 9SM -SN OVC037 M10/M13 A3010 RMK
      AO2 SLP241 P0000 60000 T11001133 11072 21100 53016 FZRANO=
METAR KCOE 172356Z AUTO 25005KT 10SM OVC026 M01/M04 A3029 RMK AO2 SLP305
      T10111039 10017 21022 53007 FZRANO=
METAR KDIJ 172356Z AUTO 34005KT 10SM FEW030 SCT039 OVC050 M08/M13 A2998
      RMK AO2 SLP195 60000 T10831128 11044 21083 53016 $=
METAR KHDN 172356Z AUTO 21003KT 10SM OVC065 M03/M09 A2982 RMK AO2 SLP151
      T10331089 11006 21067 55007 FZRANO=
METAR KOCH 172356Z AUTO 16007KT OVC031 13/10 A2980 RMK AO2 SLP097 60001
      T01280100 10133 20117 58002 PWINO RVRNO $=
METAR KOTH 172356Z 02010KT 10SM CLR 08/00 A3036 RMK AO2 SLP281 T00830000
      10100 20050 55003=
METAR KPRX 172356Z AUTO 15010KT CLR 11/06 A2967 RMK AO2 SLP048 T01060061
      10150 20106 56017 PWINO $=
METAR KPVU 172356Z 31017KT 10SM SCT080 OVC090 02/M04 A2996 RMK AO2
      SLP170 T00221039 10050 20000 53004=
METAR PANU 172356Z AUTO 05012G17KT 1/2SM SN FZFG OVC010 M12/M13 A2994
      RMK AO2 CIG 005V013 SLP049 P0000 60000 T11171133 11117 21139
      56005 FZRANO=
METAR PAPE 172356Z AUTO 12023G28KT 9SM -RA OVC010 06/04 A2954 RMK AO2
      PK WND 13029/2303 RAE08B48 SLP002 P0000 60000 T00560044
      10061 20050 55001=
METAR PAVC 172356Z AUTO 08026G32KT 2SM -RA BR OVC007 05/04 A2922 RMK
      AO2 PK WND 09033/2332 SLP896 6//// T00500044 10050 20044
      58048 PNO $=


805 
SAUS14 KAWN 180000 RRX
METAR KAFF 172355Z AUTO 36004KT 10SM OVC025 00/M06 A2979 RMK AO2 SLP086
      T00031059 10121 20003 52026=
METAR KARM 172355Z AUTO 00000KT 10SM CLR 18/15 A2983 RMK AO2 T01770151
      10188 20162 TSNO=
METAR KAST 172355Z AUTO 02004KT 10SM CLR 08/03 A3041 RMK AO2 SLP296
      T00830028 10094 20011 55004=
METAR KAWO 172356Z AUTO 33005KT 10SM OVC028 06/01 A3046 RMK AO2 SLP322
      T00560011 10061 20017 55001=
METAR KBOK 172356Z AUTO 29003KT 10SM CLR A3022 RMK AO2 SLPNO 6////
      56010 PNO $=
METAR KCFO 172347Z 01019G22KT 10SM OVC018 M02/M06 A2989=
METAR KCVO 172356Z AUTO 05009KT 10SM SCT004 OVC008 02/02 A3042 RMK
      AO2 SLP308 T00170017 10022 20006 55001 FZRANO=
METAR KGXY 172356Z 04014KT 9SM -SN BKN032 OVC060 M02/M08 A2994 RMK
      AO2 SNB2259 SLP190 P0000 6//// T10171078 10106 21017 51041
      FZRANO=
METAR KHND 172356Z 06006KT 10SM CLR 16/M09 A3001 RMK AO2 SLP180 T01561094
      10161 20111 55008 $=
METAR KJAC 172356Z 02013KT 10SM FEW043 BKN055 OVC070 M08/M13 A2992
      RMK AO2 SLP180 60000 T10781133 11006 21078 51020=
METAR KPVF 172355Z AUTO 00000KT 10SM CLR 12/M04 A3019 RMK AO1=
METAR KPWT 172356Z AUTO 06004KT 10SM BKN020 OVC026 06/03 A3045 RMK
      AO2 SLP319 T00560028 10061 20050 53001=
METAR KT82 172355Z AUTO 20009G14KT 10SM CLR 15/07 A2980 RMK AO2 T01450068
      10170 20117=
METAR PFKO 172356Z AUTO 14024KT 10SM -RA OVC035 01/M01 RMK AO2 PK WND
      14031/2302 UPB53E56RAB56 SLPNO P0000 60000 T00061011 10006
      21011 FZRANO $=
METAR PFZK 172356Z AUTO 12011G19KT 10SM OVC070 04/M01 A2959 RMK AO2
      SLP018 T00441006 10056 20028 51012=


806 
SAUS14 KAWN 180000 RRX
METAR K11R 172355Z AUTO 00000KT 10SM OVC030 16/12 A2981 RMK AO2 T01600122
      10170 20142=
METAR K3N8 172355Z AUTO 33021G25KT 10SM SCT023 M10/M15 A2987 RMK AO2
      T11051147 11043 21106=
METAR K66R 172355Z AUTO 00000KT 10SM OVC023 17/14 A2983 RMK AO2 T01680140
      10173 20143=
METAR K6R6 172351Z AUTO 25011KT 22/00 A2981 RMK AO1 SLP073 T02220000
      10250 20189 53003=
METAR K82V 172355Z AUTO 01017G27KT 10SM M04/M10 A2987 RMK AO2=
METAR KBPC 172355Z AUTO 10SM CLR 13/M03 A2965 RMK AO2=
METAR KDRA 172353Z AUTO 23009KT 10SM CLR 13/M10 A3001 RMK AO2 SLP155
      T01331100 10139 20083 55007=
METAR KDTA 172355Z AUTO 08005KT 10SM CLR 07/M11 A2994 RMK AO1=
METAR KDWX 172355Z AUTO 27015G20KT SCT032 BKN038 OVC047 M01/M04 A2984
      RMK AO2 T10101042 10200 21269 PWINO=
METAR KEDW 172355Z 29020G24KT 50SM CLR 17/M14 A3003 RMK AO2A PK WND
      29027/27 SLP167 T01651141 10195 20146 55003=
METAR KHQZ 172350Z 16012G18KT 10SM CLR 13/07 A2966=
METAR KLUD 172355Z AUTO 16009KT 7SM CLR 17/04 A2958 RMK AO2 T01660042
      10192 20125=
METAR KMNH 172355Z AUTO 04010G15KT 10SM BKN011 OVC017 M03/M05 A2982
      RMK AO2=
METAR KMYP 172356Z AUTO 28029G41KT M1/4SM -SN VV000 M10/M15 A2991 RMK
      AO2 VIS M1/4V2=
METAR KPYX 172355Z AUTO 03019G29KT 10SM CLR 10/M01 A2966 RMK AO2 T01041008
      10167 20097=
METAR KSLI 172355Z 00000KT 10SM FEW030 15/07 A3012 RMK AO2A SLP203
      T01540069 10173 20144 57013=
METAR KVTP 172355Z AUTO 18004KT 10SM BKN070 OVC080 M02/M13 A2993 RMK
      AO2=


807 
SAEW KAWN 180000 RRP
METAR EDAH 172350Z AUTO 26006KT 1000 R28/1600D // VV/// M01/M01 Q1034=
METAR EDFH 172350Z 12007KT 090V150 0450 R21/1000U FZFG OVC002 M02/M03
      Q1032=
METAR EDHI 172350Z AUTO 24005KT 210V270 1100 R05/1300D // VV/// M01/M02
      Q1036=
METAR EDHK 172350Z AUTO 27009KT 1000 R26/1400U // VV/// M00/M00 Q1035=
METAR EDHL 172350Z AUTO 25006KT 220V280 2100 // SCT002/// OVC006///
      M01/M02 Q1035=
METAR EDLN 172350Z AUTO 12003KT 0500 R13/0600N // VV/// 00/00 Q1035=
METAR EDLP 172350Z 13003KT 010V180 CAVOK M03/M04 Q1034=
METAR EDLW 172350Z AUTO 11003KT 040V140 0450 0400 R06/0550N // VV///
      M03/M03 Q1035=
METAR EDMA 172350Z AUTO 10006KT 9999 // OVC011/// 00/M02 Q1032=
METAR EDMO 172350Z AUTO 10007KT 7000 OVC005 M02/M02 Q1031=
METAR EDNY 172350Z AUTO 08004KT 060V120 9999 // OVC013/// M00/M03 Q1031=
METAR EDQM 172350Z AUTO 11003KT 070V150 7000 // VV/// M04/M04 Q1033=
METAR EDSB 172350Z AUTO 02006KT 9999 NCD 00/M02 Q1032=
METAR EDTL 172350Z AUTO 01004KT 6000 // OVC022/// 00/M00 Q1032=
METAR EDVE 172350Z AUTO VRB01KT 2400 1300 R26/P2000N BR OVC001 M03/M03
      Q1035=
METAR EDVK 172350Z AUTO VRB02KT 0400 R27/0500N // OVC002/// M03/M03
      Q1035=
METAR EDXW 172350Z AUTO 25012KT 9999 // OVC009/// 06/04 Q1034=
METAR ETAD 172355Z AUTO 07009KT 6000 BR OVC001 M00/M01 A3046 RMK AO2
      VIS 2800 RWY22 SLP321 T10031010 10003 21036 56015 FZRANO $=
METAR ETAR 172355Z 06010KT 9999 OVC011 01/01 A3049 RMK AO2A SLP338
      T00111011 10015 20008 57014 $=
METAR ETIC 172355Z AUTO 07005KT 9999 CLR M01/M03 A3051 RMK AO2 SLP350
      T10151034 10014 21021 57009 $=


810 
SAZZ40 KAWN 180000 RRX
METAR KAFF 172355Z AUTO 36004KT 10SM OVC025 00/M06 A2979 RMK AO2 SLP086
      T00031059 10121 20003 52026=
METAR KBLV 172355Z 17011KT 10SM OVC100 09/M02 A2965 RMK AO2A SLP047
      60000 T00851016 10092 20071 55003=
METAR KEDW 172355Z 29020G24KT 50SM CLR 17/M14 A3003 RMK AO2A PK WND
      29027/27 SLP167 T01651141 10195 20146 55003=
METAR KFAF 172355Z 14006KT 10SM CLR 02/M05 A3013 RMK AO2A SLP207 T00201052
      10085 20020 50008 $=
METAR KIAB 172355Z 36016KT 10SM SCT170 04/M02 A2960 RMK AO2A SLP032
      T00411021 10116 20040 4/000 52034=
METAR KMIB 172355Z 34013KT 10SM FEW025 M13/M17 A3007 RMK AO2A SLP217
      60000 T11301170 11085 21131 52029 $=
METAR KPOE 172355Z 15017G22KT 8SM FEW100 SCT120 OVC150 14/08 A2975
      RMK AO2A PRESFR SLP078 60000 T01370079 10150 20117 57053=
METAR KSGH 172356Z AUTO 16009KT 10SM CLR 02/M03 A2983 RMK AO2 SLP113
      T00171033 10028 20017 56018=
METAR KSLI 172355Z 00000KT 10SM FEW030 15/07 A3012 RMK AO2A SLP203
      T01540069 10173 20144 57013=
METAR NSTU 172350Z VRB05KT 12SM -SHRA BKN018CB BKN100 29/25 A2979 RMK
      SHRAB47 CB ALQDS SLP088 60000 8/370 T02870254 10305 20257 57014=
METAR PAGA 172356Z AUTO 11020G27KT 3/4SM -SN BR BKN020 OVC036 M11/M13
      A2995 RMK AO2 PK WND 11027/2356 SLP148 P0000 60000 T11061128
      11106 21117 58012 FZRANO TSNO $=
METAR PASY 172355Z 34017G23KT 7SM SCT011 BKN030 OVC250 02/01 A2935
      RMK AO2A SHSNB35E46 SLP940 ALSTG/SLP ESTMD WND DATA ESTMD
      60002 T00170004 10024 20013 51017 PNO FZRANO $=
METAR PHBK 172351Z AUTO 36015KT 10SM FEW017 24/17 A2993 RMK AO2 PK
      WND 01026/2254 SLP136 T02440167 10250 20206 58016=
METAR TUPJ 180000Z 03004KT 10SM SCT018 25/23 A3009 RMK Q1019 VIS16KM=


996 
SAUS14 KAWN 180000 RRX
METAR K0E0 172355Z AUTO 30009KT 10SM CLR 07/M14 A2987 RMK AO2 T00731139
      10109 20073=
METAR KCMA 172355Z 26006KT 10SM SCT025 14/08 A3016 RMK AO2 SLP221 T01390083
      10156 20133 58004=
METAR KCVN 172356Z AUTO 02008KT 10SM CLR 08/M04 A2974 RMK AO2 SLP071
      T00831044 10161 20083 53038=
METAR KEGE 172356Z 23010KT 10SM OVC070 02/M12 A2984 RMK AO2 SLP141
      T00171117 10050 21072 53007=
METAR KHMT 172355Z AUTO 20003KT 10SM SCT043 14/04 A3014 RMK AO2=
METAR KHYI 172356Z 22008KT 14/11 A2982 RMK AO2 SLP095 T01440106 10156
      20122 58001 PWINO $=
METAR KILE 172356Z AUTO 19013G18KT 10SM CLR 16/09 A2974 RMK AO2 SLP068
      T01560094 10183 20144 56007=
METAR KKLS 172356Z AUTO 35010KT 10SM CLR 03/01 A3044 RMK AO2 SLP311
      T00280006 10056 20028 56003=
METAR KLGD 172356Z AUTO 31010KT 10SM FEW050 01/M08 A3029 RMK AO2 SLP282
      60000 T00111078 10028 20011 53004 FZRANO=
METAR KPTV 172356Z AUTO RMK AO2 SLPNO 6//// PWINO FZRANO $=
METAR KPUB 172353Z 07008KT 10SM CLR 03/M04 A2983 RMK AO2 SLP091 T00331039
      10144 20033 53040=
METAR KPWG 172356Z AUTO 19014G21KT 10SM CLR 16/10 A2972 RMK AO2 SLP060
      T01610100 10189 20139 58009=
METAR KRNO 172355Z 34014G19KT 10SM SCT200 13/M13 A3010 RMK AO2 SLP189
      T01331128 10144 20011 55001 $=
METAR KSCK 172355Z VRB03KT 10SM CLR 16/04 A3017 RMK AO2 SLP217 T01610044
      10167 20089 56010=
METAR KSKX 172356Z AUTO 24016KT 10SM CLR 04/M16 A2985 RMK AO2 SLP133
      T00441161 10083 20044 53011=
METAR KVIS 172356Z AUTO 00000KT 10SM CLR 17/03 A3017 RMK AO2 SLP217
      T01720028 10178 20083 56015 $=


158 
SACS31 MROC 180000
METAR MROC 180000Z 10008KT 9999 FEW040 SCT200 23/16 A3003 NOSIG =


729 
SAAJ31 UBBB 180000
METAR UBBL 180000Z 00000KT 8000 BKN045 07/07 Q1024
NOSIG=


854 
SAPM31 MPTO 180000
METAR MPDA 180000Z VRB01KT 9999 4000N RA SCT015 BKN080 27/24 Q1011 
NOSIG=


021 
SAXX70 KAWN 180000 RRX
METAR KQRH 172355Z AUTO 00000KT 9999 CLR 21/15 A2992 RMK AO2 SLP134
      WND DATA ESTMD T02130153 10242 20213 57011=
METAR KQEI 180000Z AUTO 00000KT 4800 CLR M10/M12 A3032 RMK A02 TSNO=
METAR KQEP 180000Z AUTO 04001KT 4800 CLR M06/M09 A3036 RMK A02 TSNO=
METAR KQEX 180000Z AUTO 04002KT 6000 HZ CLR M05/M08 A3025 RMK A02 TSNO=
METAR KQFU 180000Z AUTO 14001KT 6000 HZ CLR M07/M10 A3035 RMK A02 TSNO=
METAR KQFX 180000Z AUTO 00000KT 0400 FZFG OVC001 M08/M09 A3033 RMK
      A02 TSNO=


022 
SAMH31 PKWA 180000
METAR PKWA 180000Z AUTO 08018G22KT 10SM CLR 30/23 A2984 RMK AO2 T03030227=


242 
SAMX43 MMMZ 180000
METAR MMCL 172343Z 27005KT 10SM  BKN120 OVC150 24/07 A3004 
      RMK SLP167 57009 909 8/07/ BINOVC HZY=
METAR MMCN 172348Z 25009KT 10SM  SCT100 BKN200 21/07 A3007 
      RMK SLP183 8/038 HZY=
METAR MMDO 172340Z 23013KT 10SM  BKN200 20/00 A3023 
      RMK SLP132 52003 963 8/008 ISOL CU=
METAR MMGM 172340Z 22008KT 10SM  SCT120 20/12 A3001 RMK 8/010=
METAR MMHO 172344Z 30007KT 10SM  SCT200 22/M01 A3006 
      RMK SLP161 57005 963 8/008=
METAR MMLM 172340Z 30012KT 10SM  BKN040 OVC100 21/07 A3007 
      RMK SLP183 8/52/=
METAR MMLP 172345Z 34006KT 10SM  BKN100 BKN200 23/13 A3011 
      RMK SLP193 57004 960 8/038=
METAR MMLT 172359Z  NIL=
METAR MMML 172345Z 14003KT 10SM  SKC 21/M07 A3005 RMK SLP176 57013 907=
METAR MMMZ 172343Z 27005KT 14SM  FEW120 BKN240 23/15 A3001 
      RMK SLP155 57003 904 8/032=
METAR MMPE 172343Z 21008KT 10SM  SKC 18/08 A3008 RMK HZY=
METAR MMSD 172340Z 11012KT 12SM  FEW120 BKN250 21/12 A3008 RMK 8/038=
METAR MMSL 172340Z 10008KT 10SM  BKN250 21/15 A3009 RMK 8/008 AC=
METAR MMTJ 172340Z 29010KT 10SM  SKC 14/06 A3020 
      RMK SLP237 57010 916 SC-SW=


245 
SAMX42 MMGL 180000
METAR MMAS 172346Z 28016KT 10SM  FEW200 24/01 A3023 
      RMK SLP125 57002 966 8/002=
METAR MMEP 172352Z 35006KT 10SM  SCT250 24/11 A3012 
      RMK SLP194 57002 956 8/008 FU W=
METAR MMGL 172341Z 28010KT 8SM  FEW030 26/03 A3018 
      RMK SLP129 57004 957 8/100=
METAR MMIA 172340Z 25006KT 6SM  SKC 27/18 A3007=
METAR MMLO 172343Z 28009KT 10SM  FEW030 BKN220 25/00 A3023 
      RMK SLP113 57003 965 8/208=
METAR MMMM 172346Z 20010KT 7SM  FEW030 21/12 A3023 
      RMK SLP107 57002 963 8/500 HZY TCU E CU=
METAR MMPN 172340Z 00000KT 10SM  FEW030TCU 22/16 A3021 RMK 8/200 HZY=
METAR MMPR 172342Z 21008KT 15SM  SKC 23/20 A3002 
      RMK SLP159 57008 901 CI=
METAR MMSP 172347Z 26014KT 10SM  FEW025 BKN250 25/M02 A3017 
      RMK SLP108 54000 980 8/108=
METAR MMZC 172340Z E24020G30KT 8SM  SCT050 SCT200 20/02 A3024 
      RMK 8/101=
METAR MMZO 172340Z 30008KT 10SM  SKC 27/25 A2992=


246 
SAMX41 MMMX 180000
METAR MMAA 172351Z 26011KT 8SM  SKC 28/23 A2988 
      RMK SLP116 57008 958 HZY=
METAR MMBT 172340Z 00000KT 10SM  FEW020 SCT120 28/23 A2992 
      RMK 8/160 TCU N NW=
METAR MMCB 172355Z 00000KT 8SM  FEW020 SCT200 26/13 A3011 
      RMK 8/108 AC NW HZY=
METAR MMMX 172345Z 16007KT 8SM BKN020 BKN080 22/07 A3027
      NOSIG RMK SLP100 57007 970 8/430 HZY CI =
METAR MMOX 172346Z 20005KT 10SM  FEW030 SCT210 27/04 A3016 
      RMK SLP102 57025 990 8/502=
METAR MMPA 172344Z 00000KT 5SM  SKC 23/18 A2986 
      RMK SLP120 57020 999 HZY=
METAR MMPB 172340Z 18013KT 9SM  SKC 19/06 A3030 RMK HYZ CU=
METAR MMPS 172345Z 23006KT 15SM  SKC 28/25 A3000 RMK DSNT CU N=
METAR MMQT 172349Z 28017KT 10SM  FEW030 23/05 A3027 RMK 8/500=
METAR MMSM 172346Z 32006KT 8SM  FEW020 SCT080 22/04 A3028 
      RMK 8/230 HZY CI=
METAR MMTM 172344Z 14010KT 10SM  BKN200 22/19 A2986 
      RMK SLP114 57007 998 8/008=
METAR MMTO 172340Z 15010KT 6SM  BKN020TCU 16/08 A3039 
      RMK SLP143 52009 904 8/200 HZY=
METAR MMVR 172350Z 10007KT 7SM  SKC 24/21 A2993 
      RMK SLP119 57002 994 HZY ISOL SC=
METAR MMZH 172345Z 25007KT 7SM  SKC 30/23 A2992 
      RMK SLP123 57014 960 HZY=


249 
SABZ19 SBMA 180000
METAR SBMA 180000Z 00000KT CAVOK 26/24 Q1012=


250 
SAMX44 MMMD 180000
METAR MMCE 172341Z 11004KT 7SM  SKC 27/20 A2996 
      RMK SLP142 57006 991 HZY=
METAR MMCM 172342Z 00000KT 7SM  SCT030 26/22 A2998 
      RMK SLP154 5//// 980 8/500=
METAR MMCP 172340Z 00000KT 5SM  SCT070 24/21 A2997 
      RMK SLP138 57001 993 8/010=
METAR MMCZ 172345Z 19003KT 7SM  SKC 25/22 A2998 RMK SLP082 52002 973=
METAR MMCT 172359Z  NIL=
METAR MMMD 172344Z 36006KT 7SM  BKN020 26/19 A2996 
      RMK SLP155 52006 984 8/500=
METAR MMMT 172340Z 02007KT 7SM  SCT025 24/22 A2993 
      RMK SLP135 57003 993 8/500 VCHZ=
METAR MMPQ 172349Z 00000KT 6SM  FEW030 27/23 A2984 RMK 8/100 HZY=
METAR MMTG 172341Z 19002KT 10SM  SKC 28/14 A2997 RMK SLP126 56007 988=
METAR MMTL 172345Z 00000KT 6SM  SKC 25/24 A3001 
      RMK SLP/// 5//// 9// HZY=
METAR MMTP 172349Z 23007KT 8SM  SKC 28/23 A2991 RMK SLP153 52006 960=
METAR MMUN 172343Z 14002KT 7SM  SCT015 24/22 A2999 
      RMK SLP156 52006 971 8/500=
METAR MMVA 172344Z 00000KT 7SM  FEW015 SCT070 26/22 A2993 
      RMK SLP134 57006 992 8/110 HZY=


251 
SAMX45 MMMY 180000
METAR MMAN 172344Z 10004KT 5SM  SCT070 OVC200 20/10 A2988 
      RMK SLP115 57001 999 8/037 HZY BINOVC=
METAR MMCS 172340Z 26018KT 10SM  SKC 14/M08 A2999 
      RMK SLP108 57003 991 BLDU 3 QUAD=
METAR MMCU 172341Z 24022KT 10SM  FEW050 BKN080 BKN200 17/M05 A3004 
      RMK SLP108 52001 989 8/578=
METAR MMCV 172340Z 17008KT 10SM  SCT070 BKN200 25/14 A2982 
      RMK SLP094 57010 999 8/038=
METAR MMGA 172359Z  NIL=
METAR MMIO 172341Z 27010KT 10SM  SCT040 BKN200 24/07 A3006 RMK 8/508=
METAR MMMA 172344Z 16006KT 10SM  SCT080 BKN200 21/18 A2986 
      RMK SLP113 57003 999 8/058=
METAR MMMV 172359Z  NIL=
METAR MMMY 172341Z 11005KT 8SM  SCT050 BKN100 20/10 A2988 
      RMK SLP120 52001 999 8/570 HZY=
METAR MMNL 172340Z 15005KT 10SM  FEW040 SCT120 BKN200 21/10 A2981 
      RMK SLP084 57010 999 8/572=
METAR MMPG 172340Z 07005KT 10SM  BKN120 23/08 A2981 RMK 8/070=
METAR MMRX 172340Z 21010KT 8SM  SCT120 OVC260 23/16 A2983 
      RMK SLP101 57007 999 8/037=
METAR MMTC 172342Z 29007KT 10SM  BKN030 BKN110 OVC250 27/03 A2998 
      RMK SLP092 57004 992 8/577=


440 
SAMX55 MMMY 180000
METAR MMMV 172357Z RTD 27005KT 8SM  SCT050 BKN110 27/08 A2984 
      RMK 8/140 HZY=





TX_OPMET


521 
SAUS14 KAWN 180000 RRX
METAR KEAT 172355Z AUTO 00000KT 10SM CLR 03/M06 A3036 RMK AO2 SLP292
      T00331056 10039 21022 53002=
METAR KENV 172356Z AUTO 19008KT 10SM FEW060 03/M06 A3004 RMK AO2 SLP207
      T00331056 10050 21017 53009=
METAR KEUL 172356Z AUTO 28018KT 10SM CLR 04/M08 A3023 RMK AO2 PK WND
      28026/2259 SLP257 T00391078 10061 20028 53013=
METAR KFNL 172356Z 07010KT 10SM FEW032 OVC046 M02/M08 A2992 RMK AO2
      SNE30 SLP154 P0000 60000 T10221078 10133 21022 51053=
METAR KGDV 172356Z AUTO 33012KT 10SM SCT022 M10/M13 A3019 RMK AO2 SNE03
      SLP259 P0000 60000 T11001133 11067 21106 53019 FZRANO TSNO=
METAR KGPI 172355Z 01006KT 10SM CLR M06/M14 A3024 RMK AO2 SLP285 T10611144
      11033 21067 53007=
METAR KGTU 172356Z 20010KT 10SM CLR 16/11 A2978 RMK AO2 SLP082 T01560106
      10167 20133 58006=
METAR KGUC 172356Z AUTO 00000KT 10SM FEW065 M14/M18 A2990 RMK AO2 SLP278
      60000 T11441178 11128 21217 55002 FZRANO=
METAR KLIC 172355Z AUTO 01012KT 10SM OVC020 M01/M05 A2984 RMK AO2 SLP117
      T10111050 10056 21011 52033=
METAR KLRD 172356Z 18011KT 10SM CLR 21/10 A2980 RMK AO2 SLP093 6////
      T02060100 10233 20194 56004=
METAR KMKN 172355Z AUTO 26019G28KT 4SM HZ OVC037 21/M01 A2968 RMK AO2
      T02081012 10217 20147=
METAR KSDY 172356Z AUTO 35019KT 10SM FEW023 M12/M16 A3021 RMK AO2 SLP270
      60000 T11171156 11078 21117 51013 FZRANO=
METAR KSGU 172356Z AUTO 23005KT 10SM CLR 12/M13 A2999 RMK AO2 SLP162
      60001 T01221128 10122 20017 55007=
METAR KSMN 172356Z AUTO 29008KT 10SM OVC080 M01/M12 A3011 RMK AO2 SLP239
      T10111122 10011 21061 53014 FZRANO=
METAR KTYL 172355Z AUTO 23016G24KT 10SM CLR 07/M05 A3003 RMK AO2=


522 
SAUS14 KAWN 180000 RRX
METAR K2V5 172355Z AUTO 36009G15KT 10SM BKN060 OVC075 00/M06 A2988
      RMK AO2=
METAR K4BM 172355Z AUTO 17003KT 10SM BKN080 OVC100 M04/M10 A2981 RMK
      AO2=
METAR KAVQ 172355Z AUTO 30007KT 10SM CLR 17/M07 A3006 RMK AO2=
METAR KBAM 172355Z AUTO 33012G19KT 10SM CLR 06/M05 A3011 RMK AO1=
METAR KBKD 172355Z AUTO 25014G22KT 2SM HZ OVC027 21/00 A2961 RMK AO2
      T02081002 10229 20155=
METAR KCPW 172355Z AUTO 21009G19KT 10SM BKN055 M08/M16 A2993 RMK AO2=
METAR KCWC 172355Z AUTO 23012G19KT 7SM SCT110 22/00 A2952 RMK AO2 T02191005
      10225 20151=
METAR KGPM 172355Z AUTO 18013G18KT 10SM SCT060 15/05 A2965 RMK AO2
      T01500053 10170 20125=
METAR KHHF 172355Z AUTO 01017G29KT 10SM CLR 12/M02 A2963 RMK AO2 T01221016
      10177 20122=
METAR KN24 172355Z AUTO 23006KT 10SM CLR 04/M15 A2985 RMK AO2 T00411151
      10075 20039=
METAR KONP 172355Z AUTO 34008KT 10SM CLR 08/02 A3040 RMK AO2=
METAR KPKV 172355Z AUTO 20011G17KT 10SM CLR 20/18 A2980 RMK AO2 T02000175
      10225 20200=
METAR KPRS 172355Z AUTO 29011G20KT 10SM CLR 21/M03 A2989 RMK AO2 T02101032
      10236 20207=
METAR KREO 172352Z AUTO 35012KT 01/M08 A3018 RMK AO1 SLP248 T00111083
      10028 20006 53008=
METAR KRLD 172355Z AUTO 33006KT 10SM CLR 08/M04 A3038 RMK AO2 T00801045
      10092 20021=
METAR KSAA 172355Z AUTO 33008KT 1 1/2SM -SN SCT010 OVC016 M06/M06 A2981
      RMK AO2=
METAR KSEP 172355Z AUTO 24017G22KT 2SM OVC017 21/M01 A2967 RMK AO2
      T02061015 10218 20145=


567 
SAUS14 KAWN 180000 RRX
METAR K0F2 172355Z AUTO 18006KT 10SM CLR 16/05 A2955 RMK AO2 T01600045
      10190 20137=
METAR K33V 172355Z AUTO 21008KT 10SM SCT049 BKN060 BKN075 M04/M10 A2978
      RMK AO1=
METAR K4S1 172355Z AUTO CLR 10/03 A3023 RMK AO2 PWINO=
METAR KAXH 172355Z AUTO 18003KT 10SM CLR 18/15 A2982 RMK AO2 T01800146
      10208 20180=
METAR KAZC 172355Z AUTO 28011KT 10SM CLR 08/M13 A3003 RMK AO2=
METAR KC07 172355Z AUTO 00000KT 7SM -SN BKN010 BKN018 OVC026 M09/M09
      A2977 RMK AO2=
METAR KDUG 172356Z AUTO 30013G20KT 10SM CLR 13/M07 A3005 RMK AO2 SLP148
      T01331072 10150 20100 55001=
METAR KECS 172355Z AUTO 33014KT SCT019 BKN032 OVC039 M07/M10 A3000
      RMK AO2 PWINO=
METAR KEMM 172355Z AUTO 31012KT 10SM SCT019 SCT070 M06/M10 A2987 RMK
      AO2=
METAR KF17 172355Z AUTO 18005KT 10SM SCT025 11/07 A2982 RMK AO2=
METAR KFLY 172355Z AUTO 03012G18KT 10SM OVC019 M02/M06 A2983 RMK AO2
      T10201062 10107 21020=
METAR KHHV 172355Z 10SM OVC049 23/17 A2987 RMK A01 WIND SENSOR OFFLINE=
METAR KIKT 180005Z AUTO 15015KT 140V230 10SM FEW041 OVC050 19/12 A3001
      RMK A01=
METAR KINJ 172355Z AUTO 19017G23KT 10SM SCT065 16/09 A2966 RMK AO2
      T01580088 10162 20120=
METAR KLXY 172355Z AUTO 19014G21KT 10SM CLR 15/09 A2973 RMK AO2 T01500092
      10157 20140 TSNO=
METAR KT78 172355Z AUTO 17008KT 10SM SCT120 17/12 A2979 RMK AO2=
METAR KTEX 172355Z AUTO 30005KT 10SM CLR 00/M18 A2992 RMK AO2=
METAR KWBF 172355Z AUTO RMK A01 PNO=


568 
SAUS14 KAWN 180000 RRX
METAR KBDU 172355Z AUTO 06003KT 3/4SM -SN OVC009 M02/M03 A2992 RMK
      AO2=
METAR KBJC 172357Z 02013G18KT 1 1/2SM OVC021 M02/M07 A2990=
METAR KCCU 172355Z AUTO 21005KT 10SM OVC030 M07/M13 A2979 RMK AO2=
METAR KCFD 172355Z AUTO 22005KT 10SM CLR 16/11 A2981 RMK AO2 T01560114
      10165 20130=
METAR KDSF 180000Z AUTO 11015KT 10SM OVC055 20/12 A3001 RMK A01=
METAR KERV 172355Z AUTO 16007KT 10SM CLR 14/07 A2981 RMK AO2 T01390070
      10165 20115=
METAR KF05 172355Z AUTO 25009KT 10SM BKN047 20/M01 A2951 RMK AO2 T01971015
      10250 20130=
METAR KF44 172355Z AUTO 19011G17KT 10SM BKN120 15/08 A2971 RMK AO2=
METAR KF46 172355Z AUTO 19011KT 10SM CLR 13/07 A2966 RMK AO2 T01330070
      10153 20120=
METAR KFBR 172355Z AUTO 31010G18KT 1 1/4SM -SN OVC012 M04/M06 A2991
      RMK AO2 T10431065 10022 21043=
METAR KGDJ 172355Z AUTO 24013G23KT 5SM HZ BKN041 BKN048 OVC050 21/01
      A2965 RMK AO2 T02060012 10209 20131=
METAR KGLX 172355Z AUTO RMK A01 PNO=
METAR KGUL 180005Z AUTO 23007KT 10SM BKN022 BKN027 22/18 A2993 RMK
      A01=
METAR KINW 172356Z AUTO 26020G31KT 10SM CLR 11/M03 A2998 RMK AO2 PK
      WND 26031/2351 SLP137 T01061033 10133 20100 53003=
METAR KSBD 172356Z 24005KT 7SM CLR 14/00 A3015=
METAR KTBX 172355Z AUTO 30038KT M13/M16 A2991 RMK AO2 PWINO=
METAR KU68 172355Z AUTO 04012KT 10SM OVC060 M07/M11 A3012 RMK AO2=
METAR KUVA 172355Z AUTO 15003KT 10SM CLR 16/08 A2984 RMK AO2 T01630075
      10176 20131=
METAR KVAF 172355Z 15018KT 8SM OVC055 22/17 A2988 RMK A01 WINDS UN-RELIABLE
      350 TO 45 DEGREES=


573 
SAUS14 KAWN 180000 RRX
METAR KBRG 172355Z AUTO 28013G17KT 10SM CLR 11/M07 A2989 RMK AO2 T01071072
      10127 20103=
METAR KBZN 172356Z 33004KT 10SM OVC070 M09/M16 A3017 RMK AO2 SLP265
      T10941161 11061 21100 53010=
METAR KCEC 172356Z AUTO 35007KT 10SM CLR 11/07 A3022 RMK AO2 SLP236
      T01110067 10111 20083 56011=
METAR KCTB 172356Z AUTO 34009KT 10SM FEW015 BKN021 M11/M14 A3024 RMK
      AO2 SLP300 60000 T11061144 11089 21106 53004=
METAR KEED 172356Z AUTO 21008KT 10SM CLR 20/M07 A3001 RMK AO2 SLP150
      T02001072 10206 20117 55008 PWINO $=
METAR KLNC 172355Z AUTO 18008KT 10SM CLR 13/08 A2967 RMK AO2 T01340075
      10156 20118=
METAR KLWS 172356Z 29009KT 10SM BKN046 04/M04 A3031 RMK AO2 SLP277
      T00391044 10050 20017 53004=
METAR KNJK 172356Z 06006KT 10SM CLR 22/M03 A3005 RMK AO2 SLP191 T02221028
      10228 20178 55006 $=
METAR KNJK 172356Z 06006KT 10SM CLR 22/M03 A3005 RMK AO2 SLP191 T02221028
      10228 20178 55006 $=
METAR KRDM 172356Z 35004KT 10SM CLR 05/M07 A3027 RMK AO2 SLP268 T00501067
      10050 20006 53001=
METAR KSBP 172356Z 32013KT 10SM CLR 14/09 A3019 RMK AO2 SLP223 T01390089
      10167 20106 55009=
METAR KSFO 172356Z 27013KT 10SM FEW017 12/08 A3021 RMK AO2 SLP230 T01220078
      10133 20100 55005=
METAR KTPH 172356Z AUTO 30018G29KT 10SM CLR 09/M13 A3006 RMK AO2 PK
      WND 31033/2308 SLP188 T00941128 10111 20039 53004=
METAR KWJF 172356Z 26022G32KT 10SM CLR 15/M10 A3008 RMK AO2 PK WND
      26034/2335 SLP187 T01501100 10183 20144 56004=
METAR KWMC 172356Z AUTO 36007KT 10SM CLR 06/M07 A3014 RMK AO2 SLP223
      T00561072 10078 20044 53004=


574 
SAZZ40 KAWN 180000 RRX
METAR KCEF 172355Z 00000KT 10SM SCT055 M03/M07 A3007 RMK AO2A SLP190
      T10271067 10030 21028 52015=
METAR KGVW 172355Z AUTO 15017KT 10SM CLR 19/16 A2982 RMK A01=
METAR KMTC 172356Z 17014KT 10SM BKN140 02/M03 A2969 RMK AO2A SLP065
      T00171026 10028 20015 57014 $=
METAR KNJK 172356Z 06006KT 10SM CLR 22/M03 A3005 RMK AO2 SLP191 T02221028
      10228 20178 55006 $=
METAR KNJK 172356Z 06006KT 10SM CLR 22/M03 A3005 RMK AO2 SLP191 T02221028
      10228 20178 55006 $=
METAR KNSE 172356Z 13004KT 10SM SCT060 BKN150 BKN250 13/06 A3003 RMK
      AO2 SLP157 T01330061 10183 20122 58008 $=
METAR KPSM 172355Z 17005KT 10SM FEW050 SCT100 M02/M09 A3006 RMK AO2A
      SLP183 T10191086 10023 21023 51012=
METAR KWJF 172356Z 26022G32KT 10SM CLR 15/M10 A3008 RMK AO2 PK WND
      26034/2335 SLP187 T01501100 10183 20144 56004=
METAR MHLC 180000Z 12003KT 9999 FEW040 24/22 Q1016 A3000 NOSIG=
METAR MHLM 180000Z 03006KT 9999 FEW022 27/20 Q1015 A2997 NOSIG=
METAR MHRO 180000Z 02005KT CAVOK 26/21 Q1016 A3000 NOSIG=
METAR MHTE 180000Z 00000KT 9999 FEW020 25/22 Q1015 A2997=
METAR MHTG 180000Z 05010KT 9999 FEW038 23/12 Q1020 A3012 NOSIG=
METAR NSFA 180000Z 31006KT 9999 FEW020 SCT040 31/23 Q1009=
METAR OLBA 180000Z 10004KT CAVOK 14/05 Q1025 NOSIG=
METAR ORBI 180000Z 29006KT CAVOK 08/04 Q1018 NOSIG=
METAR PAEI 172355Z 32006KT 10SM SCT080 BKN150 M14/M16 A3017 RMK AO2A
      SLP242 4/010 WND DATA ESTMD T11371162 11188 21256 411371137
      55002 $=
METAR PMDY 172356Z AUTO 35006KT 10SM OVC020 22/17 A3013 RMK AO2 SLP204
      60001 T02170172 10222 20194 58013=
METAR TJSJ 172356Z 07011KT 10SM SCT025 SCT041 27/23 A3010 RMK AO2 SLP192
      T02670228 10289 20261 53012 $=


575 
SANA35 KAWN 180000 RRJ
METAR KACY 172354Z 19004KT 10SM CLR 00/M07 A3015 RMK AO2 SLP211 T00001067
      10067 20000 51020=
METAR KADW 172355Z AUTO 12007KT 10SM CLR 00/M06 A3010 RMK AO2 SLP203
      T00011061 10061 20001 51004 $=
METAR KBAD 172355Z AUTO 11009KT 10SM FEW130 10/06 A2976 RMK AO2 SLP082
      60000 T00970059 10115 20096 57018=
METAR KBOS 172354Z 21005KT 10SM CLR 01/M08 A3010 RMK AO2 SLP193 T00111078
      10033 21017 51016=
METAR KDOV 172355Z AUTO 16003KT 10SM CLR 01/M06 A3014 RMK AO2 SLP210
      T00051057 10065 20004 50011=
METAR KGSB 172355Z 17006KT 10SM CLR 07/M02 A3013 RMK AO2A SLP207 T00741016
      10127 20057 52009 $=
METAR KHST 172355Z AUTO 09010KT 10SM -DZ BKN035 BKN044 OVC070 21/18
      A3001 RMK AO2 DZE00RAB52E53DZB53 SLP166 P0000 60001
      T02140178 10214 20194 58005=
METAR KLFI 172355Z AUTO 17005KT 10SM CLR 03/M04 A3017 RMK AO2 SLP223
      T00341039 10066 20034 50009 $=
METAR KMCF 172355Z 08007KT 10SM SCT055 16/13 A3005 RMK AO2A SLP176
      ALSTG ESTMD T01560133 53001 FZRANO $=
METAR KNHK 172352Z 16007KT 10SM CLR 03/M05 A3016 RMK AO2 SLP212 T00331050
      10067 20033 51008 $=
METAR KOFF 172355Z 35017G25KT 10SM BKN120 BKN250 05/M06 A2972 RMK AO2A
      PK WND 34032/20 SLP077 T00491058 10106 20049 52046 $=
METAR KPHL 172354Z 20006KT 10SM CLR 02/M06 A3014 RMK AO2 SLP205 T00221061
      10067 20017 51015 $=
METAR KSYR 172354Z 16006KT 10SM BKN043 BKN150 BKN200 02/M04 A2997 RMK
      AO2 SLP148 4/011 T00171044 10028 20017 55001=
METAR SPJC 180000Z 16013KT CAVOK 24/18 Q1014 NOSIG RMK PP000=
METAR TISX 172353Z 06007KT 10SM FEW021 BKN060 OVC075 27/22 A3009 RMK
      AO2 SLP186 60000 T02670222 10289 20261 53014 $=


717 
SACS31 MROC 180000
METAR MRPV 180000Z 11008KT 9999 FEW040 22/16 A3009 NOSIG =


983 
SAGY31 SYCJ 180000
METAR SYCJ 180000Z 04004KT 9999 SCT022 24/21 Q1014 NOSIG=


985 
SAES20 MSLP 180000

METAR MSLP 180000Z 23005KT 9999 FEW020 27/22 Q1012 A2991 NOSIG RMK FU SW=

METAR MSSS 180000Z 17007KT CAVOK 26/18 Q1016 A3002=


028 
SAXN17 KAWN 180000 RRM
METAR MHLC 180000Z 12003KT 9999 FEW040 24/22 Q1016 A3000 NOSIG=
METAR MROC 180000Z 10008KT 9999 FEW040 SCT200 23/16 A3003 NOSIG=
METAR NFTF 180000Z 28006KT 9999 FEW016TCU 30/24 Q1009=
METAR NFTV 180000Z 02007KT 9999 FEW016TCU 29/24 Q1009=
METAR NSTU 172350Z VRB05KT 12SM -SHRA BKN018CB BKN100 29/25 A2979 RMK
      SHRAB47 CB ALQDS SLP088 60000 8/370 T02870254 10305 20257 57014=
METAR PAEH 172355Z AUTO 01029G42KT 9SM SCT009 BKN065 05/02 A2946 RMK
      AO2 PK WND 01045/2341 SLP983 T00460020 10056 20023 58005 $=
METAR PAEI 172355Z 32006KT 10SM SCT080 BKN150 M14/M16 A3017 RMK AO2A
      SLP242 4/010 WND DATA ESTMD T11371162 11188 21256 411371137
      55002 $=
METAR PAGA 172356Z AUTO 11020G27KT 3/4SM -SN BR BKN020 OVC036 M11/M13
      A2995 RMK AO2 PK WND 11027/2356 SLP148 P0000 60000 T11061128
      11106 21117 58012 FZRANO TSNO $=
METAR PALU 172355Z AUTO 00000KT 3/4SM -SN OVC014 M06/M06 A2976 RMK
      AO2 SNB2201 SLP076 P0000 60000 T10581065 11048 21079 58024=
METAR PASY 172355Z 34017G23KT 7SM SCT011 BKN030 OVC250 02/01 A2935
      RMK AO2A SHSNB35E46 SLP940 ALSTG/SLP ESTMD WND DATA ESTMD
      60002 T00170004 10024 20013 51017 PNO FZRANO $=
METAR PATL 172355Z AUTO 07007KT 030V100 10SM -SHSN OVC050 M08/M10 A2993
      RMK AO2 SHSNB2239 SLP166 P0000 60000 T10761101 11076 21103
      53003=
METAR PWAK 172355Z AUTO 11010KT 9SM FEW027 30/23 A2998 RMK AO2 SLP155
      60000 T03010228 10301 20253 58001=
METAR RJOI 172356Z 28005KT 9999 FEW020 05/M01 A3032 RMK AO2 SLP267
      T00501006 10050 20017 53013=
METAR RJTY 172355Z AUTO 03010KT 10SM CLR 05/M09 A3023 RMK AO2 SLP245
      T00531093 10053 21017 52013 $=
METAR RODN 172355Z 06005KT 10SM CLR 15/09 A3016 RMK AO2A SLP216 T01520091
      10152 20075 52008 FZRANO $=


118 
SAKU32 NCRG 180000
METAR NCAI 180000Z AUTO
11005KT 9999 FEW023 28/22 Q1010=
METAR NCAT 180000Z AUTO
04003KT //// ////// 28/23 Q1010=
METAR NCMG 180000Z AUTO
24004KT //// ////// 28/22 Q1010=
METAR NCMH 180000Z AUTO
03003KT //// ////// 31/24 Q1009=
METAR NCMK 180000Z AUTO
23004KT //// ////// 30/22 Q1011=
METAR NCMR 180000Z AUTO
22005KT //// ////// 28/23 Q1010=
METAR NCNS 180000Z AUTO
NIL=
METAR NCPL 180000Z AUTO
09003KT //// ////// 32/23 Q1009=
METAR NCPY 180000Z AUTO
03011KT 9999 FEW023 30/24 Q1009=
METAR NCRK 180000Z AUTO
NIL=
METAR NCSW 180000Z AUTO
NIL=


221 
SAMX34 MMMD 180000
METAR MMMD 172344Z 36006KT 7SM  BKN020 26/19 A2996 
      RMK SLP155 52006 984 8/500=


222 
SADR31 MDSD 180000
METAR	
METAR MDPP 180000Z 11008KT 9999 BKN018 24/23 Q1018=
METAR MDST 180000Z 09005KT 050V140 9999 FEW018 24/21 Q1018=
METAR MDPC 180000Z 04012KT 9999 SCT018 26/23 Q1019=
METAR MDJB 180000Z 00000KT 9999 SCT018 SCT080 26/22 Q1019 NOSIG=
METAR MDBH 180000Z 13006KT 9999 FEW018 25/23 Q1016=
METAR MDSD 180000Z 04005KT 9999 BKN018 25/23 Q1018=
METAR MDLR 180000Z 09012KT 9999 FEW016 24/23 Q1019 NOSIG=
METAR MDCY 180000Z 05006KT 9999 SCT016 23/22 Q1018 NOSIG=


223 
SAGU31 MGGT 180000

MGMM 180000Z 00000KT CAVOK 27/23 Q1016 A3000=
MGHT 180000Z 09006KT CAVOK 21/06=
MGPB 180000Z 09004KT CAVOK 25/22 Q1015 A2997=
MGGT 180000Z 030008KT 9999 FEW018 21/11 Q1022 A3018 =
MGSJ 180000Z 27006KT CAVOK 28/// Q1014 A2994=
MGRT 180000Z 27006KT CAVOK 30/20 Q1015 A2997 FEW200 VOLC STA MARIA Y SATGO EN ACTV=
MGQZ 180000Z 18006KT CAVOK 15/11 QFE774.3 =
MGCB 180000Z 00000KT 9999 SCT018 19/16 QFE873.4 =
MGZA 180000Z 08004KT CAVOK 29/16 QFE989.5 =
MGES 180000Z 03004KT CAVOK 23/15 QFE911.0 =
MGMT 180000Z 00000KTCAVOK 27/25 =
MGTU 180000Z 18004KT CAVOK 29/24 =


449 
SAGU31 MGMM 180000
METAR MGMM 180000Z 00000KT CAVOK 27/23 Q1016 A3000=


450 
SAUS70 KWBC 180000 RRN
METAR
KDED 172355Z AUTO 00000KT 10SM SCT050 13/05 A3012 RMK AO2
     T01330048 10202 20129 402020031=
KDEH 172355Z AUTO 30008G17KT 10SM SCT075 OVC090 02/M04 A2954 RMK
     AO2=
KDKB 172355Z AUTO 20013KT 10SM CLR 03/00 A2954 RMK AO2 T00321005
     10088 20032=
KDKR 172355Z AUTO 16004KT 10SM 14/13 A2978 RMK AO2=
KDNS 172355Z AUTO 34015G28KT 10SM OVC090 01/M06 A2974 RMK AO2=
KDNV 172355Z AUTO 18014G17KT 10SM CLR 05/00 A2965 RMK AO2
     T00501003 10067 20048=
KDUA 172355Z AUTO 16011KT 10SM CLR 12/06 A2963 RMK AO2=
KDUC 172355Z AUTO 16011KT 10SM CLR 16/05 A2950 RMK AO2=
KDUX 172355Z AUTO 36011KT 10SM CLR 10/M07 A2971 RMK AO2 T00971068
     10145 20097=
KDVO 172355Z AUTO 28005KT 10SM CLR 13/07 A3020 RMK AO2=
KDZB 172355Z AUTO 19007G15KT 10SM CLR 17/08 A2977 RMK AO2
     T01650080 10199 20147=
KDZJ 172355Z AUTO 10011KT 10SM CLR 09/M08 A3000 RMK AO2 T00901077
     10149 20088 401491058=
KE11 172355Z AUTO 27019G27KT 7SM BKN027 OVC033 16/M04 A2979 RMK
     AO2 T01561045 10185 20156=
KE38 172355Z 10SM CLR 15/M06 A2998 RMK AO2 T01461060 10176
     20146=
KE41 172355Z AUTO 29025G32KT 1SM HZ OVC026 18/M09 A2981 RMK AO2
     VIS 1/2V2 1/2 T01761086 10204 20151 402040081=
KE42 172355Z AUTO 36018G24KT 10SM CLR 11/M04 A2969 RMK AO2
     T01091036 10158 20107 401580020=
KE57 172355Z AUTO 29023G28KT 10SM FEW090 15/M07 A2976 RMK AO2=
KEBA 172355Z AUTO 00000KT 10SM CLR 06/00 A3007 RMK AO2 T00611004
     10142 20060 401421004=
KEBG 172355Z AUTO 15007KT 10SM CLR 21/15 A2983 RMK AO2 10246
     20201=
KECU 172355Z AUTO 18009KT 140V200 10SM CLR 16/05 A2984 RMK AO2=
KEGT 172355Z AUTO 35012G19KT 10SM CLR 03/M02 A2961 RMK AO2
     T00351017 10152 20034 401520026=
KEIK 172355Z AUTO 05009KT 1 3/4SM UP OVC042 M03/M06 A2991 RMK AO2
     P0000 T10281061=
KELA 172355Z AUTO 23004KT 10SM BKN027 16/13 A2982 RMK AO2
     T01550133 10160 20135=
KEOK 172355Z AUTO 23006KT 10SM OVC055 08/M01 A2957 RMK A01=
KFEP 172355Z AUTO 24006KT 10SM CLR 06/M02 A2952 RMK AO2 T00571021
     10121 20057=
KFET 172355Z AUTO 33020G25KT 10SM CLR 02/M07 A2977 RMK AO2
     T00191070 10092 20019=
KFFL 172355Z AUTO 31007KT 10SM BKN050 BKN055 03/M02 A2957 RMK
     A01=
KFHB 172355Z AUTO 14003KT 10SM CLR 11/07 A3012 RMK AO2=
KFKR 172355Z AUTO 18007G16KT 10SM FEW033 SCT042 05/01 A2968 RMK
     AO2=
KFMM 172355Z AUTO 01015KT 10SM SCT033 BKN042 OVC070 M01/M06 A2991
     RMK AO2=
KFOA 172355Z AUTO 17011KT 10SM SCT075 OVC090 06/M01 A2971 RMK
     AO2=
KFSK 172355Z AUTO 20007KT 10SM CLR 09/02 A2959 RMK AO2 T00880024
     10157 20087 401570033=
KFSW 172355Z AUTO 21007KT 10SM FEW060 09/M01 A2956 RMK AO2 10130
     20088=
KFXY 172355Z AUTO 31023G30KT 10SM SCT029 OVC120 00/M06 A2965 RMK
     AO2=
KGAO 172355Z AUTO 00000KT 10SM BKN023 OVC028 16/13 A2997 RMK AO2
     T01610125 10178 20161=
KGCM 172355Z AUTO 18007G13KT 10SM CLR 10/05 A2958 RMK AO2=
KGGF 172355Z AUTO 01022G28KT 10SM BKN028 BKN048 BKN070 M01/M06
     A2986 RMK AO2=
KGLY 172355Z AUTO 00000KT 10SM FEW060 SCT120 10/M00 A2957 RMK
     AO2=
KGNB 172355Z AUTO 20006KT 4SM -SN SCT021 SCT026 OVC032 M03/M07
     A2983 RMK AO2 T10351073 11024 21141=
KGNC 172355Z AUTO 25023G28KT 7SM CLR 16/M03 A2981 RMK AO2
     T01551028 10185 20155=
KGOP 172355Z AUTO 18011G17KT 10SM CLR 17/09 A2971 RMK AO2 LTG DSNT
     NE AND SE=
KGPC 172355Z AUTO 17009KT 10SM CLR 04/M01 A2971 RMK AO2 T00371011
     10085 20036 400851069=
KGYB 172355Z AUTO 21003KT 10SM CLR 14/10 A2984 RMK AO2 T01370100
     10157 20131=
KGZL 172355Z AUTO 19009KT 10SM CLR 11/04 A2959 RMK AO2=


451 
SAUS70 KWBC 180000 RRJ
METAR
KLRJ 172355Z AUTO 34026G31KT 10SM BKN032 BKN095 OVC120 M01/M07
     A2977 RMK AO2=
KM30 172355Z AUTO 19012G15KT 10SM BKN110 12/M01 A2978 RMK AO2
     T01231011 10140 20121=
KSAR 172355Z AUTO 17012G17KT 10SM -DZ BKN090 OVC110 10/M01 A2969
     RMK AO2 T01041011 10113 20092=
KSLH 172355Z AUTO 21009G17KT 10SM BKN028 OVC034 04/M02 A2939 RMK
     AO2=
KSUE 172357Z AUTO 25006KT 10SM FEW049 SCT060 OVC075 04/M02 A2941
     RMK AO2 RAB26E38 SLP966 P0000 6//// T00441017 10044 20022
     53002=
KWBF 172355Z AUTO RMK A01 PNO=
KBDU 172355Z AUTO 06003KT 3/4SM -SN OVC009 M02/M03 A2992 RMK
     AO2=
KBJC 172357Z 02013G18KT 1 1/2SM OVC021 M02/M07 A2990=
KCCU 172355Z AUTO 21005KT 10SM OVC030 M07/M13 A2979 RMK AO2=
KCFD 172355Z AUTO 22005KT 10SM CLR 16/11 A2981 RMK AO2 T01560114
     10165 20130=
KDSF 180000Z AUTO 11015KT 10SM OVC055 20/12 A3001 RMK A01=
KERV 172355Z AUTO 16007KT 10SM CLR 14/07 A2981 RMK AO2 T01390070
     10165 20115=
KF05 172355Z AUTO 25009KT 10SM BKN047 20/M01 A2951 RMK AO2
     T01971015 10250 20130=
KF44 172355Z AUTO 19011G17KT 10SM BKN120 15/08 A2971 RMK AO2=
KF46 172355Z AUTO 19011KT 10SM CLR 13/07 A2966 RMK AO2 T01330070
     10153 20120=
KFBR 172355Z AUTO 31010G18KT 1 1/4SM -SN OVC012 M04/M06 A2991 RMK
     AO2 T10431065 10022 21043=
KGDJ 172355Z AUTO 24013G23KT 5SM HZ BKN041 BKN048 OVC050 21/01
     A2965 RMK AO2 T02060012 10209 20131=
KGLX 172355Z AUTO RMK A01 PNO=
KGUL 180005Z AUTO 23007KT 10SM BKN022 BKN027 22/18 A2993 RMK
     A01=
KSBD 172356Z 24005KT 7SM CLR 14/00 A3015=
KTBX 172355Z AUTO 30038KT M13/M16 A2991 RMK AO2 PWINO=
KU68 172355Z AUTO 04012KT 10SM OVC060 M07/M11 A3012 RMK AO2=
KUVA 172355Z AUTO 15003KT 10SM CLR 16/08 A2984 RMK AO2 T01630075
     10176 20131=
KVAF 172355Z 15018KT 8SM OVC055 22/17 A2988 RMK A01 WINDS
     UN-RELIABLE 350 TO 45 DEGREES=
KNSE 172356Z 13004KT 10SM SCT060 BKN150 BKN250 13/06 A3003 RMK AO2
     SLP157 T01330061 10183 20122 58008 $=
KWJF 172356Z 26022G32KT 10SM CLR 15/M10 A3008 RMK AO2 PK WND
     26034/2335 SLP187 T01501100 10183 20144 56004=
K0F2 172355Z AUTO 18006KT 10SM CLR 16/05 A2955 RMK AO2 T01600045
     10190 20137=
K33V 172355Z AUTO 21008KT 10SM SCT049 BKN060 BKN075 M04/M10 A2978
     RMK AO1=
KAXH 172355Z AUTO 18003KT 10SM CLR 18/15 A2982 RMK AO2 T01800146
     10208 20180=
KAZC 172355Z AUTO 28011KT 10SM CLR 08/M13 A3003 RMK AO2=
KC07 172355Z AUTO 00000KT 7SM -SN BKN010 BKN018 OVC026 M09/M09
     A2977 RMK AO2=
KDUG 172356Z AUTO 30013G20KT 10SM CLR 13/M07 A3005 RMK AO2 SLP148
     T01331072 10150 20100 55001=
KECS 172355Z AUTO 33014KT SCT019 BKN032 OVC039 M07/M10 A3000 RMK
     AO2 PWINO=
KEMM 172355Z AUTO 31012KT 10SM SCT019 SCT070 M06/M10 A2987 RMK
     AO2=
KF17 172355Z AUTO 18005KT 10SM SCT025 11/07 A2982 RMK AO2=
KFLY 172355Z AUTO 03012G18KT 10SM OVC019 M02/M06 A2983 RMK AO2
     T10201062 10107 21020=
KHHV 172355Z 10SM OVC049 23/17 A2987 RMK A01 WIND SENSOR
     OFFLINE=
KIKT 180005Z AUTO 15015KT 140V230 10SM FEW041 OVC050 19/12 A3001
     RMK A01=
KINJ 172355Z AUTO 19017G23KT 10SM SCT065 16/09 A2966 RMK AO2
     T01580088 10162 20120=
KLXY 172355Z AUTO 19014G21KT 10SM CLR 15/09 A2973 RMK AO2
     T01500092 10157 20140 TSNO=
KTEX 172355Z AUTO 30005KT 10SM CLR 00/M18 A2992 RMK AO2=
KWBF 172355Z AUTO RMK A01 PNO=
KAJG 172355Z AUTO 19005KT 10SM OVC120 06/00 A2974 RMK AO2
     T00630000 10072 20054=
KDLL 172355Z AUTO 25006KT 10SM OVC090 06/M02 A2947 RMK AO2
     T00551017 10085 20051=
KEAU 172356Z 29012KT 10SM BKN042 01/M06 A2952 RMK AO2 SLP004
     T00061061 10028 20006 53027=


452 
SAUS80 KWBC 180000
METAR
K4BM 172355Z AUTO 17003KT 10SM BKN080 OVC100 M04/M10 A2981 RMK
     AO2=
KCAE 172356Z 00000KT 10SM CLR 09/M02 A3009 RMK AO2 SLP191
     T00891017 10150 20089 53003=
KCHS 172356Z 11005KT 10SM CLR 09/03 A3013 RMK AO2 SLP204 T00890033
     10144 20083 51003=
KIKW 172355Z AUTO 20011G21KT 10SM CLR 04/M03 A2953 RMK AO2 10050
     20018=
KINW 172356Z AUTO 26020G31KT 10SM CLR 11/M03 A2998 RMK AO2 PK WND
     26031/2351 SLP137 T01061033 10133 20100 53003=
KJAX 172356Z 12005KT 10SM FEW150 11/06 A3011 RMK AO2 SLP197
     T01060056 10183 20106 53005=
KMKN 172355Z AUTO 26019G28KT 4SM HZ OVC037 21/M01 A2968 RMK AO2
     T02081012 10217 20147=
KMOB 172356Z 13006KT 10SM BKN046 OVC060 14/07 A3001 RMK AO2 SLP163
     T01440072 10178 20144 58007=
KRLD 172355Z AUTO 33006KT 10SM CLR 08/M04 A3038 RMK AO2 T00801045
     10092 20021=
KSEP 172355Z AUTO 24017G22KT 2SM OVC017 21/M01 A2967 RMK AO2
     T02061015 10218 20145=
KSHV 172356Z 16008KT 10SM FEW045 BKN130 OVC180 10/06 A2977 RMK
     SLPNO=
KVTI 172355Z AUTO 33009G14KT 10SM CLR 04/M04 A2959 RMK AO2
     T00351037 10096 20035=
KSMP 172356Z AUTO VRB04KT 10SM CLR M03/M03 A3028 RMK AO2 SLP884
     T10281028 11017 21039 53004=
KP59 172351Z AUTO 33009G24KT 03/M02 A2927 RMK AO1 SLP920 T00331022
     10050 20028 51016=
KPZQ 172355Z AUTO 19007KT 10SM CLR 02/M04 A2944 RMK AO2 T00181040
     10025 20002=
K6R6 172351Z AUTO 25011KT 22/00 A2981 RMK AO1 SLP073 T02220000
     10250 20189 53003=
KDRA 172353Z AUTO 23009KT 10SM CLR 13/M10 A3001 RMK AO2 SLP155
     T01331100 10139 20083 55007=
KAST 172355Z AUTO 02004KT 10SM CLR 08/03 A3041 RMK AO2 SLP296
     T00830028 10094 20011 55004=
K9Y1 172355Z AUTO 33022G28KT 10SM -SN FEW015 BKN019 M12/M15 A3011
     RMK AO2 PK WND 32032/34 11068 21123=
KANJ 172355Z AUTO 17004KT 10SM OVC012 02/M01 A2939 RMK AO2 SNE18
     SLP959 P0000 60002 T00171006 10022 21006 55017=
KHON 172355Z AUTO 34021G29KT 10SM BKN033 M05/M10 A2994 RMK AO2 PK
     WND 35034/2342 SLP156 T10501100 10044 21050 53050=
KSYN 172355Z AUTO 31020G28KT 10SM BKN037 M01/M07 A2961 RMK AO2
     6//// T10061066=
KAAT 172355Z AUTO 34005KT 10SM CLR 06/M06 A3018 RMK AO2 SLP240
     T00611056 10072 21006 53004=
K12N 172354Z AUTO 00000KT M04/M07 A3008 RMK AO1 SLP201 T10391067
     10050 21039 51012=
KBIH 172356Z AUTO 16007KT 10SM CLR 16/M09 A3001 RMK AO2 SLP156
     T01561089 10178 20083 55005=
KBZN 172356Z 33004KT 10SM OVC070 M09/M16 A3017 RMK AO2 SLP265
     T10941161 11061 21100 53010=
KFSD 172356Z 35022G34KT 10SM FEW027 BKN160 M04/M11 A2983 RMK AO2
     PK WND 34040/2312 SLP121 T10391106 10061 21039 53046=
KLWS 172356Z 29009KT 10SM BKN046 04/M04 A3031 RMK AO2 SLP277
     T00391044 10050 20017 53004=
KOFK 172356Z AUTO 34024G34KT 10SM FEW030 OVC100 M01/M08 A2981 RMK
     AO2 PK WND 35041/2346 SLP111 T10061078 10083 21006 53045=
KRFI 172355Z AUTO 18006KT 10SM SCT110 14/09 A2978 RMK AO2
     T01400090 10150 20122 PWINO=
KSFO 172356Z 27013KT 10SM FEW017 12/08 A3021 RMK AO2 SLP230
     T01220078 10133 20100 55005=
KWMC 172356Z AUTO 36007KT 10SM CLR 06/M07 A3014 RMK AO2 SLP223
     T00561072 10078 20044 53004=
TJSJ 172356Z 07011KT 10SM SCT025 SCT041 27/23 A3010 RMK AO2 SLP192
     T02670228 10289 20261 53012 $=
KDVL 172356Z AUTO 33016KT 10SM BKN030 M11/M16 A3002 RMK AO2 PK WND
     34027/2305 SNE10 SLP197 P0000 60000 T11111156 11078 21117
     51041 FZRANO=
KPHP 172355Z AUTO 34016G25KT 9SM -SN SCT022 BKN029 OVC034 M04/M08
     A3003 RMK AO2 PK WND 33027/2259 SNB29 SLP188 P0000 60000
     T10441083 10006 21044 51036=


453 
SAUS70 KWBC 180000 RRL
METAR
KGJT 172353Z 29005KT 10SM CLR 03/M12 A2988 RMK AO2 SLP139
     T00281122 10061 21017 55008=
KPIH 172353Z 26006KT 10SM FEW005 BKN040 BKN075 M03/M05 A3005 RMK
     AO2 SLP213 60010 T10331050 11022 21033 53013=
KMAF 172353Z 28024G34KT 4SM BLDU OVC037 16/M03 A2978 RMK AO2 PK
     WND 29042/2323 SLP063 T01561033 10178 20156 53011=
KBJJ 172356Z AUTO 17012KT 10SM CLR 01/M06 A2984 RMK AO2 SLP116
     T00111056 10033 20011 58018=
KBWP 172355Z AUTO 34027G34KT 6SM -SN BR BKN024 M09/M11 A2991 RMK
     AO2=
KCXY 172356Z VRB05KT 10SM CLR 02/M07 A3008 RMK AO2 SLP191
     T00221067 10061 20017 51010=
KDIK 172356Z AUTO 33016G22KT 10SM OVC021 M12/M16 A3007 RMK AO2 PK
     WND 35028/2258 SLP223 60000 T11221161 11067 21122 51030=
KELZ 172356Z AUTO 19007G18KT 10SM FEW120 M02/M07 A2989 RMK AO2
     SLP150 T10221067 11011 21022 55004=
KGOV 172355Z AUTO 22006G15KT 10SM OVC120 04/M03 A2943 RMK AO2
     SLP984 T00371031 10038 21006 55008 $=
KHPN 172356Z 00000KT 10SM SCT050 00/M06 A3008 RMK AO2 SLP195
     T00001056 10050 20000 51013=
KHWV 172356Z AUTO 00000KT 7SM CLR M03/M07 A3014 RMK AO2 SLP206
     T10281067 10050 21033 53014=
KISP 172356Z 18005KT 10SM BKN050 BKN250 02/M03 A3012 RMK AO2
     SLP202 T00171028 10056 20017 53017=
KJMS 172356Z AUTO 34016G26KT 10SM BKN015 OVC029 M11/M13 A3000 RMK
     AO2 PK WND 35028/2344 SNB01E33 SLP185 P0000 60000 T11061133
     11044 21106 53034=
KMCX 180015Z AUTO 18010KT 10SM CLR 05/M02 A2966 RMK AO2
     T00491020=
KMDT 172356Z 16004KT 10SM CLR 02/M06 A3008 RMK AO2 SLP191
     T00171061 10050 20011 51009=
KMGC 172355Z AUTO 19009G19KT 10SM CLR 04/M01 A2960 RMK AO2=
KOQN 172355Z AUTO 21003KT 10SM CLR 01/M05 A3012 RMK AO2=
PAGA 172356Z AUTO 11020G27KT 3/4SM -SN BR BKN020 OVC036 M11/M13
     A2995 RMK AO2 PK WND 11027/2356 SLP148 P0000 60000 T11061128
     11106 21117 58012 FZRANO TSNO $=
K57C 172355Z AUTO 21006KT 10SM CLR 06/M02 A2948 RMK AO2 T00621020
     10110 20062=
K5SM 172355Z AUTO 10SM OVC025 M08/M13 A2985 RMK AO2=
K6A1 172355Z AUTO 01003KT 10SM CLR 12/M02 A3006 RMK AO2 T01161016
     10163 20116=
K6P9 172355Z AUTO 25012G20KT 2 1/2SM HZ OVC030 20/M02 A2965 RMK
     AO2 T01961018 10215 20135=
K6R3 172355Z AUTO 19003KT 10SM OVC028 16/11 A2983 RMK AO2
     T01580114 10165 20146=
K74V 172355Z AUTO 28017G24KT 10SM CLR 05/M10 A2984 RMK AO2=
K82C 172355Z AUTO 28008KT 10SM OVC110 04/M03 A2948 RMK AO2
     T00431030 10093 20043=
K8A0 172355Z AUTO 19006KT 10SM FEW024 FEW120 11/M03 A2997 RMK
     AO2=
KA39 172355Z AUTO 29008KT 10SM CLR 18/M06 A3009 RMK AO2=
KAAA 172355Z AUTO 18012KT 10SM OVC060 06/00 A2961 RMK AO2
     T00560000 10066 20046=
KADH 172355Z AUTO 16011G17KT 10SM CLR 12/04 A2956 RMK AO2 10160
     20114=
KADT 172355Z AUTO 35020G24KT 10SM CLR 02/M08 A2986 RMK AO2
     T00231076 10120 20023=
KADU 172355Z AUTO 33013G19KT 10SM SCT049 SCT070 03/M03 A2969 RMK
     AO2=
KAFK 172355Z AUTO 02021G29KT 10SM CLR 04/M04 A2970 RMK AO2
     T00431045 10100 20043=
KAGI 172355Z AUTO 23010KT 10SM SCT023 22/17 A2994 RMK AO2
     T02200168 10240 20218 402400165=
KAHQ 172355Z AUTO 34021G32KT 10SM SCT041 SCT120 03/M04 A2976 RMK
     AO2 T00271045 10100 20027=
KAIG 172355Z AUTO 25012G16KT 10SM SCT024 OVC033 00/M03 A2940 RMK
     AO2 T00011027 10015 20000=
KAIO 172355Z AUTO 34011KT 10SM SCT038 BKN120 03/M03 A2968 RMK
     AO2=
KAJR 172355Z AUTO 09003KT 10SM CLR 09/M05 A3004 RMK AO2 T00891051
     10126 20083=
KAJZ 172355Z AUTO 21005KT 10SM CLR 04/M11 A2988 RMK AO2 T00411112
     10060 21017=
KALX 172355Z AUTO 00000KT 10SM CLR 13/02 A3001 RMK AO2 T01280019
     10179 20128=


454 
SAUS80 KWBC 180000 RRA
METAR
KRNO 172355Z 34014G19KT 10SM SCT200 13/M13 A3010 RMK AO2 SLP189
     T01331128 10144 20011 55001 $=
KSCK 172355Z VRB03KT 10SM CLR 16/04 A3017 RMK AO2 SLP217 T01610044
     10167 20089 56010=
KDLH 172355Z 31014G33KT 9SM -SN OVC032 M04/M11 A2952 RMK AO2 PK
     WND 34035/2333 SLP016 P0000 60000 T10391106 10017 21039
     53061=
KEAR 172356Z AUTO 35023G33KT 10SM SCT036 OVC085 02/M06 A2982 RMK
     AO2 PK WND 35035/2346 SLP113 T00221061 10094 20022 53044
     FZRANO=
KMKG 172355Z 19018G29KT 10SM BKN200 06/M02 A2953 RMK AO2 PK WND
     18034/2335 SLP004 4/004 T00561017 10061 20033 55007=
K2I0 172355Z AUTO 20007KT 10SM SCT100 BKN120 12/00 A2979 RMK AO2
     T01240000 10151 20121=
K40U 172355Z AUTO 34014G26KT 10SM OVC065 01/M08 A2988 RMK AO2
     T00051082 10062 20000 400621127=
K48A 172355Z AUTO 00000KT 10SM CLR 09/01 A3008 RMK AO2 T00930007
     10168 20090 401681025=
K48I 172355Z AUTO 00000KT 10SM CLR M02/M06 A2995 RMK AO2=
KFLG 172357Z 24013G24KT 10SM FEW040 05/M05 A3003 RMK AO2 PK WND
     27026/2330 SLP146 T00501050 10067 20028 53006=
K4BM 172355Z AUTO 17003KT 10SM BKN080 OVC100 M04/M10 A2981 RMK
     AO2=
KREO 172352Z AUTO 35012KT 01/M08 A3018 RMK AO1 SLP248 T00111083
     10028 20006 53008=
KRLD 172355Z AUTO 33006KT 10SM CLR 08/M04 A3038 RMK AO2 T00801045
     10092 20021=
KSEP 172355Z AUTO 24017G22KT 2SM OVC017 21/M01 A2967 RMK AO2
     T02061015 10218 20145=
KGPI 172355Z 01006KT 10SM CLR M06/M14 A3024 RMK AO2 SLP285
     T10611144 11033 21067 53007=
KLIC 172355Z AUTO 01012KT 10SM OVC020 M01/M05 A2984 RMK AO2 SLP117
     T10111050 10056 21011 52033=
KMKN 172355Z AUTO 26019G28KT 4SM HZ OVC037 21/M01 A2968 RMK AO2
     T02081012 10217 20147=
KGPZ 172356Z AUTO 32025G34KT 6SM -SN OVC029 M08/M13 A2968 RMK AO2
     PK WND 31034/2355 SLP072 P0000 60000 T10831128 10011 21083
     53077 FZRANO=
KACY 172354Z 19004KT 10SM CLR 00/M07 A3015 RMK AO2 SLP211
     T00001067 10067 20000 51020=
KSYR 172354Z 16006KT 10SM BKN043 BKN150 BKN200 02/M04 A2997 RMK
     AO2 SLP148 4/011 T00171044 10028 20017 55001=
KP58 172355Z AUTO 18014G29KT 03/M03 A2954 RMK AO1 PK WND
     18029/2354 SLP011 T00281028 10033 20006 56025=
KMWN 172349Z 28029KT 1/16SM -SN FZFG DRSN VV000 M14/M14 RMK VRY
     LGT ICG 60000 4/006 931002 11133 21146=
KINW 172356Z AUTO 26020G31KT 10SM CLR 11/M03 A2998 RMK AO2 PK WND
     26031/2351 SLP137 T01061033 10133 20100 53003=
TJSJ 172356Z 07011KT 10SM SCT025 SCT041 27/23 A3010 RMK AO2 SLP192
     T02670228 10289 20261 53012 $=
KVTI 172355Z AUTO 33009G14KT 10SM CLR 04/M04 A2959 RMK AO2
     T00351037 10096 20035=
K12N 172354Z AUTO 00000KT M04/M07 A3008 RMK AO1 SLP201 T10391067
     10050 21039 51012=
KIKW 172355Z AUTO 20011G21KT 10SM CLR 04/M03 A2953 RMK AO2 10050
     20018=
KBZN 172356Z 33004KT 10SM OVC070 M09/M16 A3017 RMK AO2 SLP265
     T10941161 11061 21100 53010=
KLWS 172356Z 29009KT 10SM BKN046 04/M04 A3031 RMK AO2 SLP277
     T00391044 10050 20017 53004=
KSFO 172356Z 27013KT 10SM FEW017 12/08 A3021 RMK AO2 SLP230
     T01220078 10133 20100 55005=
KWMC 172356Z AUTO 36007KT 10SM CLR 06/M07 A3014 RMK AO2 SLP223
     T00561072 10078 20044 53004=
KOQT 172353Z AUTO 00000KT 10SM CLR 06/M04 A2996 RMK AO2 SLP158
     T00611039 10117 20061 56014=
KP68 172353Z AUTO 29016KT 04/M07 A3004 RMK AO1 PK WND 29027/2328
     SLP174 T00441067 10083 20006 53005=
KDRT 172353Z AUTO 14009KT 10SM CLR 20/06 A2979 RMK AO2 SLP085
     T02000061 10228 20150 55005=
KDAB 172353Z 00000KT 10SM FEW050 12/08 A3012 RMK AO2 SLP197
     T01220083 10183 20122 53001=


455 
SAUS70 KWBC 180000 RRK
METAR
KEFT 172355Z AUTO 28010KT 10SM CLR 05/M02 A2948 RMK AO2 T00531024
     10107 20051=
KENL 172355Z AUTO 18015G22KT 10SM BKN100 OVC120 09/00 A2969 RMK
     AO2 T00870000 10091 20074=
KFSE 172355Z AUTO 34020G31KT 5SM HZ SCT022 SCT031 M11/M15 A2987
     RMK AO2=
KGGI 172355Z AUTO 33012KT 10SM CLR 04/M01 A2962 RMK AO2 T00421015
     10116 20041=
KI63 172355Z AUTO 15004KT 10SM OVC065 04/M02 A2958 RMK AO2
     T00421016 10084 20040=
KI67 172355Z AUTO 17004KT 10SM CLR 04/M01 A2982 RMK AO1=
KJXN 172356Z 16014G24KT 10SM CLR 02/M03 A2964 RMK AO2 SLP049
     T00171033 10033 20011 58015=
KLVN 172355Z AUTO 31017G25KT 10SM OVC037 M02/M08 A2963 RMK AO2=
KSTE 172355Z AUTO 26009G15KT 10SM SCT110 03/M02 A2945 RMK AO2
     T00281019 10045 20028=
KVPZ 172356Z AUTO 18009KT 10SM CLR 03/M02 A2960 RMK AO2 SLP031
     T00331017 10061 20028 57014=
KY49 172355Z AUTO 31011G26KT 5SM -SN BKN018 BKN025 OVC032 M09/M13
     A2975 RMK AO2 T10911129 11020 21091=
KY51 172355Z AUTO 29009G15KT 10SM BKN090 02/M04 A2951 RMK AO1
     T00231036 10070 20023=
K3LF 172355Z AUTO 16014KT 10SM OVC110 05/00 A2964 RMK AO2
     T00481003 10057 20032=
K4V9 172355Z AUTO 34019G34KT 10SM SCT029 OVC100 M02/M06 A2984 RMK
     AO2=
KART 172356Z AUTO 19007KT 10SM OVC041 01/M04 A2992 RMK AO2 SLP138
     T00111039 10011 20000 55008 $=
KC29 172355Z AUTO 26006KT 10SM CLR 05/M02 A2949 RMK AO1 T00451022
     10107 20045=
KDSF 180000Z AUTO 11015KT 10SM OVC055 20/12 A3001 RMK A01=
KFBR 172355Z AUTO 31010G18KT 1 1/4SM -SN OVC012 M04/M06 A2991 RMK
     AO2 T10431065 10022 21043=
KGLX 172355Z AUTO RMK A01 PNO=
KHAI 172355Z AUTO 19010KT 10SM CLR 03/M02 A2964 RMK AO2 T00301020
     10050 20027=
KHYA 172356Z 00000KT 10SM CLR M05/M08 A3011 RMK AO2 SLP196
     T10501078 10011 21056 51020=
KICL 172355Z AUTO 36015G23KT 10SM CLR 05/M04 A2969 RMK AO2=
KJPX 172355Z AUTO 00000KT 10SM CLR M05/M09 A3013 RMK AO2 T10551091
     10021 21055 TSNO=
KLUM 172355Z AUTO 29017G23KT 10SM OVC037 01/M04 A2953 RMK AO2
     T00101045 10040 20010 PWINO=
KSLO 172355Z AUTO 19015G21KT 10SM SCT070 OVC110 10/00 A2969 RMK
     AO2 T00971005 10105 20090=
KVAF 172355Z 15018KT 8SM OVC055 22/17 A2988 RMK A01 WINDS
     UN-RELIABLE 350 TO 45 DEGREES=
KBRG 172355Z AUTO 28013G17KT 10SM CLR 11/M07 A2989 RMK AO2
     T01071072 10127 20103=
KCEC 172356Z AUTO 35007KT 10SM CLR 11/07 A3022 RMK AO2 SLP236
     T01110067 10111 20083 56011=
KCTB 172356Z AUTO 34009KT 10SM FEW015 BKN021 M11/M14 A3024 RMK AO2
     SLP300 60000 T11061144 11089 21106 53004=
KEED 172356Z AUTO 21008KT 10SM CLR 20/M07 A3001 RMK AO2 SLP150
     T02001072 10206 20117 55008 PWINO $=
KLNC 172355Z AUTO 18008KT 10SM CLR 13/08 A2967 RMK AO2 T01340075
     10156 20118=
KRDM 172356Z 35004KT 10SM CLR 05/M07 A3027 RMK AO2 SLP268
     T00501067 10050 20006 53001=
KSBP 172356Z 32013KT 10SM CLR 14/09 A3019 RMK AO2 SLP223 T01390089
     10167 20106 55009=
KTPH 172356Z AUTO 30018G29KT 10SM CLR 09/M13 A3006 RMK AO2 PK WND
     31033/2308 SLP188 T00941128 10111 20039 53004=
KWJF 172356Z 26022G32KT 10SM CLR 15/M10 A3008 RMK AO2 PK WND
     26034/2335 SLP187 T01501100 10183 20144 56004=
KMCI 172353Z 33007KT 10SM FEW047 BKN160 04/M01 A2961 RMK AO2
     SLP030 4/001 T00441011 10089 20044 53024=
KBOI 172353Z 30016G22KT 10SM SCT055 03/M08 A3018 RMK AO2 PK WND
     31027/2310 SLP239 T00331083 10050 20006 53014=
KEYW 172353Z 06006KT 10SM SCT023 SCT037 BKN049 21/21 A2999 RMK AO2
     SLP161 60100 T02110206 10228 20206 51006=
KGRB 172353Z AUTO 22005KT 10SM OVC085 05/M02 A2942 RMK AO2 SLP968
     T00501017 10078 20044 51007=


456 
SAXX60 KWBC 180000
METAR
ROTM 172356Z AUTO 03003KT 10SM CLR A3021 RMK AO2 SLPNO 6//// 52007
     PNO $=
KGVW 172355Z AUTO 15017KT 10SM CLR 19/16 A2982 RMK A01=
KNDZ 172356Z 14006KT 10SM FEW055 SCT140 SCT250 13/06 A3003 RMK AO2
     SLP158 T01330056 10178 20133 58007 $=
KEDW 172355Z 29020G24KT 50SM CLR 17/M14 A3003 RMK AO2A PK WND
     29027/27 SLP167 T01651141 10195 20146 55003=
KSLI 172355Z 00000KT 10SM FEW030 15/07 A3012 RMK AO2A SLP203
     T01540069 10173 20144 57013=
KAFF 172355Z AUTO 36004KT 10SM OVC025 00/M06 A2979 RMK AO2 SLP086
     T00031059 10121 20003 52026=
KBLV 172355Z 17011KT 10SM OVC100 09/M02 A2965 RMK AO2A SLP047
     60000 T00851016 10092 20071 55003=
KMIB 172355Z 34013KT 10SM FEW025 M13/M17 A3007 RMK AO2A SLP217
     60000 T11301170 11085 21131 52029 $=
KAFF 172355Z AUTO 36004KT 10SM OVC025 00/M06 A2979 RMK AO2 SLP086
     T00031059 10121 20003 52026=
KBLV 172355Z 17011KT 10SM OVC100 09/M02 A2965 RMK AO2A SLP047
     60000 T00851016 10092 20071 55003=
KEDW 172355Z 29020G24KT 50SM CLR 17/M14 A3003 RMK AO2A PK WND
     29027/27 SLP167 T01651141 10195 20146 55003=
KFAF 172355Z 14006KT 10SM CLR 02/M05 A3013 RMK AO2A SLP207
     T00201052 10085 20020 50008 $=
KIAB 172355Z 36016KT 10SM SCT170 04/M02 A2960 RMK AO2A SLP032
     T00411021 10116 20040 4/000 52034=
KMIB 172355Z 34013KT 10SM FEW025 M13/M17 A3007 RMK AO2A SLP217
     60000 T11301170 11085 21131 52029 $=
KPOE 172355Z 15017G22KT 8SM FEW100 SCT120 OVC150 14/08 A2975 RMK
     AO2A PRESFR SLP078 60000 T01370079 10150 20117 57053=
KSLI 172355Z 00000KT 10SM FEW030 15/07 A3012 RMK AO2A SLP203
     T01540069 10173 20144 57013=
PASY 172355Z 34017G23KT 7SM SCT011 BKN030 OVC250 02/01 A2935 RMK
     AO2A SHSNB35E46 SLP940 ALSTG/SLP ESTMD WND DATA ESTMD 60002
     T00170004 10024 20013 51017 PNO FZRANO $=
PHBK 172351Z AUTO 36015KT 10SM FEW017 24/17 A2993 RMK AO2 PK WND
     01026/2254 SLP136 T02440167 10250 20206 58016=
KINS 172355Z AUTO 25013KT 10SM CLR 15/M11 A3000 RMK AO2 SLP153
     T01471109 10156 20047 55004 $=
KNYL 172357Z AUTO 25007KT 10SM CLR 19/M03 A3006 RMK AO2 SLP178
     T01941033 10200 20144 55007 $=
KCEF 172355Z 00000KT 10SM SCT055 M03/M07 A3007 RMK AO2A SLP190
     T10271067 10030 21028 52015=
KPSM 172355Z 17005KT 10SM FEW050 SCT100 M02/M09 A3006 RMK AO2A
     SLP183 T10191086 10023 21023 51012=
KADW 172355Z AUTO 12007KT 10SM CLR 00/M06 A3010 RMK AO2 SLP203
     T00011061 10061 20001 51004 $=
KBAD 172355Z AUTO 11009KT 10SM FEW130 10/06 A2976 RMK AO2 SLP082
     60000 T00970059 10115 20096 57018=
KDOV 172355Z AUTO 16003KT 10SM CLR 01/M06 A3014 RMK AO2 SLP210
     T00051057 10065 20004 50011=
KGSB 172355Z 17006KT 10SM CLR 07/M02 A3013 RMK AO2A SLP207
     T00741016 10127 20057 52009 $=
KHST 172355Z AUTO 09010KT 10SM -DZ BKN035 BKN044 OVC070 21/18
     A3001 RMK AO2 DZE00RAB52E53DZB53 SLP166 P0000 60001 T02140178
     10214 20194 58005=
KLFI 172355Z AUTO 17005KT 10SM CLR 03/M04 A3017 RMK AO2 SLP223
     T00341039 10066 20034 50009 $=
KMCF 172355Z 08007KT 10SM SCT055 16/13 A3005 RMK AO2A SLP176 ALSTG
     ESTMD T01560133 53001 FZRANO $=
KNHK 172352Z 16007KT 10SM CLR 03/M05 A3016 RMK AO2 SLP212
     T00331050 10067 20033 51008 $=
KOFF 172355Z 35017G25KT 10SM BKN120 BKN250 05/M06 A2972 RMK AO2A
     PK WND 34032/20 SLP077 T00491058 10106 20049 52046 $=
KMTC 172356Z 17014KT 10SM BKN140 02/M03 A2969 RMK AO2A SLP065
     T00171026 10028 20015 57014 $=
KCEF 172355Z 00000KT 10SM SCT055 M03/M07 A3007 RMK AO2A SLP190
     T10271067 10030 21028 52015=
KGVW 172355Z AUTO 15017KT 10SM CLR 19/16 A2982 RMK A01=


457 
SAUS70 KWBC 180000 RRI
METAR
KFKL 172356Z AUTO 18012KT 10SM CLR M01/M04 A2989 RMK AO2 SLP141
     T10061044 10017 21006 58008 FZRANO=
KMBL 172356Z AUTO 20014G21KT 10SM CLR 05/M01 A2946 RMK AO2 SLP983
     T00501006 10056 20044 51005=
KMNM 172357Z AUTO 24008G15KT 10SM BKN110 04/M02 A2939 RMK AO2
     SLP959 T00441022 10044 20028 51005 $=
KMQB 172355Z AUTO 21005KT 10SM OVC055 06/00 A2960 RMK AO2
     T00641004 10120 20063=
KMZH 172355Z AUTO 32015G25KT 7SM -SN BKN031 OVC037 M03/M08 A2960
     RMK AO2=
KOXV 172355Z AUTO 33015G21KT 10SM CLR 04/M01 A2961 RMK AO2=
KPBH 172355Z AUTO 29009G19KT 260V320 10SM BKN033 OVC041 01/M05
     A2940 RMK AO2 T00051054 10015 20005=
KPCZ 172355Z AUTO 25009KT 10SM SCT080 OVC100 05/M02 A2945 RMK AO2
     T00531016 10091 20050=
KPHN 172355Z AUTO 19014G25KT 10SM CLR 02/M03 A2972 RMK AO2=
KRUT 172356Z AUTO 00000KT 10SM BKN038 OVC045 M02/M05 A3002 RMK AO2
     SLP174 T10221050 10011 21022 53007 FZRANO $=
KRZL 172355Z AUTO 18015G20KT 10SM CLR 04/00 A2963 RMK AO2=
KYKN 172356Z AUTO 33030G36KT 10SM BKN031 BKN120 M02/M08 A2986 RMK
     AO2 PK WND 33036/2356 SLP140 T10171078 10056 21017 51047
     FZRANO=
KBOS 172354Z 21005KT 10SM CLR 01/M08 A3010 RMK AO2 SLP193
     T00111078 10033 21017 51016=
KPHL 172354Z 20006KT 10SM CLR 02/M06 A3014 RMK AO2 SLP205
     T00221061 10067 20017 51015 $=
TISX 172353Z 06007KT 10SM FEW021 BKN060 OVC075 27/22 A3009 RMK AO2
     SLP186 60000 T02670222 10289 20261 53014 $=
KAEL 172355Z AUTO 32013G23KT 10SM SCT028 M02/M06 A2962 RMK AO2
     TSNO=
KBTA 172355Z AUTO 34014G20KT 10SM SCT120 03/M05 A2973 RMK AO2
     T00271051 10086 20027=
KFWC 172355Z AUTO 18009KT 10SM BKN100 BKN120 07/00 A2972 RMK AO2
     T00651005 10077 20056=
KGWB 172355Z AUTO 16003KT 10SM CLR 02/M02 A2968 RMK AO2=
KI16 172355Z AUTO 10SM CLR 00/M03 A3001 RMK AO2 T00031027 10094
     20003=
KIFA 172355Z AUTO 31022G27KT 10SM OVC037 03/M05 A2965 RMK AO2
     T00311046 10094 20031=
KMRJ 172355Z AUTO 27006KT 10SM CLR 03/M02 RMK AO2 PWINO=
KOEB 172355Z AUTO 17009KT 10SM CLR 02/M03 A2964 RMK AO2 10048
     20019=
KOLG 172355Z AUTO 31013G18KT 10SM OVC027 M01/M08 A2951 RMK AO1=
KOXD 172355Z AUTO 16010KT 10SM CLR 06/M02 A2979 RMK AO2 T00551017
     10077 20055=
KPDC 172355Z AUTO 31008G14KT 10SM BKN110 04/M03 A2955 RMK AO2
     T00441033 10091 20043=
KPEX 172355Z AUTO 32020G28KT 10SM CLR M08/M12 A2974 RMK AO2=
KRCX 172355Z AUTO 30018G26KT 10SM BKN039 OVC045 00/M06 A2947 RMK
     AO2 T00021058 10018 20002=
KRPD 172355Z AUTO 29009G18KT 10SM OVC034 00/M07 A2953 RMK AO2
     T10041071 10025 21004=
KRRL 172355Z AUTO 26008KT 10SM SCT028 SCT033 BKN041 01/M03 A2940
     RMK AO2 T00071026 10021 20007 TSNO=
KASW 172355Z AUTO 19005KT 10SM CLR 02/M02 A2967 RMK AO2
     T00281026=
KCBF 172355Z AUTO 34017G27KT 10SM BKN120 03/M05 A2969 RMK AO2=
KDAY 172356Z 16013KT 10SM FEW250 03/M02 A2981 RMK AO2 SLP101 4/002
     T00331022 10050 20033 56014=
KEGV 172355Z 10SM BKN033 BKN039 OVC045 01/M05 A2936 RMK AO2
     T00101048 10024 20010=
KETB 172355Z AUTO 24005KT 10SM CLR 05/M03 A2947 RMK AO2=
KEZS 172355Z AUTO 25005KT 10SM SCT110 04/M02 A2942 RMK AO2
     T00421022 10055 20037=
KFPK 172356Z AUTO 18014G18KT 10SM CLR 02/M03 A2960 RMK AO2=
KGON 172356Z 01003KT 10SM CLR M02/M04 A3013 RMK AO2 SLP202
     T10221044 10033 21033 53017=
KGRN 172355Z AUTO 36020G25KT 10SM SCT021 SCT026 SCT120 M06/M09
     A2995 RMK AO2 T10561093 10000 21056=
KHHV 172355Z 10SM OVC049 23/17 A2987 RMK A01 WIND SENSOR
     OFFLINE=
KIKT 180005Z AUTO 15015KT 140V230 10SM FEW041 OVC050 19/12 A3001
     RMK A01=


458 
SAUS70 KWBC 180000 RRH
METAR
K2P2 172355Z AUTO 21005KT 10SM OVC100 02/01 A2938 RMK AO2
     T00220007 10025 20021=
K2R9 172355Z AUTO 23004KT 10SM CLR 19/13 A2983 RMK AO2 T01900134
     10203 20184 402030068=
K36K 172355Z AUTO 02024G33KT 10SM CLR 06/M08 A2978 RMK AO2=
K3K3 172355Z AUTO 03016G24KT 10SM CLR 06/M08 A2977 RMK AO2 PK WND
     03034/14 PRESRR 10149 20059=
K49A 172355Z AUTO 18003KT 10SM CLR 10/M09 A3001 RMK AO2=
K4A9 172355Z AUTO 00000KT 10SM CLR 09/M01 A2997 RMK AO2 T00931008
     10148 20085 401481060=
K4R5 172355Z AUTO 29016G23KT 10SM OVC030 00/M05 A2945 RMK AO2
     T00001055=
K4V0 172355Z AUTO 24004KT 10SM 03/M09 A2983 RMK AO2 T00291092
     10052 21050 PWINO=
K6I2 172355Z AUTO 16008KT 10SM CLR 08/M01 A2984 RMK AO2=
KC62 180015Z AUTO 19012G16KT 10SM CLR 02/M02 A2966 RMK AO2
     T00221028=
KEQA 172355Z AUTO 35011G16KT 10SM CLR 03/M01 A2960 RMK AO2=
KGHW 172355Z AUTO 31017G33KT 10SM SCT017 M09/M13 A2977 RMK AO2=
KI23 172355Z AUTO 13005KT 10SM CLR M00/M04 A2985 RMK AO1=
KIMS 172355Z AUTO 12005KT 10SM CLR 05/00 A2982 RMK AO2=
KIOB 172355Z AUTO 00000KT 10SM CLR 06/M03 A2988 RMK AO2 PWINO=
KLWA 172355Z AUTO 20012G20KT 10SM CLR 06/M04 A2957 RMK AO2
     T00571041 10063 20037=
KMSP 172353Z COR 31023G36KT 10SM BKN038 M03/M09 A2963 RMK AO2 PK
     WND 31036/2347 SLP043 4/001 T10281089 10033 21028 53046=
K2V5 172355Z AUTO 36009G15KT 10SM BKN060 OVC075 00/M06 A2988 RMK
     AO2=
KAVQ 172355Z AUTO 30007KT 10SM CLR 17/M07 A3006 RMK AO2=
KBAM 172355Z AUTO 33012G19KT 10SM CLR 06/M05 A3011 RMK AO1=
KBKD 172355Z AUTO 25014G22KT 2SM HZ OVC027 21/00 A2961 RMK AO2
     T02081002 10229 20155=
KCPW 172355Z AUTO 21009G19KT 10SM BKN055 M08/M16 A2993 RMK AO2=
KCWC 172355Z AUTO 23012G19KT 7SM SCT110 22/00 A2952 RMK AO2
     T02191005 10225 20151=
KGPM 172355Z AUTO 18013G18KT 10SM SCT060 15/05 A2965 RMK AO2
     T01500053 10170 20125=
KHHF 172355Z AUTO 01017G29KT 10SM CLR 12/M02 A2963 RMK AO2
     T01221016 10177 20122=
KONP 172355Z AUTO 34008KT 10SM CLR 08/02 A3040 RMK AO2=
KPKV 172355Z AUTO 20011G17KT 10SM CLR 20/18 A2980 RMK AO2
     T02000175 10225 20200=
KPRS 172355Z AUTO 29011G20KT 10SM CLR 21/M03 A2989 RMK AO2
     T02101032 10236 20207=
KSAA 172355Z AUTO 33008KT 1 1/2SM -SN SCT010 OVC016 M06/M06 A2981
     RMK AO2=
KEAT 172355Z AUTO 00000KT 10SM CLR 03/M06 A3036 RMK AO2 SLP292
     T00331056 10039 21022 53002=
KENV 172356Z AUTO 19008KT 10SM FEW060 03/M06 A3004 RMK AO2 SLP207
     T00331056 10050 21017 53009=
KEUL 172356Z AUTO 28018KT 10SM CLR 04/M08 A3023 RMK AO2 PK WND
     28026/2259 SLP257 T00391078 10061 20028 53013=
KFNL 172356Z 07010KT 10SM FEW032 OVC046 M02/M08 A2992 RMK AO2
     SNE30 SLP154 P0000 60000 T10221078 10133 21022 51053=
KGDV 172356Z AUTO 33012KT 10SM SCT022 M10/M13 A3019 RMK AO2 SNE03
     SLP259 P0000 60000 T11001133 11067 21106 53019 FZRANO
     TSNO=
KGTU 172356Z 20010KT 10SM CLR 16/11 A2978 RMK AO2 SLP082 T01560106
     10167 20133 58006=
KGUC 172356Z AUTO 00000KT 10SM FEW065 M14/M18 A2990 RMK AO2 SLP278
     60000 T11441178 11128 21217 55002 FZRANO=
KLRD 172356Z 18011KT 10SM CLR 21/10 A2980 RMK AO2 SLP093 6////
     T02060100 10233 20194 56004=
KSDY 172356Z AUTO 35019KT 10SM FEW023 M12/M16 A3021 RMK AO2 SLP270
     60000 T11171156 11078 21117 51013 FZRANO=
KSGU 172356Z AUTO 23005KT 10SM CLR 12/M13 A2999 RMK AO2 SLP162
     60001 T01221128 10122 20017 55007=
KSMN 172356Z AUTO 29008KT 10SM OVC080 M01/M12 A3011 RMK AO2 SLP239
     T10111122 10011 21061 53014 FZRANO=
KTYL 172355Z AUTO 23016G24KT 10SM CLR 07/M05 A3003 RMK AO2=


459 
SAPQ50 KWBC 180000
METAR
PGWT 172357Z 08011KT 7SM FEW018 29/23 A2990=
PGWT 172357Z 08011KT 7SM FEW018 29/23 A2990=


460 
SAUS70 KWBC 180000 RRG
METAR
KWVL 172356Z AUTO 19004KT 10SM CLR M06/M11 A3003 RMK AO2 SLP206
     T10611111 10011 21061 53016 FZRANO=
KY50 172356Z AUTO 26008KT 10SM OVC080 06/M02 A2945 RMK AO2 SLP978
     6//// T00561017 10083 20056 51012 $=
K0E0 172355Z AUTO 30009KT 10SM CLR 07/M14 A2987 RMK AO2 T00731139
     10109 20073=
KCMA 172355Z 26006KT 10SM SCT025 14/08 A3016 RMK AO2 SLP221
     T01390083 10156 20133 58004=
KCVN 172356Z AUTO 02008KT 10SM CLR 08/M04 A2974 RMK AO2 SLP071
     T00831044 10161 20083 53038=
KEGE 172356Z 23010KT 10SM OVC070 02/M12 A2984 RMK AO2 SLP141
     T00171117 10050 21072 53007=
KHYI 172356Z 22008KT 14/11 A2982 RMK AO2 SLP095 T01440106 10156
     20122 58001 PWINO $=
KILE 172356Z AUTO 19013G18KT 10SM CLR 16/09 A2974 RMK AO2 SLP068
     T01560094 10183 20144 56007=
KKLS 172356Z AUTO 35010KT 10SM CLR 03/01 A3044 RMK AO2 SLP311
     T00280006 10056 20028 56003=
KLGD 172356Z AUTO 31010KT 10SM FEW050 01/M08 A3029 RMK AO2 SLP282
     60000 T00111078 10028 20011 53004 FZRANO=
KPTV 172356Z AUTO RMK AO2 SLPNO 6//// PWINO FZRANO $=
KPUB 172353Z 07008KT 10SM CLR 03/M04 A2983 RMK AO2 SLP091
     T00331039 10144 20033 53040=
KPWG 172356Z AUTO 19014G21KT 10SM CLR 16/10 A2972 RMK AO2 SLP060
     T01610100 10189 20139 58009=
KSKX 172356Z AUTO 24016KT 10SM CLR 04/M16 A2985 RMK AO2 SLP133
     T00441161 10083 20044 53011=
KVIS 172356Z AUTO 00000KT 10SM CLR 17/03 A3017 RMK AO2 SLP217
     T01720028 10178 20083 56015 $=
KFOD 172356Z AUTO 35014G21KT 10SM FEW038 OVC110 01/M07 A2969 RMK
     AO2 PRESRR SLP081 T00061067 10089 20006 53041 FZRANO=
KFRM 172356Z AUTO 33026G36KT 10SM FEW120 M03/M08 A2970 RMK AO2 PK
     WND 33038/2339 SLP077 T10281078 10044 21028 51044 FZRANO=
KLEW 172356Z AUTO 16005KT 10SM OVC060 M04/M08 A3006 RMK AO2 SLP191
     6//// T10391083 10011 21061 53011 FZRANO PNO $=
KMJX 172356Z AUTO 18003KT 10SM CLR M04/M07 A3015 RMK AO2 SLP216
     T10391072 10061 21039 51018 FZRANO=
KMKT 172356Z AUTO 31020G33KT 10SM CLR M04/M09 A2968 RMK AO2 PK WND
     31035/2259 SLP066 T10391094 10033 21039 53028 FZRANO=
KN03 172355Z AUTO 18006KT 10SM OVC032 00/M04 A2994 RMK AO2=
KSFM 172356Z AUTO 24003KT 10SM CLR M05/M08 A3008 RMK AO2 SLP192
     T10501083 10017 21050 51016 FZRANO=
KSGH 172356Z AUTO 16009KT 10SM CLR 02/M03 A2983 RMK AO2 SLP113
     T00171033 10028 20017 56018=
KSGU 172356Z AUTO 23005KT 10SM CLR 12/M13 A2999 RMK AO2 SLP162
     60001 T01221128 10122 20017 55007=
KTVF 172356Z AUTO 34018G26KT 6SM -SN CLR M11/M16 A2990 RMK AO2 PK
     WND 34030/2329 SLP148 P0000 60000 T11111156 11056 21111 51071
     FZRANO=
KWWD 172356Z AUTO 00000KT 10SM CLR M01/M05 A3018 RMK AO2 SLP221
     T10111050 10056 21017 51016 FZRANO=
KRNV 172355Z AUTO 16011KT 10SM -RA FEW060 SCT075 SCT090 10/06
     A2983 RMK AO2 RAB2355 P0000 T00990057 $=
KROG 172358Z 15013KT 10SM FEW060 SCT070 BKN110 08/03 A2957 RMK AO2
     PK WND 16027/2338 RAB05E20 SLP015 P0000 60000 T00830028 10144
     20083 58013=
KVWU 172355Z AUTO 34014G22KT 7SM SCT012 SCT027 OVC037 M08/M14
     A2977 RMK AO2=
K0CO 172355Z AUTO 34008KT M1/4SM +SN OVC001 M13/M15 A2976 RMK
     AO2=
K17J 172355Z AUTO 00000KT 10SM CLR 12/02 A3007 RMK AO2=
K18A 172355Z AUTO 12006KT 10SM CLR 09/M03 A3006 RMK AO2 T00931032
     10139 20086 401391014=
K1F0 172355Z AUTO 16007KT 10SM CLR 12/03 A2956 RMK AO2 T01250033
     10157 20123 401570032=
K1R8 172355Z AUTO 13004KT 10SM BKN043 BKN050 OVC060 15/06 A3001
     RMK AO2=
K2G9 172355Z AUTO 19003KT 10SM CLR M01/M07 A2994 RMK AO2=
K2IS 172355Z AUTO 06009KT 10SM DZ SCT006 BKN016 OVC060 17/16 A3008
     RMK AO2 P0001 T01680159 10215 20168 402150117 60001=


461 
SAUS70 KWBC 180000 RRE
METAR
KCOD 172356Z AUTO 36011G16KT 9SM -SN OVC037 M10/M13 A3010 RMK AO2
     SLP241 P0000 60000 T11001133 11072 21100 53016 FZRANO=
KCOE 172356Z AUTO 25005KT 10SM OVC026 M01/M04 A3029 RMK AO2 SLP305
     T10111039 10017 21022 53007 FZRANO=
KDIJ 172356Z AUTO 34005KT 10SM FEW030 SCT039 OVC050 M08/M13 A2998
     RMK AO2 SLP195 60000 T10831128 11044 21083 53016 $=
KHDN 172356Z AUTO 21003KT 10SM OVC065 M03/M09 A2982 RMK AO2 SLP151
     T10331089 11006 21067 55007 FZRANO=
KOCH 172356Z AUTO 16007KT OVC031 13/10 A2980 RMK AO2 SLP097 60001
     T01280100 10133 20117 58002 PWINO RVRNO $=
KOTH 172356Z 02010KT 10SM CLR 08/00 A3036 RMK AO2 SLP281 T00830000
     10100 20050 55003=
KPRX 172356Z AUTO 15010KT CLR 11/06 A2967 RMK AO2 SLP048 T01060061
     10150 20106 56017 PWINO $=
KPVU 172356Z 31017KT 10SM SCT080 OVC090 02/M04 A2996 RMK AO2
     SLP170 T00221039 10050 20000 53004=
K5H4 172355Z AUTO 33019G27KT 10SM OVC030 M12/M18 A3007 RMK AO2=
KBKX 172356Z AUTO 34019G28KT 9SM FEW018 M07/M11 A2985 RMK AO2 PK
     WND 34030/2308 SNB40E55 PRESRR SLP145 P0000 60000 T10721111
     10039 21072 51058 FZRANO=
KBLM 172356Z AUTO 16004KT 10SM CLR 01/M06 A3015 RMK AO2 SLP210
     T00111056 10050 21006 53015 FZRANO=
KBMI 172356Z 18015KT 10SM OVC055 05/00 A2960 RMK AO2 SLP028
     T00500000 10078 20044 58001=
KCIU 172356Z AUTO VRB06KT 10SM -RA OVC012 02/01 A2938 RMK AO2
     UPB04E14B45E50RAB14SNE04 SLP957 P0000 60000 T00170006 10022
     21006 56011 FZRANO=
KCWI 172356Z AUTO 30009KT 10SM FEW060 02/M03 A2954 RMK AO2 SLP014
     T00221028 10122 20022 53014 FZRANO=
KGVQ 172356Z AUTO 19007KT 10SM SCT120 01/M05 A2986 RMK AO2 SLP124
     60000 T00061050 10017 20006 58009 FZRANO=
KJRB 172356Z AUTO 23006KT 10SM FEW050 03/M03 A3014 RMK AO2 PK WND
     28030/2325 SLP205 6//// T00331033 10072 20033 51018 PNO $=
KJRO 172355Z AUTO 03001KT 10SM CLR M00/M03 A2990 RMK AO2 10066
     21010=
KOIC 172355Z AUTO 16011KT 10SM OVC036 M00/M05 A2996 RMK AO2 10003
     21004=
KOKK 172356Z AUTO 17017KT 10SM CLR 03/M01 A2969 RMK AO2 SLP062
     T00281011 10033 20022 56018=
KOTG 172356Z AUTO 33029G36KT 10SM BKN025 M04/M09 A2976 RMK AO2
     SLP101 6//// T10441094 10050 21044 FZRANO $=
KOYM 172355Z AUTO 15003KT 10SM BKN120 M01/M05 A2995 RMK AO2=
KSGH 172356Z AUTO 16009KT 10SM CLR 02/M03 A2983 RMK AO2 SLP113
     T00171033 10028 20017 56018=
PAGA 172356Z AUTO 11020G27KT 3/4SM -SN BR BKN020 OVC036 M11/M13
     A2995 RMK AO2 PK WND 11027/2356 SLP148 P0000 60000 T11061128
     11106 21117 58012 FZRANO TSNO $=
KAND 172356Z AUTO 00000KT 10SM CLR 08/M03 A3006 RMK AO2 SLP181
     T00781033 10139 20072 53001=
KBJJ 172356Z AUTO 17012KT 10SM CLR 01/M06 A2984 RMK AO2 SLP116
     T00111056 10033 20011 58018=
KBRG 172355Z AUTO 28013G17KT 10SM CLR 11/M07 A2989 RMK AO2
     T01071072 10127 20103=
KBWP 172355Z AUTO 34027G34KT 6SM -SN BR BKN024 M09/M11 A2991 RMK
     AO2=
KCEC 172356Z AUTO 35007KT 10SM CLR 11/07 A3022 RMK AO2 SLP236
     T01110067 10111 20083 56011=
KCJR 172355Z AUTO 00000KT 10SM CLR 00/M05 A3011 RMK AO2 T10051051
     10071 21007=
KCLK 172355Z AUTO 36031G38KT 10SM CLR 13/M02 A2953 RMK AO2=
KCTB 172356Z AUTO 34009KT 10SM FEW015 BKN021 M11/M14 A3024 RMK AO2
     SLP300 60000 T11061144 11089 21106 53004=
KCXE 172355Z AUTO 10003KT 10SM CLR 01/M04 A3011 RMK AO1 T00081042
     10095 20008=
KCXY 172356Z VRB05KT 10SM CLR 02/M07 A3008 RMK AO2 SLP191
     T00221067 10061 20017 51010=
KDIK 172356Z AUTO 33016G22KT 10SM OVC021 M12/M16 A3007 RMK AO2 PK
     WND 35028/2258 SLP223 60000 T11221161 11067 21122 51030=


462 
SAUS70 KWBC 180000 RRF
METAR
KEAU 172356Z 29012KT 10SM BKN042 01/M06 A2952 RMK AO2 SLP004
     T00061061 10028 20006 53027=
KEED 172356Z AUTO 21008KT 10SM CLR 20/M07 A3001 RMK AO2 SLP150
     T02001072 10206 20117 55008 PWINO $=
KEKO 172356Z AUTO 36009KT 10SM OVC045 03/M07 A3008 RMK AO2 SLP213
     T00281067 10067 20022 53010=
KELZ 172356Z AUTO 19007G18KT 10SM FEW120 M02/M07 A2989 RMK AO2
     SLP150 T10221067 11011 21022 55004=
KGRD 172356Z AUTO 00000KT 10SM CLR 07/M03 A3008 RMK AO2 SLP190
     T00671033 10139 20056 53002=
KHPN 172356Z 00000KT 10SM SCT050 00/M06 A3008 RMK AO2 SLP195
     T00001056 10050 20000 51013=
KHSP 172355Z AUTO 18007KT 10SM CLR 00/M07 A2996 RMK AO2 T10051070
     10011 21017=
KHWV 172356Z AUTO 00000KT 7SM CLR M03/M07 A3014 RMK AO2 SLP206
     T10281067 10050 21033 53014=
KI67 172355Z AUTO 17004KT 10SM CLR 04/M01 A2982 RMK AO1=
KISP 172356Z 18005KT 10SM BKN050 BKN250 02/M03 A3012 RMK AO2
     SLP202 T00171028 10056 20017 53017=
KJMS 172356Z AUTO 34016G26KT 10SM BKN015 OVC029 M11/M13 A3000 RMK
     AO2 PK WND 35028/2344 SNB01E33 SLP185 P0000 60000 T11061133
     11044 21106 53034=
KJXN 172356Z 16014G24KT 10SM CLR 02/M03 A2964 RMK AO2 SLP049
     T00171033 10033 20011 58015=
KLAS 172356Z 09005KT 10SM CLR 16/M12 A3000 RMK AO2 SLP157
     T01561117 10156 20089 55010=
KMCX 180015Z AUTO 18010KT 10SM CLR 05/M02 A2966 RMK AO2
     T00491020=
KMDT 172356Z 16004KT 10SM CLR 02/M06 A3008 RMK AO2 SLP191
     T00171061 10050 20011 51009=
KMGC 172355Z AUTO 19009G19KT 10SM CLR 04/M01 A2960 RMK AO2=
KOEL 172355Z AUTO 02014G23KT 10SM CLR 02/M09 A2980 RMK AO1
     T00181086 10121 20018=
KOQN 172355Z AUTO 21003KT 10SM CLR 01/M05 A3012 RMK AO2=
KPAN 172355Z AUTO 25006KT 230V290 10SM BKN045 BKN055 08/M04 A3007
     RMK AO2 10086 20037=
KPCM 172355Z AUTO 08003KT 10SM OVC090 18/06 A3010 RMK AO2=
KRDM 172356Z 35004KT 10SM CLR 05/M07 A3027 RMK AO2 SLP268
     T00501067 10050 20006 53001=
KSBP 172356Z 32013KT 10SM CLR 14/09 A3019 RMK AO2 SLP223 T01390089
     10167 20106 55009=
KSLE 172356Z 04004KT 6SM BR BKN015 04/01 A3041 RMK AO2 SLP297
     T00440011 10050 20017 55004=
KSRR 172355Z AUTO 29014G25KT 10SM CLR 06/M07 A2989 RMK AO2=
KTPH 172356Z AUTO 30018G29KT 10SM CLR 09/M13 A3006 RMK AO2 PK WND
     31033/2308 SLP188 T00941128 10111 20039 53004=
KUKI 172356Z AUTO 23004KT 10SM CLR 16/05 A3015 RMK AO2 SLP210
     T01610050 10172 20061 55009=
KWJF 172356Z 26022G32KT 10SM CLR 15/M10 A3008 RMK AO2 PK WND
     26034/2335 SLP187 T01501100 10183 20144 56004=
KEEN 172356Z AUTO 19004KT 10SM OVC042 M01/M05 A3006 RMK AO2 SLP188
     T10061050 10017 21011 53013 FZRANO $=
KESC 172356Z AUTO 22005KT 10SM OVC110 02/M02 A2938 RMK AO2 SLP959
     T00171017 10022 20017 53010 FZRANO=
KGAI 172356Z AUTO 13005KT 10SM CLR 01/M06 A3010 RMK AO2 SLP214
     6//// T00061056 10050 20006 50001 FZRANO PNO $=
KLCI 172356Z AUTO 00000KT 10SM FEW050 M06/M08 A3005 RMK AO2 SLP187
     T10561083 10017 21061 51019 FZRANO=
KMML 172356Z AUTO 34027G31KT 9SM FEW013 BKN020 M07/M10 A2981 RMK
     AO2 PK WND 34038/2304 SNB43E55 SLP114 P0000 60000 T10671100
     10044 21067 53054 FZRANO=
KMTW 172356Z AUTO 22005KT 10SM OVC100 06/M02 RMK AO2 SLPNO
     T00561022 10083 20028 $=
KMVN 172356Z AUTO 19014G20KT 10SM SCT070 BKN090 OVC110 08/M01
     A2971 RMK AO2 SLP068 60000 T00831006 10089 20072 56007=
KOLE 172355Z AUTO 20008G14KT 10SM SCT100 M02/M06 A2986 RMK AO2=
KSFZ 172356Z AUTO 00000KT 10SM CLR M04/M07 A3011 RMK AO2 SLP202
     T10391072 10028 21044 51019 FZRANO $=
KUYF 172355Z AUTO 17007KT 10SM CLR 01/M05 A2984 RMK AO2=


463 
SAUS70 KWBC 180000 RRD
METAR
KDWX 172355Z AUTO 27015G20KT SCT032 BKN038 OVC047 M01/M04 A2984
     RMK AO2 T10101042 10200 21269 PWINO=
KHQZ 172350Z 16012G18KT 10SM CLR 13/07 A2966=
KLUD 172355Z AUTO 16009KT 7SM CLR 17/04 A2958 RMK AO2 T01660042
     10192 20125=
KMNH 172355Z AUTO 04010G15KT 10SM BKN011 OVC017 M03/M05 A2982 RMK
     AO2=
KMYP 172356Z AUTO 28029G41KT M1/4SM -SN VV000 M10/M15 A2991 RMK
     AO2 VIS M1/4V2=
KPYX 172355Z AUTO 03019G29KT 10SM CLR 10/M01 A2966 RMK AO2
     T01041008 10167 20097=
KVTP 172355Z AUTO 18004KT 10SM BKN070 OVC080 M02/M13 A2993 RMK
     AO2=
KARM 172355Z AUTO 00000KT 10SM CLR 18/15 A2983 RMK AO2 T01770151
     10188 20162 TSNO=
KAWO 172356Z AUTO 33005KT 10SM OVC028 06/01 A3046 RMK AO2 SLP322
     T00560011 10061 20017 55001=
KBOK 172356Z AUTO 29003KT 10SM CLR A3022 RMK AO2 SLPNO 6//// 56010
     PNO $=
KCVO 172356Z AUTO 05009KT 10SM SCT004 OVC008 02/02 A3042 RMK AO2
     SLP308 T00170017 10022 20006 55001 FZRANO=
KGXY 172356Z 04014KT 9SM -SN BKN032 OVC060 M02/M08 A2994 RMK AO2
     SNB2259 SLP190 P0000 6//// T10171078 10106 21017 51041
     FZRANO=
KHND 172356Z 06006KT 10SM CLR 16/M09 A3001 RMK AO2 SLP180
     T01561094 10161 20111 55008 $=
KJAC 172356Z 02013KT 10SM FEW043 BKN055 OVC070 M08/M13 A2992 RMK
     AO2 SLP180 60000 T10781133 11006 21078 51020=
KPVF 172355Z AUTO 00000KT 10SM CLR 12/M04 A3019 RMK AO1=
KPWT 172356Z AUTO 06004KT 10SM BKN020 OVC026 06/03 A3045 RMK AO2
     SLP319 T00560028 10061 20050 53001=
KT82 172355Z AUTO 20009G14KT 10SM CLR 15/07 A2980 RMK AO2
     T01450068 10170 20117=
K9D7 172355Z AUTO 10SM OVC030 M13/M14 A3005 RMK AO2=
KASH 172356Z 00000KT 10SM CLR M05/M07 A3010 RMK AO2 SLP195
     T10501072 10022 21050 51020=
KBID 172356Z AUTO 28004KT 10SM CLR M01/M04 A3013 RMK AO2 SLP203
     T10061044 10011 21011 51015 FZRANO $=
KBTP 172356Z AUTO 16008KT 10SM CLR 01/M05 A2993 RMK AO2 SLP153
     T00061050 10028 20006 58008 FZRANO=
KHNB 172356Z AUTO 17008G16KT 10SM FEW080 BKN120 09/01 A2977 RMK
     AO2 SLP086 6//// T00890006 10094 20061 56014=
KIWD 172356Z AUTO 29016G21KT 10SM UP BKN031 OVC043 M01/M06 A2941
     RMK AO2 PK WND 28030/2259 RAB10E17UPB17E21B48SNE10 SLP972
     P0000 60000 T10061056 10033 21006 53033 FZRANO=
KJHW 172356Z AUTO 18011KT 10SM BKN110 M01/M04 A2985 RMK AO2 SLP134
     T10111044 10006 21011 58006 FZRANO=
KPVC 172356Z AUTO 14003KT 10SM CLR M06/M08 A3012 RMK AO2 SLP198
     T10611078 10017 21061 50015 FZRANO=
K14Y 172355Z AUTO 32019G26KT 7SM OVC016 M08/M12 A2974 RMK AO2=
KAFJ 172356Z AUTO 17006KT 10SM CLR 01/M05 A2995 RMK AO2 SLP153
     T00111050 10039 20006 58012 FZRANO $=
KBHB 172356Z AUTO 23004KT 10SM CLR M04/M09 A3009 RMK AO2 SLP192
     T10441089 11017 21067 53019 FZRANO=
KBWW 172355Z AUTO 34019KT 10SM OVC016 M12/M14 A3008 RMK AO2=
KDUH 172355Z AUTO 18007KT 10SM CLR 02/M03 A2972 RMK AO2 T00151035
     10037 20015=
KHZX 172355Z AUTO 32019G25KT 4SM SCT020 BKN028 OVC033 M04/M07
     A2963 RMK AO2=
KMOP 172355Z AUTO 18008G15KT 10SM CLR 03/M03 A2952 RMK AO2
     T00301031 10044 20016=
KOLU 172356Z AUTO 33025G31KT 10SM SCT031 OVC090 01/M07 A2980 RMK
     AO2 PK WND 33031/2352 SLP108 T00061072 10089 20006 53047
     FZRANO=
KOXC 172356Z 17004KT 10SM OVC044 00/M04 A3009 RMK AO2 SLP213
     T00001039 10028 21011 53016=
KPQI 172356Z AUTO 22004KT 10SM OVC033 M05/M09 A3000 RMK AO2 SLP196
     60000 T10501089 11033 21050 51018=
KRKD 172356Z AUTO 00000KT 10SM CLR M07/M09 A3009 RMK AO2 SLP190
     T10671094 11006 21072 51018 FZRANO=
KAJO 172356Z AUTO 29006KT 10SM CLR 16/06 A3015 RMK AO2 SLP207
     T01610056 10178 20111 56014=


464 
SAUS70 KWBC 180000 RRC
METAR
KVOA 172355Z AUTO VRB06G15KT 10SM OVC055 19/10 A3001 RMK A01=
KVPZ 172356Z AUTO 18009KT 10SM CLR 03/M02 A2960 RMK AO2 SLP031
     T00331017 10061 20028 57014=
KWBF 172355Z AUTO RMK A01 PNO=
KY49 172355Z AUTO 31011G26KT 5SM -SN BKN018 BKN025 OVC032 M09/M13
     A2975 RMK AO2 T10911129 11020 21091=
KY51 172355Z AUTO 29009G15KT 10SM BKN090 02/M04 A2951 RMK AO1
     T00231036 10070 20023=
PAAD 172355Z AUTO 10003KT 7SM CLR M27/M29 A3021 RMK AO2 T12701291
     11256 21291=
PAAD 172355Z AUTO 10003KT 7SM CLR M27/M29 A3021 RMK AO2 T12701291
     11256 21291=
K21D 172355Z AUTO 31014G26KT 10SM OVC033 M01/M06 A2960 RMK AO2=
K6B0 172355Z AUTO 18005KT 10SM SCT019 OVC040 M01/M05 A3001 RMK AO2
     T10141055 11014 21028=
KBAX 172355Z AUTO 19018G25KT 10SM CLR 01/M02 A2958 RMK AO2
     T00111020 10023 20003=
KCAD 172355Z AUTO 21011G17KT 10SM CLR 03/M03 A2946 RMK AO2 10041
     20012=
KCFS 172355Z AUTO 18021G28KT 10SM SCT120 03/M03 A2958 RMK AO2
     T00301028 10040 20022=
KERY 172355Z AUTO 22017G21KT 10SM BKN017 OVC070 03/01 A2935 RMK
     AO2 T00310006 10031 20001=
KFGN 172355Z AUTO 33022G29KT 1 1/2 SM -SN M12/M15 A2981 RMK AO2
     VIS 1V2 1/2=
KI69 172356Z AUTO 16006KT 10SM CLR 05/M03 A2985 RMK AO1 T00461029
     10070 20043=
KJYM 172355Z AUTO 18013G19KT 10SM CLR 01/M03 A2965 RMK AO2 10027
     20007=
KMWM 172355Z AUTO 32029G39KT 10SM CLR M05/M09 A2973 RMK AO2=
KPWC 172355Z AUTO 31013G24KT 10SM OVC034 M07/M12 A2975 RMK AO2=
KRQB 172355Z AUTO 20007G14KT 170V240 10SM CLR 04/M02 A2951 RMK AO2
     T00421025 10055 20037=
KSGS 172355Z AUTO 30016G21KT 7SM OVC037 M01/M07 A2962 RMK AO2
     T10081075 10036 21008=
KUNU 172355Z AUTO 24006KT 10SM CLR 03/M04 A2948 RMK AO2 T00281038
     10088 20028=
KY31 172355Z AUTO 21011G17KT 10SM CLR 03/M04 A2950 RMK AO2
     T00251044 10035 20007=
K3N8 172355Z AUTO 33021G25KT 10SM SCT023 M10/M15 A2987 RMK AO2
     T11051147 11043 21106=
KAMN 172355Z AUTO 19017G21KT 10SM CLR 02/M02 A2954 RMK AO2 10035
     20016=
KAUM 172355Z AUTO 32013G28KT 10SM OVC030 M01/M06 A2960 RMK AO2=
KBJI 172355Z AUTO 34017G23KT 3SM -SN BKN019 BKN026 OVC031 M10/M14
     A2978 RMK AO2 T10981139 11028 21098=
KCBG 172355Z AUTO 31017G26KT 10SM -SN OVC035 M03/M08 A2964 RMK
     AO2=
KCKN 172355Z AUTO 33027G31KT 1/2SM SN OVC002 M11/M12 A2995 RMK
     AO2=
KD39 172355Z AUTO 32021G31KT 7SM CLR M09/M12 A2974 RMK AO2
     T10901124 10011 21090=
KFFX 172355Z AUTO 21018G30KT 10SM CLR 05/M02 A2951 RMK AO2
     T00531016 10056 20035=
KFKS 172355Z AUTO 19014G22KT 10SM SCT110 05/00 A2944 RMK AO2
     T00520000 10056 20045=
KHCO 172355Z AUTO 32019G27KT M13/M16 A2998 RMK AO2 PWINO=
KMCD 172355Z AUTO 21010G19KT 10SM BKN026 BKN035 OVC041 03/M01
     A2939 RMK AO2 10038 20002=
KONA 172355Z AUTO 28020G31KT 10SM SCT037 01/M06 A2957 RMK AO2
     TSNO=
KPNM 172355Z AUTO 32019G27KT 10SM OVC037 M03/M09 A2967 RMK AO2=
KRMY 172355Z AUTO 17008KT 10SM CLR 02/M03 A2963 RMK AO2 T00151029
     10041 20014=
KRRT 172355Z AUTO 30018G23KT 10SM SCT031 M13/M18 A2984 RMK AO2=
KSJX 172355Z AUTO 22014G22KT 10SM OVC065 04/01 A2937 RMK AO2 PK
     WND 23028/15 10044 20018=
K11R 172355Z AUTO 00000KT 10SM OVC030 16/12 A2981 RMK AO2
     T01600122 10170 20142=
K3N8 172355Z AUTO 33021G25KT 10SM SCT023 M10/M15 A2987 RMK AO2
     T11051147 11043 21106=
K66R 172355Z AUTO 00000KT 10SM OVC023 17/14 A2983 RMK AO2
     T01680140 10173 20143=
K82V 172355Z AUTO 01017G27KT 10SM M04/M10 A2987 RMK AO2=
KBPC 172355Z AUTO 10SM CLR 13/M03 A2965 RMK AO2=
KDTA 172355Z AUTO 08005KT 10SM CLR 07/M11 A2994 RMK AO1=


465 
SAUS70 KWBC 180000 RRB
METAR
KLXY 172355Z AUTO 19014G21KT 10SM CLR 15/09 A2973 RMK AO2
     T01500092 10157 20140 TSNO=
KM30 172355Z AUTO 19012G15KT 10SM BKN110 12/M01 A2978 RMK AO2
     T01231011 10140 20121=
KMKQ 172355Z AUTO 17016KT 10SM SCT030 OVC060 23/17 A2996 RMK
     A01=
KMNM 172357Z AUTO 24008G15KT 10SM BKN110 04/M02 A2939 RMK AO2
     SLP959 T00441022 10044 20028 51005 $=
KMQB 172355Z AUTO 21005KT 10SM OVC055 06/00 A2960 RMK AO2
     T00641004 10120 20063=
KMRJ 172355Z AUTO 27006KT 10SM CLR 03/M02 RMK AO2 PWINO=
KMTK 172355Z AUTO 15021KT FEW029 SCT036 BKN045 20/15 A2996 RMK
     A01=
KMZH 172355Z AUTO 32015G25KT 7SM -SN BKN031 OVC037 M03/M08 A2960
     RMK AO2=
KOEB 172355Z AUTO 17009KT 10SM CLR 02/M03 A2964 RMK AO2 10048
     20019=
KOLG 172355Z AUTO 31013G18KT 10SM OVC027 M01/M08 A2951 RMK AO1=
KONP 172355Z AUTO 34008KT 10SM CLR 08/02 A3040 RMK AO2=
KOWP 172355Z AUTO 20004KT 10SM CLR 13/03 A2959 RMK AO2 T01270026
     10157 20101=
KOXD 172355Z AUTO 16010KT 10SM CLR 06/M02 A2979 RMK AO2 T00551017
     10077 20055=
KOXV 172355Z AUTO 33015G21KT 10SM CLR 04/M01 A2961 RMK AO2=
KOYE 172355Z AUTO 08010KT 10SM SCT025 BKN038 OVC065 21/18 A2994
     RMK A01=
KPBH 172355Z AUTO 29009G19KT 260V320 10SM BKN033 OVC041 01/M05
     A2940 RMK AO2 T00051054 10015 20005=
KPCZ 172355Z AUTO 25009KT 10SM SCT080 OVC100 05/M02 A2945 RMK AO2
     T00531016 10091 20050=
KPDC 172355Z AUTO 31008G14KT 10SM BKN110 04/M03 A2955 RMK AO2
     T00441033 10091 20043=
KPEX 172355Z AUTO 32020G28KT 10SM CLR M08/M12 A2974 RMK AO2=
KPHN 172355Z AUTO 19014G25KT 10SM CLR 02/M03 A2972 RMK AO2=
KPKV 172355Z AUTO 20011G17KT 10SM CLR 20/18 A2980 RMK AO2
     T02000175 10225 20200=
KPRS 172355Z AUTO 29011G20KT 10SM CLR 21/M03 A2989 RMK AO2
     T02101032 10236 20207=
KPUJ 172355Z AUTO 00000KT 10SM CLR 11/M15 A3000 RMK AO2=
KPZZ 172355Z AUTO 24008KT 10SM CLR 25/19 A2995 RMK A01=
KRCX 172355Z AUTO 30018G26KT 10SM BKN039 OVC045 00/M06 A2947 RMK
     AO2 T00021058 10018 20002=
KREG 172355Z AUTO 11004KT 10SM SCT060 BKN070 BKN095 16/08 A2993
     RMK AO2 T01620077 10190 20162=
KRKR 172355Z AUTO 18009KT 10SM SCT120 11/02 A2964 RMK AO2=
KRPD 172355Z AUTO 29009G18KT 10SM OVC034 00/M07 A2953 RMK AO2
     T10041071 10025 21004=
KRRL 172355Z AUTO 26008KT 10SM SCT028 SCT033 BKN041 01/M03 A2940
     RMK AO2 T00071026 10021 20007 TSNO=
KSAA 172355Z AUTO 33008KT 1 1/2SM -SN SCT010 OVC016 M06/M06 A2981
     RMK AO2=
KSAR 172355Z AUTO 17012G17KT 10SM -DZ BKN090 OVC110 10/M01 A2969
     RMK AO2 T01041011 10113 20092=
KSBD 172356Z 24005KT 7SM CLR 14/00 A3015=
KSCD 172355Z AUTO 00000KT 10SM CLR 12/M02 A3000 RMK AO2 T01181016
     10163 20115=
KSDF 172356Z 13005KT 10SM FEW200 SCT300 08/M01 A2981 RMK AO2
     SLP097 T00781011 10106 20061 56016=
KSLH 172355Z AUTO 21009G17KT 10SM BKN028 OVC034 04/M02 A2939 RMK
     AO2=
KSLO 172355Z AUTO 19015G21KT 10SM SCT070 OVC110 10/00 A2969 RMK
     AO2 T00971005 10105 20090=
KSME 172355Z AUTO VRB06KT 10SM CLR 10/M04 A2988 RMK AO2=
KSTE 172355Z AUTO 26009G15KT 10SM SCT110 03/M02 A2945 RMK AO2
     T00281019 10045 20028=
KSUE 172357Z AUTO 25006KT 10SM FEW049 SCT060 OVC075 04/M02 A2941
     RMK AO2 RAB26E38 SLP966 P0000 6//// T00441017 10044 20022
     53002=
KTBX 172355Z AUTO 30038KT M13/M16 A2991 RMK AO2 PWINO=
KTEX 172355Z AUTO 30005KT 10SM CLR 00/M18 A2992 RMK AO2=
KU68 172355Z AUTO 04012KT 10SM OVC060 M07/M11 A3012 RMK AO2=
KUVA 172355Z AUTO 15003KT 10SM CLR 16/08 A2984 RMK AO2 T01630075
     10176 20131=
KVAF 172355Z 15018KT 8SM OVC055 22/17 A2988 RMK A01 WINDS
     UN-RELIABLE 350 TO 45 DEGREES=


466 
SAUS70 KWBC 180000 RRA
METAR
KEZZ 172355Z AUTO 29003KT 10SM CLR 04/M02 A2962 RMK AO2 T00411018
     10081 20040 400811002=
KF05 172355Z AUTO 25009KT 10SM BKN047 20/M01 A2951 RMK AO2
     T01971015 10250 20130=
KF17 172355Z AUTO 18005KT 10SM SCT025 11/07 A2982 RMK AO2=
KF44 172355Z AUTO 19011G17KT 10SM BKN120 15/08 A2971 RMK AO2=
KF46 172355Z AUTO 19011KT 10SM CLR 13/07 A2966 RMK AO2 T01330070
     10153 20120=
KFBR 172355Z AUTO 31010G18KT 1 1/4SM -SN OVC012 M04/M06 A2991 RMK
     AO2 T10431065 10022 21043=
KFLY 172355Z AUTO 03012G18KT 10SM OVC019 M02/M06 A2983 RMK AO2
     T10201062 10107 21020=
KFPK 172356Z AUTO 18014G18KT 10SM CLR 02/M03 A2960 RMK AO2=
KFSE 172355Z AUTO 34020G31KT 5SM HZ SCT022 SCT031 M11/M15 A2987
     RMK AO2=
KFWC 172355Z AUTO 18009KT 10SM BKN100 BKN120 07/00 A2972 RMK AO2
     T00651005 10077 20056=
KFZG 172355Z AUTO 00000KT 10SM CLR 11/01 A3008 RMK AO2 T01050011
     10178 20105=
KGDJ 172355Z AUTO 24013G23KT 5SM HZ BKN041 BKN048 OVC050 21/01
     A2965 RMK AO2 T02060012 10209 20131=
KGGI 172355Z AUTO 33012KT 10SM CLR 04/M01 A2962 RMK AO2 T00421015
     10116 20041=
KGHB 172355Z AUTO 10SM SCT023 BKN031 BKN037 23/19 A2996 RMK
     A01=
KGLX 172355Z AUTO RMK A01 PNO=
KGMJ 172355Z AUTO 21012G21KT 10SM FEW090 OVC110 11/04 A2957 RMK
     AO2 TSNO=
KGON 172356Z 01003KT 10SM CLR M02/M04 A3013 RMK AO2 SLP202
     T10221044 10033 21033 53017=
KGPM 172355Z AUTO 18013G18KT 10SM SCT060 15/05 A2965 RMK AO2
     T01500053 10170 20125=
KGRN 172355Z AUTO 36020G25KT 10SM SCT021 SCT026 SCT120 M06/M09
     A2995 RMK AO2 T10561093 10000 21056=
KGRY 172350Z AUTO 21014G23KT 10SM FEW029 SCT039 BKN046 22/17 A2995
     RMK A01=
KGUL 180005Z AUTO 23007KT 10SM BKN022 BKN027 22/18 A2993 RMK
     A01=
KGWB 172355Z AUTO 16003KT 10SM CLR 02/M02 A2968 RMK AO2=
KHAI 172355Z AUTO 19010KT 10SM CLR 03/M02 A2964 RMK AO2 T00301020
     10050 20027=
KHFJ 172355Z AUTO 18022G28KT 7SM -RA SCT050 OVC070 08/04 A2954 RMK
     AO2 P0001=
KHHF 172355Z AUTO 01017G29KT 10SM CLR 12/M02 A2963 RMK AO2
     T01221016 10177 20122=
KHHV 172355Z 10SM OVC049 23/17 A2987 RMK A01 WIND SENSOR
     OFFLINE=
KHYA 172356Z 00000KT 10SM CLR M05/M08 A3011 RMK AO2 SLP196
     T10501078 10011 21056 51020=
KHZR 172355Z AUTO 22005KT 10SM BKN028 BKN034 OVC060 14/05 A2993
     RMK AO2 T01420047 10160 20142=
KI16 172355Z AUTO 10SM CLR 00/M03 A3001 RMK AO2 T00031027 10094
     20003=
KI63 172355Z AUTO 15004KT 10SM OVC065 04/M02 A2958 RMK AO2
     T00421016 10084 20040=
KICL 172355Z AUTO 36015G23KT 10SM CLR 05/M04 A2969 RMK AO2=
KIER 172355Z AUTO 00000KT 10SM SCT026 11/07 A2983 RMK AO2
     T01120073 10128 20105=
KIFA 172355Z AUTO 31022G27KT 10SM OVC037 03/M05 A2965 RMK AO2
     T00311046 10094 20031=
KIKT 180005Z AUTO 15015KT 140V230 10SM FEW041 OVC050 19/12 A3001
     RMK A01=
KINJ 172355Z AUTO 19017G23KT 10SM SCT065 16/09 A2966 RMK AO2
     T01580088 10162 20120=
KJKA 172356Z 14007G13KT 10SM BKN046 OVC060 17/11 A3000=
KJPX 172355Z AUTO 00000KT 10SM CLR M05/M09 A3013 RMK AO2 T10551091
     10021 21055 TSNO=
KLBT 172356Z AUTO 16007KT 10SM CLR 08/M01 A3013 RMK AO2 SLP204
     T00831006 10133 20072 51007=
KLNA 172355Z AUTO 12010KT 10SM BKN065 OVC075 21/16 A3007 RMK AO2
     T02120162 10212 20200=
KLNC 172355Z AUTO 18008KT 10SM CLR 13/08 A2967 RMK AO2 T01340075
     10156 20118=
KLRJ 172355Z AUTO 34026G31KT 10SM BKN032 BKN095 OVC120 M01/M07
     A2977 RMK AO2=
KLUM 172355Z AUTO 29017G23KT 10SM OVC037 01/M04 A2953 RMK AO2
     T00101045 10040 20010 PWINO=
KLVN 172355Z AUTO 31017G25KT 10SM OVC037 M02/M08 A2963 RMK AO2=


467 
SAUS70 KWBC 180000
METAR
KNFE 172356Z AUTO 13003KT 10SM CLR 01/M07 A3019 RMK AO2 SLP225
     T00061072 10089 20006 51008=
K0F2 172355Z AUTO 18006KT 10SM CLR 16/05 A2955 RMK AO2 T01600045
     10190 20137=
K13K 172355Z AUTO 35010KT 10SM CLR 04/00 A2960 RMK AO2 T00390003
     10128 20037 401280012=
K18H 172355Z AUTO 16013G22KT 9SM SCT025 SCT033 BKN038 23/18 A2991
     RMK A01=
K2V5 172355Z AUTO 36009G15KT 10SM BKN060 OVC075 00/M06 A2988 RMK
     AO2=
K33V 172355Z AUTO 21008KT 10SM SCT049 BKN060 BKN075 M04/M10 A2978
     RMK AO1=
K3F3 172355Z AUTO 17009G17KT 10SM SCT120 12/08 A2984 RMK AO2
     T01200081 10120 20100=
K3LF 172355Z AUTO 16014KT 10SM OVC110 05/00 A2964 RMK AO2
     T00481003 10057 20032=
K4V9 172355Z AUTO 34019G34KT 10SM SCT029 OVC100 M02/M06 A2984 RMK
     AO2=
K9A5 172355Z AUTO 00000KT 10SM CLR 06/00 A2999 RMK AO2 T00640002
     10136 20064=
KAAS 172355Z AUTO 19006KT 10SM CLR 08/M02 A2984 RMK AO1=
KACP 172355Z AUTO 15005KT 10SM SCT110 15/06 A2985 RMK AO2=
KAEL 172355Z AUTO 32013G23KT 10SM SCT028 M02/M06 A2962 RMK AO2
     TSNO=
KAJG 172355Z AUTO 19005KT 10SM OVC120 06/00 A2974 RMK AO2
     T00630000 10072 20054=
KART 172356Z AUTO 19007KT 10SM OVC041 01/M04 A2992 RMK AO2 SLP138
     T00111039 10011 20000 55008 $=
KASW 172355Z AUTO 19005KT 10SM CLR 02/M02 A2967 RMK AO2
     T00281026=
KATP 172355Z AUTO 9SM SCT028 SCT043 OVC060 23/18 A2996 RMK A01=
KAVQ 172355Z AUTO 30007KT 10SM CLR 17/M07 A3006 RMK AO2=
KAXH 172355Z AUTO 18003KT 10SM CLR 18/15 A2982 RMK AO2 T01800146
     10208 20180=
KAZC 172355Z AUTO 28011KT 10SM CLR 08/M13 A3003 RMK AO2=
KBAM 172355Z AUTO 33012G19KT 10SM CLR 06/M05 A3011 RMK AO1=
KBDU 172355Z AUTO 06003KT 3/4SM -SN OVC009 M02/M03 A2992 RMK
     AO2=
KBJC 172357Z 02013G18KT 1 1/2SM OVC021 M02/M07 A2990=
KBKD 172355Z AUTO 25014G22KT 2SM HZ OVC027 21/00 A2961 RMK AO2
     T02081002 10229 20155=
KBTA 172355Z AUTO 34014G20KT 10SM SCT120 03/M05 A2973 RMK AO2
     T00271051 10086 20027=
KC07 172355Z AUTO 00000KT 7SM -SN BKN010 BKN018 OVC026 M09/M09
     A2977 RMK AO2=
KC29 172355Z AUTO 26006KT 10SM CLR 05/M02 A2949 RMK AO1 T00451022
     10107 20045=
KCBF 172355Z AUTO 34017G27KT 10SM BKN120 03/M05 A2969 RMK AO2=
KCCU 172355Z AUTO 21005KT 10SM OVC030 M07/M13 A2979 RMK AO2=
KCFD 172355Z AUTO 22005KT 10SM CLR 16/11 A2981 RMK AO2 T01560114
     10165 20130=
KCPW 172355Z AUTO 21009G19KT 10SM BKN055 M08/M16 A2993 RMK AO2=
KCWC 172355Z AUTO 23012G19KT 7SM SCT110 22/00 A2952 RMK AO2
     T02191005 10225 20151=
KDAY 172356Z 16013KT 10SM FEW250 03/M02 A2981 RMK AO2 SLP101 4/002
     T00331022 10050 20033 56014=
KDLL 172355Z AUTO 25006KT 10SM OVC090 06/M02 A2947 RMK AO2
     T00551017 10085 20051=
KDSF 180000Z AUTO 11015KT 10SM OVC055 20/12 A3001 RMK A01=
KDUG 172356Z AUTO 30013G20KT 10SM CLR 13/M07 A3005 RMK AO2 SLP148
     T01331072 10150 20100 55001=
KECS 172355Z AUTO 33014KT SCT019 BKN032 OVC039 M07/M10 A3000 RMK
     AO2 PWINO=
KEFT 172355Z AUTO 28010KT 10SM CLR 05/M02 A2948 RMK AO2 T00531024
     10107 20051=
KEGV 172355Z 10SM BKN033 BKN039 OVC045 01/M05 A2936 RMK AO2
     T00101048 10024 20010=
KEKE 172355Z AUTO 19012KT 10SM CLR 21/17 A2987 RMK A01=
KEMM 172355Z AUTO 31012KT 10SM SCT019 SCT070 M06/M10 A2987 RMK
     AO2=
KENL 172355Z AUTO 18015G22KT 10SM BKN100 OVC120 09/00 A2969 RMK
     AO2 T00870000 10091 20074=
KERV 172355Z AUTO 16007KT 10SM CLR 14/07 A2981 RMK AO2 T01390070
     10165 20115=
KETB 172355Z AUTO 24005KT 10SM CLR 05/M03 A2947 RMK AO2=
KEZP 172355Z AUTO 10SM OVC047 23/17 A2993 RMK A01=
KEZS 172355Z AUTO 25005KT 10SM SCT110 04/M02 A2942 RMK AO2
     T00421022 10055 20037=


468 
SPXX60 KWBC 180000
SPECI
KFRI 172351Z AUTO 35008KT 10SM CLR 05/M02 A2967 RMK AO2 PRESRR
     SLP052 $=


471 
SAMX34 MMMD 180000
METAR MMTP 172349Z 23007KT 8SM  SKC 28/23 A2991 RMK SLP153 52006 960=


472 
SPAW31 KWBC 180000
SPECI
OEPS 172355Z AUTO 33003KT 9999 CLR 11/M01 A3009 RMK AO2 SLP172 WND
DATA ESTMD T01141006 10157 20114 58002=


473 
SAUS80 KWBC 180000 RRB
METAR
KMWT 172353Z AUTO 10SM OVC032 10/02 A2971 RMK AO2 SLP068 60000
     T01000022 10122 20100 56013=
KCQC 172353Z AUTO 29023G38KT 10SM CLR 04/M13 RMK AO2 PK WND
     29041/2305 SLPNO T00441133 10067 20039=
KTLH 172353Z 00000KT 10SM CLR 12/M01 A3008 RMK AO2 SLP185
     T01171011 10200 20117 53004=
KFSD 172356Z 35022G34KT 10SM FEW027 BKN160 M04/M11 A2983 RMK AO2
     PK WND 34040/2312 SLP121 T10391106 10061 21039 53046=
KOFK 172356Z AUTO 34024G34KT 10SM FEW030 OVC100 M01/M08 A2981 RMK
     AO2 PK WND 35041/2346 SLP111 T10061078 10083 21006 53045=
K9V9 172355Z AUTO 35020G25KT 10SM OVC027 M03/M08 A2996 RMK AO2
     T10321085 10035 21032=
KAYS 172355Z AUTO 00000KT 10SM CLR 10/01 A3008 RMK AO2 T01010013
     10187 20101 TSNO=
KCIR 172355Z AUTO 19007KT 10SM BKN110 11/01 A2977 RMK AO2
     T01110006 10146 20111=
KCKP 172355Z AUTO 34018G25KT 10SM SCT033 BKN120 M01/M08 A2976 RMK
     AO2 PK WND 34030/31 10063 21007=
KCLI 172355Z AUTO 26009KT 10SM SCT120 03/M02 A2945 RMK AO2
     T00351020 10057 20028 400571091=
KCTY 172355Z AUTO 00000KT 10SM CLR 11/02 A3008 RMK AO2=
KEHA 172355Z AUTO 03018KT 10SM CLR 08/M05 A2976 RMK AO2 T00851053
     10149 20084 401491002=
KGIC 172355Z AUTO 13003KT 10SM BKN035 BKN040 OVC047 M02/M05 A3024
     RMK AO1=
KIZA 172355Z AUTO VRB05G11KT 10SM CLR 15/06 A3015 RMK AO2=
KPSN 172355Z AUTO 18010G16KT 10SM OVC100 15/10 A2972 RMK AO2=
KPTS 172355Z AUTO 22012KT 10SM BKN050 OVC075 10/04 A2958 RMK AO2
     PRESRR 10154 20099=
KP60 172356Z AUTO VRB03KT M13/M18 A2991 RMK AO1 SLP186 T11281178
     11083 21128 53014=


474 
SAUS70 KWBC 180000 RRQ
METAR
KRDK 172355Z AUTO 34014KT 10SM CLR 04/M04 A2970 RMK AO2=
KRGA 172355Z AUTO 16006KT 10SM CLR 07/M03 A2988 RMK AO2=
KRNH 172355Z AUTO 30017G24KT 10SM OVC036 M01/M06 A2957 RMK AO2
     T10071059 10026 21007=
KRPJ 172355Z AUTO 20009KT 10SM CLR 03/M02 A2954 RMK AO2 T00271025
     10106 20026=
KRVJ 172355Z AUTO 00000KT 10SM CLR 11/00 A3009 RMK AO2 T01121001
     10171 20110 401711024=
KRYV 172355Z AUTO 00000KT 10SM CLR 02/M05 A2947 RMK AO2 T00151049
     10097 20015=
KRYW 172355Z AUTO 20004KT 10SM CLR 15/10 A2982 RMK AO2 T01450095
     10156 20130=
KRZN 172355Z AUTO 32013G21KT 10SM BKN039 BKN050 M01/M07 A2957 RMK
     AO2 60001 T10121075 10028 21012=
KSDA 172355Z AUTO 36012G18KT 10SM CLR 05/M04 A2969 RMK AO2=
KSEF 172355Z AUTO 06006KT 10SM SCT034 SCT040 OVC050 18/13 A3009
     RMK AO2 T01760131 10217 20175 402170125=
KSEZ 172355Z AUTO 18010KT 150V220 10SM FEW055 SCT065 10/M02 A3004
     RMK AO2=
KSHL 172355Z AUTO 34024G31KT 10SM FEW031 BKN110 M02/M09 A2975 RMK
     AO2=
KSJS 172355Z AUTO 17008KT 10SM CLR 07/M05 A2991 RMK AO2 T00731048
     10094 20056=
KSLB 172355Z AUTO 34020G31KT 10SM BKN033 OVC110 M01/M07 A2973 RMK
     AO2=
KSLR 172355Z AUTO 17008KT 10SM CLR 13/07 A2970 RMK AO2 T01280065
     10152 20116=
KSNL 172355Z AUTO 19012G16KT 10SM CLR 12/02 A2953 RMK AO2 60001
     T01230018 10149 20100=
KSSI 172355Z AUTO 14004KT 10SM CLR 10/09 A3010 RMK AO2=
KSTK 172355Z AUTO 36004KT 10SM SCT026 OVC032 00/M03 A2989 RMK
     AO2=
KSUW 172355Z AUTO 31012G31KT 10SM OVC036 M02/M09 A2957 RMK AO2
     T10171089 10046 21017=
KSVC 172355Z AUTO 27020G24KT 10SM CLR 08/M08 A3001 RMK AO2
     T00831085 10103 20083=
KSWW 172355Z AUTO 25018G26KT 2 1/2SM 19/M02 A2970 RMK AO2
     T01891025 10210 20150=
KSXK 172355Z AUTO 34026G32KT 10SM SCT030 BKN110 M02/M08 A2976 RMK
     AO2=


475 
SAXX60 KWBC 180000 RRA
METAR
KMTC 172356Z 17014KT 10SM BKN140 02/M03 A2969 RMK AO2A SLP065
     T00171026 10028 20015 57014 $=
KNJK 172356Z 06006KT 10SM CLR 22/M03 A3005 RMK AO2 SLP191
     T02221028 10228 20178 55006 $=
KNJK 172356Z 06006KT 10SM CLR 22/M03 A3005 RMK AO2 SLP191
     T02221028 10228 20178 55006 $=
KPSM 172355Z 17005KT 10SM FEW050 SCT100 M02/M09 A3006 RMK AO2A
     SLP183 T10191086 10023 21023 51012=
PAEI 172355Z 32006KT 10SM SCT080 BKN150 M14/M16 A3017 RMK AO2A
     SLP242 4/010 WND DATA ESTMD T11371162 11188 21256 411371137
     55002 $=
PMDY 172356Z AUTO 35006KT 10SM OVC020 22/17 A3013 RMK AO2 SLP204
     60001 T02170172 10222 20194 58013=
KNJK 172356Z 06006KT 10SM CLR 22/M03 A3005 RMK AO2 SLP191
     T02221028 10228 20178 55006 $=
KNJK 172356Z 06006KT 10SM CLR 22/M03 A3005 RMK AO2 SLP191
     T02221028 10228 20178 55006 $=
EQYR 172357Z AUTO 05004KT CLR 06/03 A3030 RMK AO2 SLP261 T00610033
     10111 20056 55000 $=
KNFW 172352Z 18012KT 10SM FEW250 16/06 A2961 RMK AO2 SLP013
     T01610056 10189 20128 56015 $=
KNRB 172352Z AUTO 15003KT 10SM CLR 13/08 A3011 RMK AO2 SLP196
     T01280078 10161 20122 55000=
PAEH 172355Z AUTO 01029G42KT 9SM SCT009 BKN065 05/02 A2946 RMK AO2
     PK WND 01045/2341 SLP983 T00460020 10056 20023 58005 $=
PAEI 172355Z 32006KT 10SM SCT080 BKN150 M14/M16 A3017 RMK AO2A
     SLP242 4/010 WND DATA ESTMD T11371162 11188 21256 411371137
     55002 $=
PALU 172355Z AUTO 00000KT 3/4SM -SN OVC014 M06/M06 A2976 RMK AO2
     SNB2201 SLP076 P0000 60000 T10581065 11048 21079 58024=
PASY 172355Z 34017G23KT 7SM SCT011 BKN030 OVC250 02/01 A2935 RMK
     AO2A SHSNB35E46 SLP940 ALSTG/SLP ESTMD WND DATA ESTMD 60002
     T00170004 10024 20013 51017 PNO FZRANO $=
PATL 172355Z AUTO 07007KT 030V100 10SM -SHSN OVC050 M08/M10 A2993
     RMK AO2 SHSNB2239 SLP166 P0000 60000 T10761101 11076 21103
     53003=
PWAK 172355Z AUTO 11010KT 9SM FEW027 30/23 A2998 RMK AO2 SLP155
     60000 T03010228 10301 20253 58001=
RJOI 172356Z 28005KT 9999 FEW020 05/M01 A3032 RMK AO2 SLP267
     T00501006 10050 20017 53013=


476 
SAUS70 KWBC 180000 RRO
METAR
KHDC 172355Z AUTO 13006KT 10SM BKN065 14/08 A2994 RMK AO2
     T01400076 10172 20139=
KHDE 172355Z AUTO 36024G33KT 10SM OVC090 03/M05 A2979 RMK AO2
     T00261046 10096 20026=
KHDL 172355Z AUTO RMK AO2 PNO PWINO TSNO=
KHII 172355Z AUTO 15005KT 10SM CLR 19/M07 A3002 RMK AO2=
KHJH 172355Z AUTO 01019G28KT 10SM CLR 04/M04 A2976 RMK AO2
     T00361037 10097 20036=
KHMP 172355Z AUTO 16004KT 10SM CLR 11/M06 A3007 RMK AO2 T01131063
     10164 20102 401641050=
KHMZ 172355Z AUTO 00000KT 10SM CLR M03/M07 A3000 RMK AO2 T10321075
     10027 21032=
KHNR 172355Z AUTO 33017G22KT 10SM FEW039 02/M03 A2970 RMK A01=
KHPT 172355Z AUTO 32018G28KT 10SM BKN035 OVC110 00/M05 A2963 RMK
     AO2=
KHQG 172355Z AUTO 03016KT 10SM CLR 09/M05 A2972 RMK AO2 PK WND
     02030/09 10160 20088=
KHQU 172355Z AUTO 00000KT 10SM CLR 08/M02 A3008 RMK AO2 T00771018
     10153 20073 401531027=
KHRX 172355Z AUTO 36011KT 10SM CLR 11/M03 A2971 RMK AO2 T01061032
     10177 20106 TSNO=
KHSB 172355Z AUTO 20006KT 10SM SCT095 OVC110 09/00 A2976 RMK AO2
     T00930001 10118 20093=
KHSG 172355Z AUTO 29014G25KT 10SM OVC055 M08/M13 A3007 RMK AO2
     T10821133 11054 21083=
KI35 172355Z AUTO 18003KT 10SM CLR 09/M07 A2994 RMK AO2 T00851068
     10105 20079=
KI74 172355Z AUTO 18009KT 10SM CLR 01/M03 A2982 RMK AO2=
KI75 172355Z AUTO 32004KT 7SM CLR 04/M01 A2962 RMK AO2 T00381011
     10115 20037=
KI95 172355Z AUTO 17013G21KT 10SM CLR 02/M02 A2976 RMK A01=
KIBM 172355Z AUTO 36019G25KT 10SM SCT060 BKN095 M03/M09 A2987 RMK
     AO2 T10321091 10003 21032=
KIDP 172355Z AUTO 17009KT 10SM CLR 10/03 A2956 RMK AO2=
KIGQ 172355Z AUTO 20015G22KT 10SM BKN070 05/M02 A2959 RMK AO2
     T00451020 10061 20042=
KIIB 172355Z AUTO 32013G21KT 10SM CLR 03/M03 A2961 RMK AO2
     T00331032 10088 20032 400881078=
KIKG 172355Z AUTO 17005KT 10SM CLR 21/15 A2982 RMK AO2 T02140147
     10233 20204=
KIKV 172355Z AUTO 35006KT 10SM CLR 04/M03 A2965 RMK AO2=
KJAS 172355Z AUTO 19007G12KT 9SM 14/12 A2982 RMK AO2=
KJCA 172355Z AUTO 14005KT 10SM CLR 10/M06 A3005 RMK AO2 T01011057
     10145 20096 401451009=
KJOT 172355Z AUTO 20009G14KT 10SM CLR 05/00 A2958 RMK AO2
     T00510002 10080 20051=
KJSV 172355Z AUTO 17006KT 10SM CLR 10/05 A2962 RMK AO2=
KJWG 172355Z AUTO 35022G30KT 10SM SCT120 11/M01 A2959 RMK AO2
     T01081014 10173 20104 401730044=
KJYR 172355Z AUTO 35017G27KT 10SM BKN035 OVC110 03/M03 A2976 RMK
     AO2=
KK83 172355Z AUTO 01013KT 10SM CLR 05/M04 A2967 RMK AO2 T00471045
     10060 20047=
KK88 172355Z AUTO 33010KT 10SM BKN050 BKN060 09/03 A2958 RMK
     AO2=
KLAM 172355Z AUTO 26013KT 9SM CLR 06/M16 A2985 RMK AO2 T00551163
     $=
KLCG 172355Z AUTO 35023G32KT 10SM OVC110 M01/M07 A2981 RMK AO2
     T10071072 10075 21007=
KLCK 172355Z AUTO 15004KT 10SM CLR 02/M04 A2987 RMK AO2 T00191040
     10040 20017=
KLCQ 172355Z AUTO 12004KT 10SM CLR 10/02 A3007 RMK AO2=
KLGC 172355Z AUTO 00000KT 10SM CLR 10/M03 A3003 RMK AO2 T00951033
     10166 20095=
KLLN 172355Z AUTO 28025G32KT 6SM HZ CLR 15/M08 A2971 RMK AO2=
KLMO 172355Z AUTO 06006KT 10SM OVC034 00/M07 A2994 RMK AO2
     T10021070 10126 21002=
KLNL 172355Z AUTO 27008KT 10SM SCT037 OVC043 02/M05 A2936 RMK AO2
     60008 T00151052 10037 20015=
KLNN 172355Z AUTO 19010G20KT 10SM CLR 03/M07 A2981 RMK AO1
     T00281070 10040 20027=
KLSB 172355Z AUTO 29017KT 10SM CLR 11/M08 A3003 RMK AO2=
KLUL 172355Z AUTO 16005KT 10SM BKN044 BKN050 BKN120 15/01 A2996
     RMK A02 T01490013 10180 20149 401801011=
KLUV 172355Z AUTO 27020G27KT 4SM HZ SCT036 BKN045 OVC110 17/M03
     A2974 RMK AO2=


478 
SPAU31 KWBC 180000
SPECI
YSSY 172353Z 17023G33KT 3000 SHRA FEW012 BKN018 BKN024 20/19 Q1017=


479 
SAXX60 KWBC 180000 CCA
METAR
KBAN 172352Z AUTO 10SM CLR 08/M07 A3012 RMK AO2 SLP202 T00781072
     10106 20000 53002 $=
KNJK 172356Z 06006KT 10SM CLR 22/M03 A3005 RMK AO2 SLP191
     T02221028 10228 20178 55006 $=
PHBK 172351Z AUTO 36015KT 10SM FEW017 24/17 A2993 RMK AO2 PK WND
     01026/2254 SLP136 T02440167 10250 20206 58016=
KNDZ 172356Z 14006KT 10SM FEW055 SCT140 SCT250 13/06 A3003 RMK AO2
     SLP158 T01330056 10178 20133 58007 $=
PHBK 172351Z AUTO 36015KT 10SM FEW017 24/17 A2993 RMK AO2 PK WND
     01026/2254 SLP136 T02440167 10250 20206 58016=
MUGM 172351Z 05009KT 10SM FEW030 FEW060 27/22 A3006 RMK AO2 SLP178
     T02670222 10300 20267 53012 $=
KNJK 172356Z 06006KT 10SM CLR 22/M03 A3005 RMK AO2 SLP191
     T02221028 10228 20178 55006 $=


480 
SAUS70 KWBC 180000 RRP
METAR
KLXN 172355Z AUTO 36025G32KT 10SM OVC085 02/M06 A2984 RMK AO2
     T00151064 10098 20015=
KLYO 172355Z AUTO 01022G28KT 10SM CLR 04/M02 A2970 RMK AO2
     T00421023 10051 20032 400511018=
KMDD 172355Z AUTO 26021G29KT 4SM HZ OVC038 17/M04 A2979 RMK AO2
     T01671041 10190 20167 401900070=
KMDQ 172355Z AUTO 14005KT 10SM CLR 12/M02 A2994 RMK A02 T01211023
     10152 20120 401521052=
KMDZ 172355Z AUTO 26006KT 10SM OVC037 00/M03 A2942 RMK AO2
     T00031035 10013 20003 PWINO=
KMJD 172355Z AUTO 12004KT 10SM OVC036 14/09 A2995 RMK AO2=
KMLE 172355Z AUTO 33012G20KT 10SM SCT120 04/M05 A2974 RMK AO2
     T00431050 10096 20043=
KMLJ 172355Z AUTO 00000KT 10SM CLR 10/M02 A3006 RMK AO2=
KMNE 172355Z AUTO 14008KT 10SM CLR 10/04 A2978 RMK AO2=
KMPR 172355Z AUTO 35010KT 10SM CLR 02/M01 A2968 RMK AO2 T00181014
     10064 20018 400641014=
KMPZ 172355Z AUTO 24007KT 10SM CLR 04/M01 A2956 RMK AO2=
KMUT 172355Z AUTO 30008KT 10SM CLR 06/M01 A2956 RMK AO2=
KMWO 172355Z AUTO 18009KT 10SM CLR 05/M02 A2984 RMK AO2=
KMXO 172355Z AUTO 28006KT 10SM CLR 03/M02 A2953 RMK AO2=
KMZZ 172355Z AUTO 17017G22KT 10SM CLR 03/M03 A2971 RMK AO2
     T00311027 10147 21200=
KOBE 172355Z AUTO RMK AO2=
KOCQ 172355Z AUTO 23009KT 10SM 04/M02 A2940 RMK AO1 T00401023
     10049 20038=
KOEO 172355Z AUTO 32019G31KT 10SM OVC035 00/M07 A2961 RMK AO2
     T10041075 10035 21004 PWINO=
KOGA 172355Z AUTO 36021G32KT 10SM SCT032 SCT080 OVC100 00/M07
     A2988 RMK AO2 T10051071 10074 21005=
KOGS 172355Z AUTO 19007KT 10SM FEW027 BKN038 OVC120 M00/M04 A2989
     RMK AO2=
KOJA 172355Z AUTO 04008KT 10SM CLR 14/04 A2952 RMK AO2 PWINO TSNO
     T01440040 10179 20107 401790046=
KOKM 172355Z AUTO 19015G18KT 10SM CLR 12/03 A2957 RMK AO2
     T01150026 10142 20109=
KOLZ 172355Z AUTO 32013KT 10SM SCT034 BKN120 OVC140 03/M02 A2959
     RMK A01=
KONL 172355Z AUTO 34022G33KT 10SM OVC027 M03/M08 A2990 RMK AO2
     T10291077 10030 21029=
KOOA 172355Z AUTO 33009KT 10SM CLR 04/00 A2959 RMK AO2 T00400000
     10125 20040=
KOPL 172355Z AUTO 16008KT 10SM BKN029 14/06 A2991 RMK AO2
     T01430060 10161 20142=
KORG 172355Z AUTO 14004KT 10SM BKN036 14/10 A2985 RMK AO2
     T01400103 10159 20140 PWINO=
KOZA 172355Z AUTO 32010KT 5SM HZ CLR 18/M02 A2982 RMK AO2=
KPBX 172355Z AUTO 16005KT 10SM CLR 07/M06 A2991 RMK AO2 T00711065
     10095 20054=
KPEA 172355Z AUTO 33012KT 10SM CLR 04/M02 A2962 RMK AO2 T00401022
     10111 20038 401111035=
KPEQ 172355Z AUTO 27023G30KT 7SM SCT050 17/M07 A2986 RMK AO2
     T01701074 10191 20170=
KPEZ 172355Z AUTO 00000KT 10SM CLR 15/09 A2985 RMK AO2 T01530093
     10178 20146=
KPIM 172355Z AUTO 18004KT 10SM CLR 11/M02 A3003 RMK AO2 10167
     20114=
KPMV 172355Z AUTO 34016G24KT 10SM CLR 04/M05 A2972 RMK AO2
     T00421051 10096 20042=
KPNT 172355Z 10SM BKN055 04/00 A2959 RMK AO2 T00401005 10062
     20036=
KPPA 172355Z AUTO 36016G22KT 10SM CLR 12/M01 A2966 RMK AO2
     T01201015 10177 20120=
KPPO 172355Z AUTO 18010KT 10SM SCT042 03/00 A2961 RMK AO2 10056
     20028=
KPPQ 172355Z AUTO 18003KT 10SM OVC060 08/M01 A2959 RMK AO2
     T00771015 10094 20074=
KPRG 172355Z 18014KT 10SM SCT120 04/M01 RMK AO2 T00371007 10046
     20034=
KPRO 172355Z AUTO 33015KT 10SM OVC120 03/M02 A2965 RMK AO2
     T00331022=
KPTT 172355Z AUTO 01015KT 10SM CLR 05/00 A2969 RMK AO2 T00451005
     10077 20045=
KRAS 172355Z AUTO 17013KT 10SM CLR 17/16 A2983 RMK AO2 T01740157
     10207 20173 402070095=
KRCR 172355Z AUTO 17009KT 10SM CLR 03/M02 A2966 RMK AO2=
KRCV 172355Z AUTO 00000KT 10SM BKN100 02/M13 A2981 RMK AO2
     T00221133 10056 20022=


481 
SAUS70 KWBC 180000 RRM
METAR
KANK 172355Z AUTO 23018G25KT 10SM 01/M14 A2977 RMK AO2 T00141143
     $=
KANW 172355Z AUTO 35018G25KT 10SM OVC024 M03/M08 A2993 RMK AO2
     T10351084 10028 21035=
KAPS 172355Z AUTO 13005KT 10SM BKN038 OVC065 15/09 A2995 RMK AO2
     T01490085 10175 20149=
KAQO 172355Z AUTO 19014KT 10SM CLR 18/07 A2973 RMK AO2=
KARV 172355Z AUTO 30009G16KT 10SM BKN037 OVC043 01/M05 A2936 RMK
     AO2 T00071050 10021 20007=
KASN 172355Z AUTO 15003KT 10SM BKN016 12/M03 A2999 RMK AO2 10172
     20123=
KAUH 172355Z AUTO 35020KT 10SM BKN033 OVC110 02/M04 A2979 RMK AO2
     T00211040 10087 20021=
KAUN 172355Z AUTO 20005KT 10SM CLR 12/01 A3018 RMK A01=
KAWG 172355Z AUTO 31008KT 10SM CLR 04/M02 A2956 RMK AO2=
KAXA 172355Z AUTO 34020G28KT 10SM BKN031 OVC120 M01/M06 A2967 RMK
     A01=
KAXX 172355Z AUTO 26008G16KT 220V280 10SM CLR 00/M15 A2986 RMK AO2
     T00011154 10027 20001=
KBBD 172355Z AUTO 24012KT 10SM FEW046 20/01 A2972 RMK AO2=
KBCK 172355Z AUTO 26006KT 10SM OVC036 03/M02 A2950 RMK AO2
     T00251020 10040 20025=
KBGE 172355Z AUTO 17004KT 10SM CLR 12/02 A3006 RMK AO2 T01240023
     10191 20120 401911005=
KBHC 172355Z AUTO 00000KT 10SM CLR A3008 RMK AO2=
KBIE 172355Z AUTO 01019G26KT 10SM CLR 04/M04 A2973 RMK AO2
     T00401038 10101 20040=
KBMC 172355Z AUTO 31011G16KT 10SM SCT049 BKN060 OVC070 02/M07
     A3002 RMK AO1 T00161069 10131 21081=
KBMT 172355Z AUTO 15008KT 10SM CLR 15/12 A2982 RMK AO2 T01520115
     10167 20146=
KBNW 172355Z AUTO 32015KT 10SM SCT110 04/M03 A2963 RMK AO2=
KBPG 172355Z AUTO 25024G31KT 1 1/2SM HZ OVC026 18/M04 A2975 RMK
     AO2 T01751036 10195 20173 401950063=
KBQK 172355Z AUTO 00000KT 10SM CLR 07/06 A3012 RMK AO2 T00730061
     10171 20067 401710006=
KBUU 172355Z AUTO 19008KT 10SM CLR 05/M01 A2950 RMK AO2 T00451010
     10110 20045 PWINO=
KBVN 172355Z AUTO 34023G32KT 10SM BKN029 OVC100 00/M07 A2983 RMK
     AO2 T10041075 10079 21004=
KBVS 172355Z AUTO 32007KT 10SM BKN028 05/02 A3047 RMK A01=
KC09 172355Z AUTO 20006KT 10SM SCT110 03/00 A2958 RMK AO2
     T00320000 10079 20032=
KC35 172355Z AUTO 25006KT 10SM SCT080 OVC090 06/M02 A2948 RMK AO2
     T00551018 10088 20055 PWINO=
KC65 172355Z AUTO 17009KT 10SM CLR 02/M01 A2963 RMK A01=
KC75 172355Z AUTO 20010G14KT 10SM BKN055 OVC110 06/M02 A2957 RMK
     AO2 T00601021 10102 20060=
KCAV 172355Z AUTO 33021G36KT 10SM SCT038 OVC100 00/M06 A2967 RMK
     A01=
KCCY 172355Z AUTO 32019G30KT 10SM BKN033 OVC100 01/M05 A2961 RMK
     AO2=
KCHK 172355Z AUTO 14013KT 10SM CLR 15/04 A2946 RMK AO2 T01470040
     10181 20099 401810047=
KCIN 172355Z AUTO 33022G28KT 10SM FEW036 OVC090 02/M05 A2968 RMK
     AO2=
KCKF 172355Z AUTO 00000KT 10SM CLR 10/01 A3008 RMK AO2 T01020014
     10172 20102=
KCMD 172355Z AUTO 16006KT 10SM SCT110 12/M03 A2996 RMK AO2=
KCNC 172355Z AUTO 34010KT CLR 04/M01 A2961 RMK AO2=
KCOM 172355Z AUTO 26020G29KT 2SM OVC024 20/M04 A2971 RMK AO2
     T02001045 10215 20145 PWINO=
KCPP 172355Z AUTO 00000KT 10SM FEW037 10/M03 A3004 RMK AO2=
KCQF 172355Z AUTO 00000KT 10SM SCT049 OVC055 15/08 A3002 RMK
     AO2=
KCSB 172355Z AUTO 36023G32KT 10SM OVC075 03/M06 A2981 RMK AO2=
KCSQ 172355Z AUTO 34011KT 10SM CLR 04/M03 A2964 RMK AO2=
KCUH 172355Z AUTO 00000KT 10SM CLR 11/02 A2955 RMK AO2 T01120018
     10152 20105=
KCVC 172355Z AUTO 00000KT 10SM FEW003 09/M02 A3004 RMK AO2=
KCXU 172355Z AUTO 16001KT 10SM CLR 11/05 A3006 RMK AO2 10183
     20110=
KCYD 172355Z AUTO 14021KT 10SM SCT036 OVC060 20/15 A3000 RMK A02
     T02000145 10202 20189 402020172=
KCZL 172355Z AUTO 20003KT 10SM CLR 09/M04 A3000 RMK AO2 10155
     20092=


498 
SPRS41 KWBC 180000
SPECI
UWKD 172355Z 13002MPS 2900 BR OVC007 M05/M06 Q1008 R11/490145
NOSIG RMK QFE746/0995=


499 
SPRS41 KWBC 180000
SPECI
UWKD 172353Z 13002MPS 3100 BR OVC007 M05/M06 Q1008 R11/490145
NOSIG RMK QFE746/0995=


632 
SAUS46 KMFR 180000 COR
MTRMHS
METAR KMHS 172356Z AUTO 00000KT 10SM CLR 10/01 A3016 RMK AO2 SLP239 
T01000006 10111 20039 55003 PNO


803 
SPZZ40 KAWN 180000 RRR
SPECI CYXC 172356Z 10004KT 070V170 15SM -SN BKN047 BKN060 M03/M13 A3022
      RMK SC6SC1 SLP282=
SPECI K1DN 172357Z AUTO 25017KT 5SM BLSN OVC024 M12/M15 A3005 RMK AO2
      WSHFT 56 SLP217 $=
SPECI K1DN 172358Z AUTO 29018KT 5SM BLSN OVC024 M12/M16 A3005 RMK AO2
      WSHFT 57 SLP217 $=


968 
SAJM31 MKJP 180000
METAR MKJP 180000Z 34018KT 9999 FEW022 SCT040 28/22 Q1016=


969 
SAPR76 SPIM 180000
METAR SPCL 180000Z 21002KT 9999 BKN020 BKN080 25/20 Q1009 RMK PP000=
METAR SPJL 180000Z 03005KT 9999 FEW025 SCT080 11/04 Q1033
RMK BIRD HAZARD RWY 12/30 PP000=
METAR SPME 180000Z 29006KT 9999 BKN023 27/21 Q1012
RMK BIRD HAZARD RWY 32/14 PP000=
METAR SPST 180000Z 26004KT 9999 FEW020 29/20 Q1008 RMK PP000=


971 
SABU33 LBSM 180000
METAR LBPG 180000Z 35004KT 0300 FG SKC M02/M02 Q1033=
METAR LBIA 180000Z NIL=
METAR LBPL 180000Z NIL=
METAR LBWB 180000Z NIL=


972 
SASD20 OEJD 180000
METAR OEAB 180000Z 00000KT CAVOK 11/M09 Q1025 NOSIG=
METAR OEAH 180000Z 33010KT CAVOK 12/00 Q1018 NOSIG=
METAR OEAO 180000Z 34004KT CAVOK 17/M05 Q1020 NOSIG=
METAR OEBA 180000Z 13003KT CAVOK 13/M09 Q1022 NOSIG=
METAR OEBH 180000Z 00000KT CAVOK 12/M11 Q1019 NOSIG=
METAR OEDF 180000Z 31009KT CAVOK 12/01 Q1017 NOSIG=
METAR OEDM 180000Z 08008KT CAVOK 10/M03 Q1020=
METAR OEDR 180000Z 32012KT CAVOK 13/03 Q1016=
METAR OEGN 180000Z 02003KT CAVOK 23/19 Q1014 NOSIG=
METAR OEGS 180000Z 32002KT CAVOK 08/01 Q1020=
METAR OEGT 180000Z 28004KT CAVOK 07/02 Q1022 NOSIG=
METAR OEHL 180000Z 00000KT CAVOK 07/M02 Q1021=
METAR OEJB 180000Z NIL=
METAR OEJN 180000Z 31005KT CAVOK 25/20 Q1013 NOSIG=
METAR OEKJ 180000Z 32007KT CAVOK 12/M01 Q1021=
METAR OEKK 180000Z NIL=


973 
SANP31 VNKT 180000
METAR VNKT 180000Z VRB02KT 6000 FEW015 05/04 Q1020 NOSIG=


975 
SABA31 MYGF 180000
METAR MYGF 180000Z 13004KT 9999 VCSH FEW018 BKN040 20/17 A3010=


976 
SAPR82 SPIM 180000
METAR SPEO 180000Z NIL=
METAR SPHI 180000Z 18014KT CAVOK 24/17 Q1013 RMK BIRD HAZARD RWY 
    19/01 PP000=
METAR SPJC 180000Z 16013KT CAVOK 24/18 Q1014 NOSIG RMK PP000=
METAR SPNC 180000Z NIL=
METAR SPQT 180000Z 00000KT 9999 FEW020 26/23 Q1008 NOSIG RMK PP000=
METAR SPQU 180000Z 27008KT 230V300 9999 BKN140 12/03 Q1028 RMK PP000=
METAR SPRU 180000Z 16008KT 8000 FEW150 20/18 Q1013 RMK PP000=
METAR SPSO 180000Z 21014KT 9999 SCT070 22/19 Q1014 RMK PP000=
METAR SPTN 180000Z 21009KT 9999 BKN030 21/15 Q1018 RMK PP000=
METAR SPUR 180000Z 23014KT CAVOK 28/17 Q1011 RMK PP000=
METAR SPZO 180000Z 29009KT 9999 FEW046 SCT100 15/05 Q1028 NOSIG RMK
    BIRD HAZARD RWY 10/28 PP000=


977 
SAMG21 FMMI 180000
METAR FMMI 180000Z VRB02KT 9999 FEW014 SCT020 VV016 19/19 Q1017 
NOSIG=


978 
SABU31 LBSM 180000
METAR LBSF 180000Z AUTO 27006KT 5000 BR OVC003/// M04/M04 Q1035
REFZDZ NOSIG=
METAR LBWN 180000Z AUTO 25005KT 9999 NSC 04/M02 Q1031 NOSIG=
METAR LBBG 180000Z AUTO 23010KT 9000 NCD M01/M02 Q1032 NOSIG=
METAR LBPD 180000Z AUTO 29003KT 250V320 9999 NCD M00/M00 Q1033=
METAR LBGO 180000Z AUTO 00000KT 5000 BR NCD M04/M05 Q1034=


979 
SAAJ31 UBBB 180000
METAR UBBN 180000Z 36004KT 6000 FEW040 SCT083 M03/M05 Q1021
NOSIG RMK MT OBSC QFE691=


981 
SAAJ31 UBBB 180000
METAR UBBZ 180000Z AUTO 28008KT 9999 // NSC 00/M02 Q1022=


291 
SAUS43 KUNR 180000 COR
MTR2WX
METAR K2WX 172356Z AUTO 33022KT M11/M14 A3005 RMK AO1 PK WND 
34031/2337 SLP219 T11061144 11061 21106 51030


317 
SACO20 SKBO 180000
METAR SKBG 180000Z VRB02KT 9999 SCT015 20/20 Q1017=
METAR SKBO 180000Z 23007KT 9999 SCT020 SCT070 14/12 Q1027 NOSIG=
METAR SKBQ 180000Z 03009KT 350V050 9999 FEW015 27/23 Q1012 NOSIG=
METAR SKCC 180000Z VRB02KT 9999 FEW017 SCT070 26/22 Q1016=
METAR SKCG 180000Z 01006KT 340V070 CAVOK 27/24 Q1011=
METAR SKCL 180000Z 33009KT 9999 SCT025 SCT120 25/18 Q1014 NOSIG=
METAR SKLT 180000Z VRB02KT 9999 SCT020 27/25 Q1008=
METAR SKPE 180000Z 33004KT 290V020 9999 SCT020 SCT080 23/17 Q1017=
METAR SKRG 180000Z 05005KT 9999 FEW017 16/14 Q1026 NOSIG=
METAR SKSP 180000Z 05012KT 9999 FEW016 28/24 Q1014=


318 
SACO20 SKBO 180000
METAR SKBQ 180000Z 03009KT 350V050 9999 FEW015 27/23 Q1012 NOSIG=


413 
SAUS41 EQYR 180000 COR
MTRXXD
METAR EQYR 172357Z AUTO 05004KT CLR 06/03 A3030 RMK AO2 SLP261 
T00610033 10111 20056 55000 $


492 
SAAK40 KNKA 180000
METAR PABR 172353Z 09016KT 10SM CLR M19/M22 A3010=
METAR PASY 172355Z 34017G23KT 7SM SCT011 BKN030 OVC250 02/01 A2935
      RMK AO2A SHSNB35E46 SLP940 ALSTG/SLP ESTMD WND DATA ESTMD
      60002 T00170004 10024 20013 51017 PNO FZRANO $=


493 
SAHW30 KMSC 180000
METAR PKWA 180000Z AUTO 08018G22KT 10SM CLR 30/23 A2984 RMK AO2
     T03030227=
METAR PWAK 172355Z AUTO 11010KT 9SM FEW027 30/23 A2998 RMK AO2 SLP155
      60000 T03010228 10301 20253 58001=


538 
SACH12 SCSC 180000
METAR SCAR 180000Z 19006KT CAVOK 22/17 Q1016=
METAR SCFA 180000Z 19008KT 9999 FEW017 21/17 Q1016 NOSIG=
METAR SCDA 180000Z 20017KT CAVOK 22/17 Q1015=
METAR SCSE 180000Z 28007KT CAVOK 17/14 Q1016=
METAR SCEL 180000Z 22018KT CAVOK 24/05 Q1016 NOSIG=
METAR SCVM 180000Z 18004KT 110V230 CAVOK  21/06 Q1018=
METAR SCEL 180000Z 22018KT CAVOK 24/05 Q1016 NOSIG=
METAR SCIE 180000Z 23016KT CAVOK 19/08 Q1017=
METAR SCTE 180000Z 16007KT CAVOK 15/07 Q1023 NOSIG=
METAR SCCI 180000Z 25023KT 9999 SCT045 13/04 Q1005 NOSIG=
METAR SCRM 180000Z 34005KT 8000 -SHRASN BKN015 OVC020 02/00 Q0972
BECMG 1600 SHRASN BKN003 OVC010=


799 
SAHW40 PHFO 180000 COR
MTRNGF
METAR PHNG 172357Z AUTO 36006KT 10SM SCT030 OVC037 A2990 RMK AO2 
SLP122 60001 56024 $


824 
SABH31 MZBZ 180000
METAR MZBZ 180000Z 14003KT 9999 FEW023 26/24 A2998 Q1015 NOSIG=


980 
SAXN17 KAWN 180000
METAR MMAA 172351Z 26011KT 8SM SKC 28/23 A2988 RMK SLP116 57008 958
      HZY=
METAR MMAS 172346Z 28016KT 10SM FEW200 24/01 A3023 RMK SLP125 57002
      966 8/002=
METAR MMCB 172355Z 00000KT 8SM FEW020 SCT200 26/13 A3011 RMK 8/108
      AC NW HZY=
METAR MMCN 172348Z 25009KT 10SM SCT100 BKN200 21/07 A3007 RMK SLP183
      8/038 HZY=
METAR MMCZ 172345Z 19003KT 7SM SKC 25/22 A2998 RMK SLP082 52002 973=
METAR MMEP 172352Z 35006KT 10SM SCT250 24/11 A3012 RMK SLP194 57002
      956 8/008 FU W=
METAR MMML 172345Z 14003KT 10SM SKC 21/M07 A3005 RMK SLP176 57013 907=
METAR MMMM 172346Z 20010KT 7SM FEW030 21/12 A3023 RMK SLP107 57002
      963 8/500 HZY TCU E CU=
METAR MMMV 172357Z RTD 27005KT 8SM SCT050 BKN110 27/08 A2984 RMK 8/140
      HZY=
METAR MMMX 172345Z 16007KT 8SM BKN020 BKN080 22/07 A3027 NOSIG RMK
      SLP100 57007 970 8/430 HZY CI=
METAR MMPS 172345Z 23006KT 15SM SKC 28/25 A3000 RMK DSNT CU N=
METAR MMQT 172349Z 28017KT 10SM FEW030 23/05 A3027 RMK 8/500=
METAR MMSP 172347Z 26014KT 10SM FEW025 BKN250 25/M02 A3017 RMK SLP108
      54000 980 8/108=
METAR MMTL 172345Z 00000KT 6SM SKC 25/24 A3001 RMK SLP/// 5//// 9//
      HZY=
METAR MMTP 172349Z 23007KT 8SM SKC 28/23 A2991 RMK SLP153 52006 960=
METAR MMVR 172350Z 10007KT 7SM SKC 24/21 A2993 RMK SLP119 57002 994
      HZY ISOL SC=
METAR MMZH 172345Z 25007KT 7SM SKC 30/23 A2992 RMK SLP123 57014 960
      HZY=
METAR PKWA 180000Z AUTO 08018G22KT 10SM CLR 30/23 A2984 RMK AO2 T03030227=


985 
SAMA20 FIMP 180000
METAR FIMP 180000Z 32005KT 9999 SCT017 23/21 Q1011=


986 
SAPF51 NTTB 180000
METAR NTTB 180000Z AUTO 04006KT 9999 NCD 31/25 Q1011 TEMPO
03015G25KT 2500 TSRA SCT015CB BKN040=


126 
SAAJ31 UBBB 180000
METAR UBBB 180000Z 29006KT 9999 BKN017 05/04 Q1021 NOSIG=


127 
SAAJ31 UBBB 180000
METAR UBBG 180000Z 28014KT 9999 FEW100 05/M03 Q1021
NOSIG =


128 
SASR31 WSSS 180000
METAR WSSS 180000Z 33008KT 7000 FEW015 BKN150 25/24 Q1009 NOSIG =


246 
SASD21 OEJD 180000
METAR OEKM 180000Z 00000KT CAVOK 08/M09 Q1025 NOSIG=
METAR OEMA 180000Z 01004KT CAVOK 17/M01 Q1020 NOSIG=
METAR OEMN 180000Z 00000KT CAVOK 23/18 Q1015=
METAR OENG 180000Z 00000KT CAVOK 11/M10 Q1021 NOSIG=
METAR OEPA 180000Z 00000KT CAVOK 09/01 Q1019 NOSIG=
METAR OERF 180000Z 25003KT CAVOK 07/M01 Q1020 NOSIG=
METAR OERK 180000Z 30006KT CAVOK 11/00 Q1020 NOSIG=
METAR OERR 180000Z 33006KT CAVOK 07/00 Q1021 NOSIG=
METAR OERS 180000Z NIL=
METAR OESH 180000Z 06006KT CAVOK 13/M09 Q1019 NOSIG=
METAR OESK 180000Z 34005KT CAVOK 08/M02 Q1024 NOSIG=
METAR OETB 180000Z 00000KT CAVOK 08/M08 Q1021 NOSIG=
METAR OETF 180000Z 22004KT CAVOK 12/M03 Q1021 NOSIG=
METAR OETR 180000Z 02010KT CAVOK 05/M01 Q1022 NOSIG=
METAR OEWD 180000Z 33004KT CAVOK 09/M09 Q1018=
METAR OEWJ 180000Z 35004KT CAVOK 19/10 Q1014 NOSIG=
METAR OEYN 180000Z 29006KT CAVOK 21/13 Q1011 NOSIG=


247 
SPAU33 YBBN 180000
SPECI YSRI 180000Z AUTO 17019G29KT 9999 // BKN030 BKN035 OVC039
23/18 Q1017=


301 
SAPF54 NTTO 180000
METAR NTTO 180000Z AUTO 26005KT 230V310 //// // SCT014///
BKN038/// BKN220/// 28/24 Q1013=


303 
SAMY20 FMCZ 180000
METAR FMCZ 180000Z AUTO 26009KT 9999 ///CB 28/25 Q1008 BECMG FEW020=


369 
SAUS43 KUNR 180001 COR
MTR2WX
METAR K2WX 172356Z AUTO 33022KT M11/M14 A3005 RMK AO1 PK WND 
34031/2337 SLP219 T11061144 11061 21106 51030


386 
SAUS17 KAWN 180000
METAR KAFF 172355Z AUTO 36004KT 10SM OVC025 00/M06 A2979 RMK AO2 SLP086
      T00031059 10121 20003 52026=
METAR KBLV 172355Z 17011KT 10SM OVC100 09/M02 A2965 RMK AO2A SLP047
      60000 T00851016 10092 20071 55003=
METAR KCEF 172355Z 00000KT 10SM SCT055 M03/M07 A3007 RMK AO2A SLP190
      T10271067 10030 21028 52015=
METAR KEDW 172355Z 29020G24KT 50SM CLR 17/M14 A3003 RMK AO2A PK WND
      29027/27 SLP167 T01651141 10195 20146 55003=
METAR KFAF 172355Z 14006KT 10SM CLR 02/M05 A3013 RMK AO2A SLP207 T00201052
      10085 20020 50008 $=
METAR KFEW 172355Z AUTO 01011G16KT 8SM -SN M M06/M09 A2985 RMK AO2
      SLP128 P0000 60000 T10621089 10018 21062 52011 $=
METAR KIAB 172355Z 36016KT 10SM SCT170 04/M02 A2960 RMK AO2A SLP032
      T00411021 10116 20040 4/000 52034=
METAR KMCF 172355Z 08007KT 10SM SCT055 16/13 A3005 RMK AO2A SLP176
      ALSTG ESTMD T01560133 53001 FZRANO $=
METAR KMGE 172355Z 13004KT 10SM BKN150 OVC250 11/M06 A2999 RMK AO2A
      SLP162 T01121057 10161 20112 53001 $=
METAR KMIB 172355Z 34013KT 10SM FEW025 M13/M17 A3007 RMK AO2A SLP217
      60000 T11301170 11085 21131 52029 $=
METAR KMTC 172356Z 17014KT 10SM BKN140 02/M03 A2969 RMK AO2A SLP065
      T00171026 10028 20015 57014 $=
METAR KNJK 172356Z 06006KT 10SM CLR 22/M03 A3005 RMK AO2 SLP191 T02221028
      10228 20178 55006 $=
METAR KNJK 172356Z 06006KT 10SM CLR 22/M03 A3005 RMK AO2 SLP191 T02221028
      10228 20178 55006 $=
METAR KNRS 172353Z 21006KT 10SM CLR A3018 RMK AO2 SLP221 56011 $=
METAR PPIZ 172356Z AUTO 09017KT 10SM FEW100 M10/M13 A2979 RMK AO2 SLP093
      T11001128 11100 21172 56030 FZRANO=


387 
SAAJ31 UBBB 180000
METAR UBBF 180000Z AUTO 29006KT 9999 // NSC 01/M01 Q1021=


388 
SABR31 TBPB 180000
METAR TBPB 180000Z 06009KT 9999 VCSH SCT016 26/23 Q1016 NOSIG=

389 
SAXX70 KAWN 180000
METAR KQEJ 180000Z AUTO 07001KT 4800 OVC004 M12/M13 A3031 RMK A02 TSNO=
METAR KQFB 180000Z AUTO 31001KT 4800 CLR M07/M08 A3037 RMK A02 TSNO=


390 
SANA14 KAWN 180000
METAR KNHK 172352Z 16007KT 10SM CLR 03/M05 A3016 RMK AO2 SLP212 T00331050
      10067 20033 51008 $=
METAR KNSE 172356Z 13004KT 10SM SCT060 BKN150 BKN250 13/06 A3003 RMK
      AO2 SLP157 T01330061 10183 20122 58008 $=
METAR KOFF 172355Z 35017G25KT 10SM BKN120 BKN250 05/M06 A2972 RMK AO2A
      PK WND 34032/20 SLP077 T00491058 10106 20049 52046 $=
METAR KOSC 172355Z AUTO 21022G33KT 8SM -RA CLR 02/M03 A2949 RMK AO2
      PK WND 22029/43 10029 21008=
METAR KOZR 172355Z AUTO 00000KT 10SM BKN180 OVC220 13/02 A3001 RMK
      AO2 SLP165 T01290019 10187 20129 55008 $=
METAR KPOE 172355Z 15017G22KT 8SM FEW100 SCT120 OVC150 14/08 A2975
      RMK AO2A PRESFR SLP078 60000 T01370079 10150 20117 57053=
METAR KPSM 172355Z 17005KT 10SM FEW050 SCT100 M02/M09 A3006 RMK AO2A
      SLP183 T10191086 10023 21023 51012=
METAR KRDR 172355Z 36019G26KT 10SM FEW020 FEW028 SCT036 M10/M15 A2998
      RMK AO2A PK WND 34030/2256 SLP172 60000 T10981155 11060
      21098 52052 $=
METAR KSGH 172356Z AUTO 16009KT 10SM CLR 02/M03 A2983 RMK AO2 SLP113
      T00171033 10028 20017 56018=
METAR KSLI 172355Z 00000KT 10SM FEW030 15/07 A3012 RMK AO2A SLP203
      T01540069 10173 20144 57013=
METAR PHSF 172355Z AUTO 27012G18KT 10SM FEW013 18/11 A3022 RMK AO2
      SLP136 T01790107 10196 20088 57024 $=
METAR SPJC 180000Z 16013KT CAVOK 24/18 Q1014 NOSIG RMK PP000=


391 
SAFG20 SOCA 180000
METAR SOCA 180000Z AUTO 08004KT 050V110 9999 FEW023 26/22 Q1014
NOSIG=


392 
SAHU31 LHBM 180000
METAR LHBP 180000Z 23006KT 8000 OVC015 M00/M02 Q1039 NOSIG=


393 
SPAU33 YBBN 180000
SPECI YSDU 180000Z AUTO 13015G33KT 9999 // NCD 27/14 Q1014=


394 
SPAU32 YBBN 180000
SPECI YBRM 180000Z AUTO 08011KT 8000 RA FEW006 BKN022 BKN031 25/24
Q1001=


395 
SPAU36 YBBN 180000
SPECI YWLM 180000Z AUTO 14018KT 4700 -RA FEW018 BKN075 OVC094 21/20
Q1014 RERA=


396 
SPAU35 YBBN 180000
SPECI YPKU 180000Z AUTO 34004KT 9999 // BKN008 28/25 Q1007=


397 
SAMR20 TFFF 180000
METAR TFFF 180000Z AUTO 09007KT CAVOK 26/22 Q1017 NOSIG=


775 
SANC01 NWWW 180000
METAR NWWW 180000Z AUTO 21005KT 170V250 CAVOK 31/23 Q1007 NOSIG=


777 
SAPF58 NTAT 180000
METAR NTAT 180000Z AUTO 33011KT 9999 SCT019/// SCT028/// 30/24
Q1010=


811 
SAUS41 EQYR 180001 COR
MTRXXD
METAR EQYR 172357Z AUTO 05004KT CLR 06/03 A3030 RMK AO2 SLP261 
T00610033 10111 20056 55000 $


891 
SAUS14 KAWN 180000
METAR K0CO 172355Z AUTO 34008KT M1/4SM +SN OVC001 M13/M15 A2976 RMK
      AO2=
METAR K2R9 172355Z AUTO 23004KT 10SM CLR 19/13 A2983 RMK AO2 T01900134
      10203 20184 402030068=
METAR K40U 172355Z AUTO 34014G26KT 10SM OVC065 01/M08 A2988 RMK AO2
      T00051082 10062 20000 400621127=
METAR K41U 172355Z AUTO 32005KT 10SM BKN065 05/M08 A2994 RMK AO1 T00541080
      10084 21028=
METAR K4F2 172355Z AUTO 16011KT 10SM SCT120 12/08 A2977 RMK AO2 T01190085
      10127 20102 401271009=
METAR K4V0 172355Z AUTO 24004KT 10SM 03/M09 A2983 RMK AO2 T00291092
      10052 21050 PWINO=
METAR KBIH 172356Z AUTO 16007KT 10SM CLR 16/M09 A3001 RMK AO2 SLP156
      T01561089 10178 20083 55005=
METAR KEKO 172356Z AUTO 36009KT 10SM OVC045 03/M07 A3008 RMK AO2 SLP213
      T00281067 10067 20022 53010=
METAR KFLG 172357Z 24013G24KT 10SM FEW040 05/M05 A3003 RMK AO2 PK WND
      27026/2330 SLP146 T00501050 10067 20028 53006=
METAR KLAS 172356Z 09005KT 10SM CLR 16/M12 A3000 RMK AO2 SLP157 T01561117
      10156 20089 55010=
METAR KPAN 172355Z AUTO 25006KT 230V290 10SM BKN045 BKN055 08/M04 A3007
      RMK AO2 10086 20037=
METAR KRFI 172355Z AUTO 18006KT 10SM SCT110 14/09 A2978 RMK AO2 T01400090
      10150 20122 PWINO=
METAR KSLE 172356Z 04004KT 6SM BR BKN015 04/01 A3041 RMK AO2 SLP297
      T00440011 10050 20017 55004=
METAR KSRR 172355Z AUTO 29014G25KT 10SM CLR 06/M07 A2989 RMK AO2=
METAR KUKI 172356Z AUTO 23004KT 10SM CLR 16/05 A3015 RMK AO2 SLP210
      T01610050 10172 20061 55009=


892 
SAUS14 KAWN 180000 RRA
METAR K4V1 172355Z AUTO 07007G12KT 10SM CLR 02/M05 A2983 RMK AO2=
METAR K6P9 172355Z AUTO 25012G20KT 2 1/2SM HZ OVC030 20/M02 A2965 RMK
      AO2 T01961018 10215 20135=
METAR K6R3 172355Z AUTO 19003KT 10SM OVC028 16/11 A2983 RMK AO2 T01580114
      10165 20146=
METAR K74V 172355Z AUTO 28017G24KT 10SM CLR 05/M10 A2984 RMK AO2=
METAR KA39 172355Z AUTO 29008KT 10SM CLR 18/M06 A3009 RMK AO2=
METAR KAJZ 172355Z AUTO 21005KT 10SM CLR 04/M11 A2988 RMK AO2 T00411112
      10060 21017=
METAR KANK 172355Z AUTO 23018G25KT 10SM 01/M14 A2977 RMK AO2 T00141143
      $=
METAR KAQO 172355Z AUTO 19014KT 10SM CLR 18/07 A2973 RMK AO2=
METAR KAUN 172355Z AUTO 20005KT 10SM CLR 12/01 A3018 RMK A01=
METAR KAXX 172355Z AUTO 26008G16KT 220V280 10SM CLR 00/M15 A2986 RMK
      AO2 T00011154 10027 20001=
METAR KBBD 172355Z AUTO 24012KT 10SM FEW046 20/01 A2972 RMK AO2=
METAR KBMC 172355Z AUTO 31011G16KT 10SM SCT049 BKN060 OVC070 02/M07
      A3002 RMK AO1 T00161069 10131 21081=
METAR KBMT 172355Z AUTO 15008KT 10SM CLR 15/12 A2982 RMK AO2 T01520115
      10167 20146=
METAR KBPG 172355Z AUTO 25024G31KT 1 1/2SM HZ OVC026 18/M04 A2975 RMK
      AO2 T01751036 10195 20173 401950063=
METAR KBVS 172355Z AUTO 32007KT 10SM BKN028 05/02 A3047 RMK A01=
METAR KCOM 172355Z AUTO 26020G29KT 2SM OVC024 20/M04 A2971 RMK AO2
      T02001045 10215 20145 PWINO=
METAR KOZA 172355Z AUTO 32010KT 5SM HZ CLR 18/M02 A2982 RMK AO2=
METAR KPEQ 172355Z AUTO 27023G30KT 7SM SCT050 17/M07 A2986 RMK AO2
      T01701074 10191 20170=
METAR KPEZ 172355Z AUTO 00000KT 10SM CLR 15/09 A2985 RMK AO2 T01530093
      10178 20146=


936 
SAMF20 TFFR 180000
METAR TFFR 180000Z AUTO 09007KT //// R12///// // FEW037 26/22 Q1017=


938 
SASQ31 LZIB 180000
METAR LZIB 180000Z 19006KT 9999 BKN011 OVC014 M01/M03 Q1039 NOSIG=
METAR LZKZ 180000Z 26003KT 8000 OVC007 M00/M01 Q1037 NOSIG=
METAR LZTT 180000Z 31005KT CAVOK M05/M06 Q1034=


941 
SAUS14 KAWN 180000 RRC
METAR KCPU 172355Z AUTO 00000KT 10SM CLR 14/M03 A3017 RMK AO2 T01401032
      10151 20087=
METAR KDKB 172355Z AUTO 20013KT 10SM CLR 03/00 A2954 RMK AO2 T00321005
      10088 20032=
METAR KDUX 172355Z AUTO 36011KT 10SM CLR 10/M07 A2971 RMK AO2 T00971068
      10145 20097=
METAR KE11 172355Z AUTO 27019G27KT 7SM BKN027 OVC033 16/M04 A2979 RMK
      AO2 T01561045 10185 20156=
METAR KE41 172355Z AUTO 29025G32KT 1SM HZ OVC026 18/M09 A2981 RMK AO2
      VIS 1/2V2 1/2 T01761086 10204 20151 402040081=
METAR KEBG 172355Z AUTO 15007KT 10SM CLR 21/15 A2983 RMK AO2 10246
      20201=
METAR KECU 172355Z AUTO 18009KT 140V200 10SM CLR 16/05 A2984 RMK AO2=
METAR KEIK 172355Z AUTO 05009KT 1 3/4SM UP OVC042 M03/M06 A2991 RMK
      AO2 P0000 T10281061=
METAR KIZA 172355Z AUTO VRB05G11KT 10SM CLR 15/06 A3015 RMK AO2=
METAR KJSY 172355Z AUTO 31003KT 10SM BKN060 M02/M11 A3022 RMK AO2 T10191115
      10007 21020=
METAR KLSB 172355Z AUTO 29017KT 10SM CLR 11/M08 A3003 RMK AO2=
METAR KMDD 172355Z AUTO 26021G29KT 4SM HZ OVC038 17/M04 A2979 RMK AO2
      T01671041 10190 20167 401900070=
METAR KPSN 172355Z AUTO 18010G16KT 10SM OVC100 15/10 A2972 RMK AO2=
METAR KRYW 172355Z AUTO 20004KT 10SM CLR 15/10 A2982 RMK AO2 T01450095
      10156 20130=
METAR KSEZ 172355Z AUTO 18010KT 150V220 10SM FEW055 SCT065 10/M02 A3004
      RMK AO2=
METAR KSLR 172355Z AUTO 17008KT 10SM CLR 13/07 A2970 RMK AO2 T01280065
      10152 20116=
METAR KSVC 172355Z AUTO 27020G24KT 10SM CLR 08/M08 A3001 RMK AO2 T00831085
      10103 20083=


942 
SAUS14 KAWN 180000 RRB
METAR K5SM 172355Z AUTO 10SM OVC025 M08/M13 A2985 RMK AO2=
METAR K8T6 172355Z AUTO VRB05KT 10SM CLR 21/17 A2981 RMK AO2=
METAR KDKR 172355Z AUTO 16004KT 10SM 14/13 A2978 RMK AO2=
METAR KDVO 172355Z AUTO 28005KT 10SM CLR 13/07 A3020 RMK AO2=
METAR KDZB 172355Z AUTO 19007G15KT 10SM CLR 17/08 A2977 RMK AO2 T01650080
      10199 20147=
METAR KE42 172355Z AUTO 36018G24KT 10SM CLR 11/M04 A2969 RMK AO2 T01091036
      10158 20107 401580020=
METAR KE57 172355Z AUTO 29023G28KT 10SM FEW090 15/M07 A2976 RMK AO2=
METAR KELA 172355Z AUTO 23004KT 10SM BKN027 16/13 A2982 RMK AO2 T01550133
      10160 20135=
METAR KFMM 172355Z AUTO 01015KT 10SM SCT033 BKN042 OVC070 M01/M06 A2991
      RMK AO2=
METAR KGIC 172355Z AUTO 13003KT 10SM BKN035 BKN040 OVC047 M02/M05 A3024
      RMK AO1=
METAR KGOP 172355Z AUTO 18011G17KT 10SM CLR 17/09 A2971 RMK AO2 LTG
      DSNT NE AND SE=
METAR KGYF 172355Z AUTO 16017KT 10SM SCT021 SCT025 OVC042 23/18 A2989
      RMK AO2 T02280177 10243 20222 402430188=
METAR KHII 172355Z AUTO 15005KT 10SM CLR 19/M07 A3002 RMK AO2=
METAR KORG 172355Z AUTO 14004KT 10SM BKN036 14/10 A2985 RMK AO2 T01400103
      10159 20140 PWINO=
METAR KPPA 172355Z AUTO 36016G22KT 10SM CLR 12/M01 A2966 RMK AO2 T01201015
      10177 20120=
METAR KRCV 172355Z AUTO 00000KT 10SM BKN100 02/M13 A2981 RMK AO2 T00221133
      10056 20022=
METAR KS52 172355Z AUTO 34006KT 10SM CLR M02/M09 A3036 RMK AO2 T10231091
      11002 21089 410021089=
METAR KSWW 172355Z AUTO 25018G26KT 2 1/2SM 19/M02 A2970 RMK AO2 T01891025
      10210 20150=


212 
SARH32 LDZM 180000
METAR LDLO 180000Z NIL=
METAR LDSB 180000Z NIL=


213 
SARH31 LDZM 180000
METAR LDDU 180000Z VRB12G23KT CAVOK 10/M06 Q1027=
METAR LDOS 180000Z VRB01KT 9999 OVC007 M03/M04 Q1040=
METAR LDPL 180000Z AUTO 36003KT 340V040 CAVOK M00/M05 Q1030=
METAR LDRI 180000Z 03008KT CAVOK 05/M06 Q1032=
METAR LDSP 180000Z AUTO 09001KT CAVOK 06/M04 Q1029=
METAR LDZA 180000Z VRB01KT 9999 OVC021 M01/M04 Q1039 NOSIG=
METAR LDZD 180000Z 09006KT 040V150 CAVOK 06/M06 Q1029=


217 
SAIN90 VECC 180000
METAR VECC 180000Z 01004KT 2200 BR NSC 15/13 Q1016 NOSIG=

218 
SAOM32 OOMS 180000
METAR OOMS 172350Z 25003KT CAVOK 18/12 Q1013 NOSIG=
METAR OOSA 172350Z 35005KT CAVOK 20/14 Q1015 NOSIG=
METAR OOSH 180000Z NIL=
METAR OODQ 172350Z AUTO 25005KT CAVOK ////// 18/14 Q1015 NOSIG=
METAR OOKB 172350Z AUTO VRB03KT 9999 -RA NCD 19/10 Q1013 NOSIG=
METAR OOAD 172350Z AUTO 24005KT 9999 // NCD 16/05 Q1016 NOSIG=

219 
SAER32 OMAE 180000
METAR OMAD 180000Z 22003KT 180V260 CAVOK 18/12 Q1015 NOSIG=
METAR OMAL 180000Z 12005KT CAVOK 16/06 Q1015 NOSIG=
METAR OMAA 180000Z 21005KT CAVOK 16/08 Q1014 NOSIG=
METAR OMDB 180000Z 19007KT 9999 FEW025 17/09 Q1014 NOSIG=
METAR OMDW 180000Z 19008KT CAVOK 17/07 Q1015 NOSIG=
METAR OMSJ 180000Z NIL=
METAR OMRK 180000Z NIL=
METAR OMFJ 180000Z NIL=

228 
SAHW40 PHFO 180001 COR
MTRNGF
METAR PHNG 172357Z AUTO 36006KT 10SM SCT030 OVC037 A2990 RMK AO2 
SLP122 60001 56024 $


373 
SAMO31 ZMCK 180000
METAR ZMCK 180000Z VRB02MPS CAVOK M21/M25 Q1015 NOSIG RMK QFE645.9 
72=

386 
SAUS41 KLWX 180001 COR
MTRNYG
METAR KNYG 172356Z AUTO 18004KT 10SM CLR 03/ A3014 RMK AO2 SLP207 
T0033 10067 20033 53003 $


390 
SAZZ40 KAWN 180000
METAR BGGH 172350Z VRB02KT 9999 SCT110 M05/M14 Q1009 LAST OBS=
METAR ETAR 172355Z COR 06010KT 9999 OVC011 01/M01 A3049 RMK AO2A SLP338
      T00111011 10015 20008 57014 $ COR 2359=
METAR KGOV 172355Z AUTO 22006G15KT 10SM OVC120 04/M03 A2943 RMK AO2
      SLP984 T00371031 10038 21006 55008 $=
METAR KMGE 172355Z 13004KT 10SM BKN150 OVC250 11/M06 A2999 RMK AO2A
      SLP162 T01121057 10161 20112 53001 $=
METAR KNFE 172356Z AUTO 13003KT 10SM CLR 01/M07 A3019 RMK AO2 SLP225
      T00061072 10089 20006 51008=
METAR KNFW 172352Z 18012KT 10SM FEW250 16/06 A2961 RMK AO2 SLP013 T01610056
      10189 20128 56015 $=
METAR KNRB 172352Z AUTO 15003KT 10SM CLR 13/08 A3011 RMK AO2 SLP196
      T01280078 10161 20122 55000=
METAR MDPC 180000Z 04012KT 9999 SCT018 26/23 Q1019=
METAR MDSD 180000Z 04005KT 9999 BKN018 25/23 Q1018=
METAR MDST 180000Z 09005KT 050V140 9999 FEW018 24/21 Q1018=
METAR MGGT 180000Z 030008KT 9999 FEW018 21/11 Q1022 A3018=
METAR MGPB 180000Z 09004KT CAVOK 25/22 Q1015 A2997=
METAR MGQZ 180000Z 18006KT CAVOK 15/11 QFE774/3=
METAR MGZA 180000Z 08004KT CAVOK 29/16 QFE989/5=
METAR MPDA 180000Z VRB01KT 9999 4000N RA SCT015 BKN080 27/24 Q1011
      NOSIG=
METAR MROC 180000Z 10008KT 9999 FEW040 SCT200 23/16 A3003 NOSIG=
METAR MRPV 180000Z 11008KT 9999 FEW040 22/16 A3009 NOSIG=
METAR MSLP 180000Z 23005KT 9999 FEW020 27/22 Q1012 A2991 NOSIG RMK
      FU SW=
METAR MSSS 180000Z 17007KT CAVOK 26/18 Q1016 A3002=
METAR MUGM 172351Z 05009KT 10SM FEW030 FEW060 27/22 A3006 RMK AO2 SLP178
      T02670222 10300 20267 53012 $=
METAR RKSG 172355Z 16003KT 5SM HZ CLR M04/M07 A3032 RMK SLP272 50004=


392 
SAEW KAWN 180000
METAR EBBE 172355Z AUTO 08004KT 0300 FZFG OVC002/// M02/M02 Q1034 RED=
METAR EBBL 172355Z AUTO 07004KT 0200 FZFG OVC002/// M00/M00 Q1035 RED=
METAR EBDT 172355Z AUTO 12003KT 0400 FZFG OVC002/// M02/M02 Q1035 RED=
METAR EBFN 172355Z AUTO 08003KT 0500 FG OVC002/// 00/00 Q1035 RED=
METAR EBFS 172355Z 07003KT 0100 FZFG SKC M02/M02 Q1033 RED RED=
METAR EBLB 172355Z AUTO VRB02KT 9999 NCD M04/M04 Q1031 BLU=
METAR EDAC 172350Z AUTO /////KT ///V/// 0250 R22/0325N // VV001 M03/M03
      Q1036=
METAR EHAM 172355Z 12004KT 090V160 0800 R18C/1400D R27/1200D R18R/1300D
      R06/1300N FZFG BKN001 M01/M01 Q1036 NOSIG=
METAR EHBK 172355Z AUTO 07007KT 040V110 0900 R21/1300N FZFG VV000 M01/M01
      Q1034=
METAR EHDL 172355Z AUTO 13003KT 0500 FZFG VV000 M02/M02 Q1035 RED=
METAR EHEH 172355Z AUTO 11004KT 040V140 1100 BR OVC001 M00/M00 Q1035
      RED=
METAR EHGG 172355Z AUTO 18005KT 0650 R23/0900N FZFG VV000 M01/M01 Q1035=
METAR EHGR 172355Z AUTO 07004KT 020V130 0800 FZFG VV000 M01/M02 Q1035
      AMB=
METAR EHLW 172355Z AUTO 17006KT 130V190 1600 BR BKN001 OVC002 M00/M01
      Q1035 RED=
METAR EHRD 172355Z AUTO 12004KT 060V160 1000 R24/1500D BR OVC000 M00/M00
      Q1035 NOSIG=
METAR EHVK 172355Z AUTO 11005KT 060V120 0450 FZFG OVC000 M00/M00 Q1035
      RED=
METAR EHVL 172355Z AUTO 18007KT 140V210 4100 BR OVC003 03/02 Q1035
      YLO=
METAR EHWO 172355Z AUTO 12004KT 080V140 0750 FZFG VV001 M00/M01 Q1035
      RED=
METAR ETAR 172355Z COR 06010KT 9999 OVC011 01/M01 A3049 RMK AO2A SLP338
      T00111011 10015 20008 57014 $ COR 2359=


439 
SAEG31 HECA 180000
METAR HECA 180000Z 05006KT CAVOK 14/12 Q1023 NOSIG=


493 
SAUS14 KAWN 180000 RRD
METAR KE38 172355Z 10SM CLR 15/M06 A2998 RMK AO2 T01461060 10176 20146=
METAR KGNB 172355Z AUTO 20006KT 4SM -SN SCT021 SCT026 OVC032 M03/M07
      A2983 RMK AO2 T10351073 11024 21141=
METAR KGNC 172355Z AUTO 25023G28KT 7SM CLR 16/M03 A2981 RMK AO2 T01551028
      10185 20155=
METAR KGYB 172355Z AUTO 21003KT 10SM CLR 14/10 A2984 RMK AO2 T01370100
      10157 20131=
METAR KHRX 172355Z AUTO 36011KT 10SM CLR 11/M03 A2971 RMK AO2 T01061032
      10177 20106 TSNO=
METAR KHSG 172355Z AUTO 29014G25KT 10SM OVC055 M08/M13 A3007 RMK AO2
      T10821133 11054 21083=
METAR KIKG 172355Z AUTO 17005KT 10SM CLR 21/15 A2982 RMK AO2 T02140147
      10233 20204=
METAR KJAS 172355Z AUTO 19007G12KT 9SM 14/12 A2982 RMK AO2=
METAR KLAM 172355Z AUTO 26013KT 9SM CLR 06/M16 A2985 RMK AO2 T00551163
      $=
METAR KLLN 172355Z AUTO 28025G32KT 6SM HZ CLR 15/M08 A2971 RMK AO2=
METAR KLMO 172355Z AUTO 06006KT 10SM OVC034 00/M07 A2994 RMK AO2 T10021070
      10126 21002=
METAR KLUV 172355Z AUTO 27020G27KT 4SM HZ SCT036 BKN045 OVC110 17/M03
      A2974 RMK AO2=
METAR KNFW 172352Z 18012KT 10SM FEW250 16/06 A2961 RMK AO2 SLP013 T01610056
      10189 20128 56015 $=
METAR KP68 172353Z AUTO 29016KT 04/M07 A3004 RMK AO1 PK WND 29027/2328
      SLP174 T00441067 10083 20006 53005=
METAR KRAS 172355Z AUTO 17013KT 10SM CLR 17/16 A2983 RMK AO2 T01740157
      10207 20173 402070095=
METAR KSTK 172355Z AUTO 36004KT 10SM SCT026 OVC032 00/M03 A2989 RMK
      AO2=


633 
SANV20 NVVV 180000
METAR NVSC 180000Z NIL=
METAR NVSG 180000Z NIL=
METAR NVSS 180000Z 11005KT 9999 FEW025 31/24 Q1008=
METAR NVSL 180000Z NIL=
METAR NVVV 180000Z 22007KT 180V270 9999 FEW020 SCT300
31/24 Q1008=
METAR NVVW 180000Z NIL=
METAR NVVA 180000Z NIL=


658 
SAET20 HAAB 180000
METAR  HAAB 180000Z 31003KT 9999  FEW024 1/02 Q1026 NOSIG=


659 
SAEQ01 SEQU 180000
METAR SEQM 180000Z 32005KT 280V020 9999 BKN030 BKN080 16/12 Q1026 
    NOSIG RMK A3032=
METAR SEMT 180000Z 19011KT 9999 SCT020 BKN100 27/22 Q1010 RMK A2985=
METAR SELT 180000Z 09002KT 9999 SCT030 BKN300 09/08 Q1030=
METAR SEGU 180000Z 23008KT 9999 FEW026 SCT100 27/22 Q1011 NOSIG RMK A2986=
METAR SERO 180000Z 25003KT 9999 BKN026 27/22 Q1012 RMK A2990=
METAR SECU 180000Z 25007KT 9999 -DZ BKN023 BKN070 14/12 Q1026=
METAR SEST 180000Z NIL=
METAR SEGS 180000Z NIL=


660 
SACY31 LCLK 180000
METAR LCLK 180000Z 33009KT CAVOK 11/06 Q1024 NOSIG=
METAR LCPH 180000Z AUTO 02006KT 010V080 9999 NCD 10/02 Q1024 NOSIG=
METAR LCNC 180000Z NIL=


753 
SAUS46 KLOX 180001
MTRFHM
METAR KFHM 180000Z 05002G05KT 15/08


813 
SAHW30 KMSC 180001
METAR PHSF 172355Z AUTO 27012G18KT 10SM FEW013 18/11 A3022 RMK AO2
      SLP136 T01790107 10196 20088 57024 $=


956 
SAXX70 KAWN 180000 RRX
METAR KQEY 172350Z AUTO 05002KT 4800 HZ CLR M06/M09 A3003 RMK A02 TSNO=
METAR KQBL 172355Z AUTO 00000KT 10SM BKN210 15/08 A3003 RMK AO2 SLP182
      WND DATA ESTMD T01490081 10172 20148 57010=
METAR KQHY 172355Z AUTO 00000KT 10SM OVC210 15/08 M RMK AO2 SLPNO T01540084
      10171 20147=
METAR KQEQ 180000Z AUTO 00000KT 6000 HZ CLR M07/M09 A3037 RMK A02 TSNO=
METAR KQEW 180000Z AUTO 36001KT 9999 // CLR M03/M09 A3030 RMK A02 TSNO=
METAR KQFV 180000Z AUTO 11001KT 6000 HZ CLR M11/M14 A3033 RMK A02 TSNO=


005 
SAUS70 KWBC 180000 RRR
METAR
PABR 172353Z 09016KT 10SM CLR M19/M22 A3010=
KBYL 172355Z AUTO 16005KT 10SM 08/M07 A2992 RMK AO1=
KFGX 172355Z AUTO 17009KT 10SM CLR 04/M03 A2988 RMK AO2 T00391035
     10050 20026=
KMEI 172358Z 00000KT 10SM BKN110 11/04 A2995 RMK AO2 SLP141 I1000
     I6/// T01110039 10161 20111 58015=
KMRH 172358Z AUTO 05004KT 10SM CLR 05/00 A3019 RMK AO2 SLP224
     I1000 I6/// T00500000 10094 20050 50005=
KPAO 172355Z 33008KT 9SM HZ SKC 12/07 A3021=
KW13 172355Z AUTO 18003KT 10SM CLR 00/M06 A3005 RMK AO1 T00031064
     10050 20000=
PPIZ 172356Z AUTO 09017KT 10SM FEW100 M10/M13 A2979 RMK AO2 SLP093
     T11001128 11100 21172 56030 FZRANO=
KNSE 172356Z 13004KT 10SM SCT060 BKN150 BKN250 13/06 A3003 RMK AO2
     SLP157 T01330061 10183 20122 58008 $=
KOSC 172355Z AUTO 21022G33KT 8SM -RA CLR 02/M03 A2949 RMK AO2 PK
     WND 22029/43 10029 21008=
KSGH 172356Z AUTO 16009KT 10SM CLR 02/M03 A2983 RMK AO2 SLP113
     T00171033 10028 20017 56018=
K06C 172355Z AUTO 21010G16KT 10SM CLR 05/00 A2955 RMK AO2
     T00451001 10078 20045=
K0R4 172355Z AUTO 14007KT 10SM BKN033 BKN048 OVC110 13/04 A2993
     RMK AO2 T01270039 10149 20120=
K19S 172355Z AUTO 02020G25KT 10SM CLR 07/M04 A2974 RMK AO2
     T00751040 10144 20073 401441046=
K1A6 172355Z AUTO 00000KT 10SM CLR 02/M03 A2995 RMK AO2 T00211033
     10108 20018=
K1H2 172355Z AUTO 16008KT 10SM RA BKN070 BKN080 OVC100 07/00 A2972
     RMK AO2 T00741002 10085 20059=
K20V 172355Z AUTO 00000KT 10SM BKN065 M06/M16 A2981 RMK AO2=
K3D2 172355Z AUTO 25005KT 10SM OVC100 04/M03 A2938 RMK AO2
     T00351026 10035 20017=
K5C1 172355Z AUTO 20004KT 10SM CLR 12/07 A2983 RMK AO1=
K5R8 172355Z AUTO 14012KT 10SM SCT110 15/09 A2981 RMK AO2
     T01460093 10160 20133=
K81R 172355Z AUTO 21010KT 10SM CLR 18/06 A2973 RMK AO2 T01820056
     10223 20146 402230057=
KAFO 172355Z AUTO 35005KT 3SM BR BKN028 OVC037 M06/M07 A2993 RMK
     AO2=
KAZE 172355Z AUTO 18003KT 10SM CLR 12/00 A3007 RMK AO2 T01190000
     10170 20109=
KBEC 172355Z AUTO 34013G17KT 10SM CLR 03/M03 A2961 RMK AO2
     T00311029 10101 20031=
KBQP 172355Z AUTO 00000KT 10SM SCT030 SCT039 OVC050 08/07 A2987
     RMK AO2 T00800070 10131 20080 TSNO=
KCNI 172355Z AUTO 14006KT 10SM CLR 10/M08 A3003 RMK AO2 T01041080
     10150 20101 401501012=
KCWV 172355Z AUTO 15005KT 10SM CLR 08/02 A3009 RMK AO2 10176
     20061=
KD25 172355Z AUTO 31018G25KT 10SM OVC033 00/M06 A2938 RMK AO2
     T00001056 10025 20000=
KD73 172355Z AUTO 10SM CLR 08/M05 A3005 RMK AO2 T00761046 10154
     20070 401541031=
KDCY 172355Z AUTO 16008KT 10SM SCT100 SCT120 05/00 A2975 RMK AO2
     T00511002 10056 20032=
KDLZ 172355Z AUTO 16008KT 10SM CLR 01/M05 A2983 RMK AO2=
KE16 172355Z AUTO 18005KT 10SM CLR 14/05 A3021 RMK AO2=
KEAN 172355Z AUTO 36012G19KT 5SM -SN BKN023 BKN031 OVC044 M05/M08
     A2995 RMK AO2 T10501076 10000 21050=
KEHY 172355Z AUTO 03012KT 1SM OVC009 M08/M11 A2981 RMK AO2
     PWINO=
KF00 172355Z AUTO 17014G22KT 10SM CLR 13/06 A2963 RMK AO2
     T01280060 10154 20117=
KRZT 172355Z AUTO 16006KT 10SM CLR 03/M04 A2988 RMK AO2 PWINO=
KS33 172355Z AUTO 02003KT 10SM CLR 03/M05 A3034 RMK AO2=
KSIK 172355Z AUTO 20009G18KT 9SM -RA BKN090 OVC110 11/00 A2977 RMK
     AO2 P0000 T01080005 $=
KSXU 172355Z AUTO 29017G25KT 10SM CLR 12/M12 A2972 RMK AO2 PK WND
     30032/22 10152 20119=
KSYF 172355Z AUTO 01012KT 10SM CLR M00/M08 A2986 RMK AO2 PK WND
     03026/02 10112 21002=
KT35 172355Z AUTO 19010KT 10SM CLR 15/10 A2977 RMK AO2 T01490097
     10161 20138=
KT41 172355Z AUTO 18012G17KT 10SM CLR 19/14 A2980 RMK AO2
     T01870142 10200 20173 402000043=


006 
SAUS70 KWBC 180002
METAR
KC62 180015Z AUTO 19012G16KT 10SM CLR 02/M02 A2966 RMK AO2
     T00221028=


007 
SPAU31 KWBC 180002
SPECI
YSRI 180000Z AUTO 17019G29KT 9999 // BKN030 BKN035 OVC039 23/18
Q1017=


009 
SPAU31 KWBC 180002
SPECI
YSDU 180000Z AUTO 13015G33KT 9999 // NCD 27/14 Q1014=


011 
SAUS70 KWBC 180000 RRX
METAR
KGVT 172350Z AUTO 18012KT 10SM CLR 12/08 A2967 RMK AO2 TSNO=
KGYY 172345Z 20010G20KT 10SM BKN070 06/00 A2957=
KHHG 172355Z AUTO 18012G17KT 10SM CLR 04/M02 A2968 RMK AO2
     T00371021 10040 20030=
KHHW 172355Z AUTO 16009KT 10SM CLR A2964 RMK AO2=
KHVE 172350Z AUTO 00000KT 10SM CLR 05/M12 A2992 RMK AO2=
KIJX 172355Z AUTO 16008KT 10SM OVC060 05/M02 A2959 RMK AO2
     T00531017 10073 20053=
KIKK 172355Z AUTO 20015G20KT 10SM OVC070 04/M01 A2961 RMK AO2
     T00351007 10045 20030=
KJES 172355Z AUTO 00000KT 10SM CLR 12/01 A3013 RMK AO2=
KJZP 172355Z AUTO 10SM CLR 11/M10 A3001 RMK AO2 T01061101 10140
     20105 401400001=
KMHP 172350Z AUTO 00000KT 10SM CLR 11/M02 A3009 RMK AO2 T01071016
     10171 20101 401710000=
KMNZ 172355Z AUTO 20014G18KT 10SM CLR 16/06 A2969 RMK AO2 10216
     20136=
KMYZ 172355Z AUTO 01017G22KT 10SM CLR 04/M05 A2970 RMK AO2=
KNOW 172350Z AUTO 18005KT 10SM CLR 06/04 A3048 RMK AO2 T00560038
     10062 20049=
KNSE 172356Z 13004KT 10SM SCT060 BKN150 BKN250 13/06 A3003 RMK AO2
     SLP157 T01330061 10183 20122 58008 $=
KOLY 172355Z AUTO 17008KT 10SM SCT060 BKN070 OVC110 07/M01 A2973
     RMK AO2 T00681014 10073 20059=
KOSA 172350Z AUTO 16009KT 10SM SCT031 SCT120 12/07 A2970 RMK AO2
     T01230073 10143 20107 401431012=


012 
SAUS70 KWBC 180000 RRW
METAR
KGNC 172355Z AUTO 25023G28KT 7SM CLR 16/M03 A2981 RMK AO2
     T01551028 10185 20155=
KGYB 172355Z AUTO 21003KT 10SM CLR 14/10 A2984 RMK AO2 T01370100
     10157 20131=
KHRX 172355Z AUTO 36011KT 10SM CLR 11/M03 A2971 RMK AO2 T01061032
     10177 20106 TSNO=
KHSG 172355Z AUTO 29014G25KT 10SM OVC055 M08/M13 A3007 RMK AO2
     T10821133 11054 21083=
KIKG 172355Z AUTO 17005KT 10SM CLR 21/15 A2982 RMK AO2 T02140147
     10233 20204=
KJAS 172355Z AUTO 19007G12KT 9SM 14/12 A2982 RMK AO2=
KLAM 172355Z AUTO 26013KT 9SM CLR 06/M16 A2985 RMK AO2 T00551163
     $=
KLLN 172355Z AUTO 28025G32KT 6SM HZ CLR 15/M08 A2971 RMK AO2=
KLMO 172355Z AUTO 06006KT 10SM OVC034 00/M07 A2994 RMK AO2
     T10021070 10126 21002=
KLUV 172355Z AUTO 27020G27KT 4SM HZ SCT036 BKN045 OVC110 17/M03
     A2974 RMK AO2=
KRAS 172355Z AUTO 17013KT 10SM CLR 17/16 A2983 RMK AO2 T01740157
     10207 20173 402070095=
KSTK 172355Z AUTO 36004KT 10SM SCT026 OVC032 00/M03 A2989 RMK
     AO2=
KPMU 172350Z AUTO 17008G17KT 10SM BKN045 BKN050 OVC075 11/01 A2986
     RMK AO2=
KPNA 172355Z AUTO 28012KT 10SM SCT032 BKN065 OVC075 M06/M09 A2983
     RMK AO2=
KPOY 172355Z AUTO 34010KT 4SM -SN SCT020 SCT030 BKN070 M11/M13
     A3005 RMK AO2=
KPSO 172355Z AUTO 17008KT 10SM CLR 04/M16 A2988 RMK AO2 10048
     21005=
KPVB 172355Z AUTO 26005KT 10SM CLR 04/M03 A2952 RMK AO1 T00351026
     10101 20032=
KPVW 172355Z AUTO 36012KT 10SM CLR 12/M07 A2968 RMK AO2 T01241070
     10173 20124=
KRBO 172355Z AUTO 17009KT 10SM CLR 20/17 A2981 RMK AO2 T02030170
     10239 20203=
KRQO 172355Z AUTO 05005KT 10SM CLR 10/04 A2951 RMK AO2=
KSBS 172355Z AUTO 17005KT 10SM BKN070 OVC080 M03/M09 A2978 RMK AO1
     T10301090 11003 21096=
KSZT 172350Z AUTO 25004KT 10SM BKN050 OVC075 M01/M04 A3028 RMK
     AO2=
KT20 172355Z AUTO 00000KT 10SM CLR 14/10 A2982 RMK AO2 T01380100
     10155 20123=
KTAZ 172355Z AUTO 17018G21KT 10SM BKN075 OVC110 06/00 A2963 RMK
     AO2 T00581002 10060 20049=
KTBR 172355Z AUTO 15003KT 10SM CLR 09/00 A3010 RMK AO2 T00940000
     10162 20078=
KTIF 172355Z AUTO 35015G23KT 10SM OVC030 M03/M09 A2991 RMK AO2
     T10271087 10030 21027=
KTQK 172355Z AUTO 02021G26KT 10SM CLR 05/M07 A2979 RMK AO2
     T00461066 10142 20045 401421098=
KUKL 172350Z AUTO 36009KT 10SM CLR 04/00 A2961 RMK AO2 T00401005
     10103 20040=
KVDI 172355Z AUTO 00000KT 10SM CLR 10/01 A3009 RMK AO2=
KVES 172350Z AUTO 17012KT 10SM CLR 02/M03 A2977 RMK AO2 PNO=
KWDR 172355Z AUTO 00000KT 10SM CLR 08/M03 A3006 RMK AO2=
KWWR 172355Z AUTO 01021G29KT 10SM CLR 06/M01 A2970 RMK AO2=
KXBP 172350Z AUTO 19010KT 10SM CLR 19/02 A2958 RMK AO2 T01900022
     10199 20137=
K04V 172350Z AUTO 31007KT 10SM SCT090 02/M14 A2985 RMK AO2=
K1V6 172350Z AUTO 13012KT 10SM CLR 04/M03 A2979 RMK AO2=
K2J5 172350Z AUTO 00000KT 10SM CLR 07/00 A3009 RMK AO2 T00741002
     10163 20073 401631023=
K2V6 172354Z AUTO 36012G16KT 10SM OVC037 M01/M06 A2987 RMK AO2=
K7BM 172354Z AUTO 26010G16KT 230V290 10SM CLR M02/M14 A2978 RMK
     AO2=
KAXS 172347Z AUTO 29010KT 10SM CLR 17/M03 A2949 RMK AO2=
KCQB 172350Z AUTO 18004KT 10SM CLR 11/03 A2956 RMK AO2 T01130030
     10146 20093 401460030=
KCZT 172350Z AUTO 00000KT 10SM CLR 18/07 A2979 RMK AO2=
KEBS 172350Z AUTO 34026G32KT 10SM OVC036 02/M05 A2964 RMK AO2=
KETN 172350Z AUTO 24016G29KT 1 3/4SM HZ OVC029 19/M02 A2964 RMK
     AO2 T01911022 10210 20131 402101001=
KGBG 172355Z AUTO 20009KT 10SM SCT070 SCT120 07/01 A2956 RMK AO2
     T00650005 10120 20065=
KGGP 172355Z AUTO 17007KT 10SM CLR 02/M01 A2969 RMK AO2=
KGLW 172355Z AUTO 17005KT 10SM CLR 10/00 A2985 RMK AO2 T00961005
     10136 20096=


015 
SAUS80 KWBC 180000 RRC
METAR
KDVK 172355Z AUTO 17006KT 10SM CLR 06/M02 A2987 RMK AO2=
KTKV 172355Z 10SM OVC026 01/M05 A2941 RMK AO2 T00121047 10025
     20012 PWINO=
KY23 172355Z AUTO 30007KT 260V020 10SM OVC034 00/M06 A2952 RMK AO2
     T00011059 10033 20001=
K48I 172355Z AUTO 00000KT 10SM CLR M02/M06 A2995 RMK AO2=
KCLI 172355Z AUTO 26009KT 10SM SCT120 03/M02 A2945 RMK AO2
     T00351020 10057 20028 400571091=
KCIR 172355Z AUTO 19007KT 10SM BKN110 11/01 A2977 RMK AO2
     T01110006 10146 20111=
KCKP 172355Z AUTO 34018G25KT 10SM SCT033 BKN120 M01/M08 A2976 RMK
     AO2 PK WND 34030/31 10063 21007=
K9V9 172355Z AUTO 35020G25KT 10SM OVC027 M03/M08 A2996 RMK AO2
     T10321085 10035 21032=
K40U 172355Z AUTO 34014G26KT 10SM OVC065 01/M08 A2988 RMK AO2
     T00051082 10062 20000 400621127=
KBIH 172356Z AUTO 16007KT 10SM CLR 16/M09 A3001 RMK AO2 SLP156
     T01561089 10178 20083 55005=
KFLG 172357Z 24013G24KT 10SM FEW040 05/M05 A3003 RMK AO2 PK WND
     27026/2330 SLP146 T00501050 10067 20028 53006=
KRFI 172355Z AUTO 18006KT 10SM SCT110 14/09 A2978 RMK AO2
     T01400090 10150 20122 PWINO=
KGIC 172355Z AUTO 13003KT 10SM BKN035 BKN040 OVC047 M02/M05 A3024
     RMK AO1=
KIZA 172355Z AUTO VRB05G11KT 10SM CLR 15/06 A3015 RMK AO2=
KPSN 172355Z AUTO 18010G16KT 10SM OVC100 15/10 A2972 RMK AO2=
KMTP 172354Z AUTO 16003KT M02/M07 A3014 RMK AO1 SLP205 T10171067
     10033 21017 53013=
KLYH 172354Z 00000KT 10SM CLR 01/M06 A3008 RMK AO2 SLP191
     T00111061 10083 20006 50000=
KNUI 172353Z AUTO 14003KT 10SM CLR 02/M03 A3015 RMK AO2 SLP210
     T00171033 10061 20017 51009=
KNAK 172354Z AUTO 16005KT 10SM CLR 02/M04 A3014 RMK AO2 SLP206
     T00221044 10056 20011 51007=
KFWA 172354Z 17011KT 10SM SCT230 04/M03 A2970 RMK AO2 SLP065 4/001
     T00391028 10056 20028 56022=
KRFD 172354Z 18010KT 10SM FEW200 05/M02 A2953 RMK AO2 SLP006
     T00501022 10122 20050 53009=
KDSM 172354Z 34007KT 10SM SCT120 SCT250 05/M04 A2964 RMK AO2
     SLP043 T00501039 10100 20050 53032=
KP68 172353Z AUTO 29016KT 04/M07 A3004 RMK AO1 PK WND 29027/2328
     SLP174 T00441067 10083 20006 53005=
KSOA 172355Z AUTO 00000KT 10SM CLR A2983 RMK AO2=


017 
SASR31 WSAP 180000
METAR WSAP 180000Z 34005KT 9999
FEW016 BKN150
26/23 Q1010=

019 
SPUS70 KWBC 180002
SPECI
KBHK 172358Z AUTO 33019G24KT 3SM -SN BR OVC021 M11/M13 A3013 RMK
     AO2 P0000 T11111133=
KSJT 172358Z 26021G31KT 3SM BLDU CLR 19/M04 A2974 RMK AO2 PK WND
     26030/2353 T01941039=
KAPA 172359Z 02013G22KT 5SM -SN BR OVC013 M03/M06 A2986 RMK AO2
     SNB58 P0000 T10281056=
KFMY 172359Z 08005KT 4SM -RA BR FEW008 BKN045 OVC050 17/16 A3005
     RMK AO2 P0000 T01720161=
KLAR 172359Z AUTO 06012KT 1SM -SN BR VV009 M08/M11 A2980 RMK AO2
     P0000 T10831106=


021 
SAUS80 KWBC 180000 CCA
METAR
KMHS 172356Z AUTO 00000KT 10SM CLR 10/01 A3016 RMK AO2 SLP239
     T01000006 10111 20039 55003 PNO=
K2WX 172356Z AUTO 33022KT M11/M14 A3005 RMK AO1 PK WND 34031/2337
     SLP219 T11061144 11061 21106 51030=
K2WX 172356Z AUTO 33022KT M11/M14 A3005 RMK AO1 PK WND 34031/2337
     SLP219 T11061144 11061 21106 51030=


022 
SAXX60 KWBC 180000 RRB
METAR
PASY 172355Z 34017G23KT 7SM SCT011 BKN030 OVC250 02/01 A2935 RMK
     AO2A SHSNB35E46 SLP940 ALSTG/SLP ESTMD WND DATA ESTMD 60002
     T00170004 10024 20013 51017 PNO FZRANO $=
PKWA 180000Z AUTO 08018G22KT 10SM CLR 30/23 A2984 RMK AO2
     T03030227=
PWAK 172355Z AUTO 11010KT 9SM FEW027 30/23 A2998 RMK AO2 SLP155
     60000 T03010228 10301 20253 58001=
PWAK 172355Z AUTO 11010KT 9SM FEW027 30/23 A2998 RMK AO2 SLP155
     60000 T03010228 10301 20253 58001=
PKWA 180000Z AUTO 08018G22KT 10SM CLR 30/23 A2984 RMK AO2
     T03030227=
KAFF 172355Z AUTO 36004KT 10SM OVC025 00/M06 A2979 RMK AO2 SLP086
     T00031059 10121 20003 52026=
KBLV 172355Z 17011KT 10SM OVC100 09/M02 A2965 RMK AO2A SLP047
     60000 T00851016 10092 20071 55003=
KCEF 172355Z 00000KT 10SM SCT055 M03/M07 A3007 RMK AO2A SLP190
     T10271067 10030 21028 52015=
KEDW 172355Z 29020G24KT 50SM CLR 17/M14 A3003 RMK AO2A PK WND
     29027/27 SLP167 T01651141 10195 20146 55003=
KFAF 172355Z 14006KT 10SM CLR 02/M05 A3013 RMK AO2A SLP207
     T00201052 10085 20020 50008 $=
KIAB 172355Z 36016KT 10SM SCT170 04/M02 A2960 RMK AO2A SLP032
     T00411021 10116 20040 4/000 52034=
KMCF 172355Z 08007KT 10SM SCT055 16/13 A3005 RMK AO2A SLP176 ALSTG
     ESTMD T01560133 53001 FZRANO $=
KMGE 172355Z 13004KT 10SM BKN150 OVC250 11/M06 A2999 RMK AO2A
     SLP162 T01121057 10161 20112 53001 $=
KMIB 172355Z 34013KT 10SM FEW025 M13/M17 A3007 RMK AO2A SLP217
     60000 T11301170 11085 21131 52029 $=
KMTC 172356Z 17014KT 10SM BKN140 02/M03 A2969 RMK AO2A SLP065
     T00171026 10028 20015 57014 $=
KNJK 172356Z 06006KT 10SM CLR 22/M03 A3005 RMK AO2 SLP191
     T02221028 10228 20178 55006 $=
KNJK 172356Z 06006KT 10SM CLR 22/M03 A3005 RMK AO2 SLP191
     T02221028 10228 20178 55006 $=
KNRS 172353Z 21006KT 10SM CLR A3018 RMK AO2 SLP221 56011 $=
KNHK 172352Z 16007KT 10SM CLR 03/M05 A3016 RMK AO2 SLP212
     T00331050 10067 20033 51008 $=
KOFF 172355Z 35017G25KT 10SM BKN120 BKN250 05/M06 A2972 RMK AO2A
     PK WND 34032/20 SLP077 T00491058 10106 20049 52046 $=
KOZR 172355Z AUTO 00000KT 10SM BKN180 OVC220 13/02 A3001 RMK AO2
     SLP165 T01290019 10187 20129 55008 $=
KPOE 172355Z 15017G22KT 8SM FEW100 SCT120 OVC150 14/08 A2975 RMK
     AO2A PRESFR SLP078 60000 T01370079 10150 20117 57053=
KPSM 172355Z 17005KT 10SM FEW050 SCT100 M02/M09 A3006 RMK AO2A
     SLP183 T10191086 10023 21023 51012=
KRDR 172355Z 36019G26KT 10SM FEW020 FEW028 SCT036 M10/M15 A2998
     RMK AO2A PK WND 34030/2256 SLP172 60000 T10981155 11060 21098
     52052 $=
KSLI 172355Z 00000KT 10SM FEW030 15/07 A3012 RMK AO2A SLP203
     T01540069 10173 20144 57013=
PHSF 172355Z AUTO 27012G18KT 10SM FEW013 18/11 A3022 RMK AO2
     SLP136 T01790107 10196 20088 57024 $=
KNIP 172353Z 11005KT 10SM FEW250 11/06 A3011 RMK AO2 SLP193
     T01110056 10178 20111 53004=
KNUW 172353Z 33010KT 10SM SCT030 SCT050 06/01 A3047 RMK AO2 SLP322
     T00610011 10072 20044 55001 $=
KMGE 172355Z 13004KT 10SM BKN150 OVC250 11/M06 A2999 RMK AO2A
     SLP162 T01121057 10161 20112 53001 $=
KNFW 172352Z 18012KT 10SM FEW250 16/06 A2961 RMK AO2 SLP013
     T01610056 10189 20128 56015 $=
KNRB 172352Z AUTO 15003KT 10SM CLR 13/08 A3011 RMK AO2 SLP196
     T01280078 10161 20122 55000=
MUGM 172351Z 05009KT 10SM FEW030 FEW060 27/22 A3006 RMK AO2 SLP178
     T02670222 10300 20267 53012 $=
KNFW 172352Z 18012KT 10SM FEW250 16/06 A2961 RMK AO2 SLP013
     T01610056 10189 20128 56015 $=
KOZR 172355Z AUTO 00000KT 10SM BKN180 OVC220 13/02 A3001 RMK AO2
     SLP165 T01290019 10187 20129 55008 $=


023 
SAUS70 KWBC 180000 RRU
METAR
KSLE 172356Z 04004KT 6SM BR BKN015 04/01 A3041 RMK AO2 SLP297
     T00440011 10050 20017 55004=
KSRR 172355Z AUTO 29014G25KT 10SM CLR 06/M07 A2989 RMK AO2=
KUKI 172356Z AUTO 23004KT 10SM CLR 16/05 A3015 RMK AO2 SLP210
     T01610050 10172 20061 55009=
KCSB 172355Z AUTO 36023G32KT 10SM OVC075 03/M06 A2981 RMK AO2=
KFEP 172355Z AUTO 24006KT 10SM CLR 06/M02 A2952 RMK AO2 T00571021
     10121 20057=
KFFL 172355Z AUTO 31007KT 10SM BKN050 BKN055 03/M02 A2957 RMK
     A01=
KFXY 172355Z AUTO 31023G30KT 10SM SCT029 OVC120 00/M06 A2965 RMK
     AO2=
KHMZ 172355Z AUTO 00000KT 10SM CLR M03/M07 A3000 RMK AO2 T10321075
     10027 21032=
KI75 172355Z AUTO 32004KT 7SM CLR 04/M01 A2962 RMK AO2 T00381011
     10115 20037=
KIKV 172355Z AUTO 35006KT 10SM CLR 04/M03 A2965 RMK AO2=
KLCK 172355Z AUTO 15004KT 10SM CLR 02/M04 A2987 RMK AO2 T00191040
     10040 20017=
KLNL 172355Z AUTO 27008KT 10SM SCT037 OVC043 02/M05 A2936 RMK AO2
     60008 T00151052 10037 20015=
KMDZ 172355Z AUTO 26006KT 10SM OVC037 00/M03 A2942 RMK AO2
     T00031035 10013 20003 PWINO=
KMUT 172355Z AUTO 30008KT 10SM CLR 06/M01 A2956 RMK AO2=
KOCQ 172355Z AUTO 23009KT 10SM 04/M02 A2940 RMK AO1 T00401023
     10049 20038=
KOGA 172355Z AUTO 36021G32KT 10SM SCT032 SCT080 OVC100 00/M07
     A2988 RMK AO2 T10051071 10074 21005=
KOLZ 172355Z AUTO 32013KT 10SM SCT034 BKN120 OVC140 03/M02 A2959
     RMK A01=
KPRG 172355Z 18014KT 10SM SCT120 04/M01 RMK AO2 T00371007 10046
     20034=
KRPJ 172355Z AUTO 20009KT 10SM CLR 03/M02 A2954 RMK AO2 T00271025
     10106 20026=
KDKB 172355Z AUTO 20013KT 10SM CLR 03/00 A2954 RMK AO2 T00321005
     10088 20032=
KDNS 172355Z AUTO 34015G28KT 10SM OVC090 01/M06 A2974 RMK AO2=
KFOA 172355Z AUTO 17011KT 10SM SCT075 OVC090 06/M01 A2971 RMK
     AO2=
KHPT 172355Z AUTO 32018G28KT 10SM BKN035 OVC110 00/M05 A2963 RMK
     AO2=
KHSB 172355Z AUTO 20006KT 10SM SCT095 OVC110 09/00 A2976 RMK AO2
     T00930001 10118 20093=
KIGQ 172355Z AUTO 20015G22KT 10SM BKN070 05/M02 A2959 RMK AO2
     T00451020 10061 20042=
KJYR 172355Z AUTO 35017G27KT 10SM BKN035 OVC110 03/M03 A2976 RMK
     AO2=
KLNN 172355Z AUTO 19010G20KT 10SM CLR 03/M07 A2981 RMK AO1
     T00281070 10040 20027=
KMPZ 172355Z AUTO 24007KT 10SM CLR 04/M01 A2956 RMK AO2=
KMWO 172355Z AUTO 18009KT 10SM CLR 05/M02 A2984 RMK AO2=
KMXO 172355Z AUTO 28006KT 10SM CLR 03/M02 A2953 RMK AO2=
KOGS 172355Z AUTO 19007KT 10SM FEW027 BKN038 OVC120 M00/M04 A2989
     RMK AO2=
KOOA 172355Z AUTO 33009KT 10SM CLR 04/00 A2959 RMK AO2 T00400000
     10125 20040=
KRNH 172355Z AUTO 30017G24KT 10SM OVC036 M01/M06 A2957 RMK AO2
     T10071059 10026 21007=
KSHL 172355Z AUTO 34024G31KT 10SM FEW031 BKN110 M02/M09 A2975 RMK
     AO2=
KSUW 172355Z AUTO 31012G31KT 10SM OVC036 M02/M09 A2957 RMK AO2
     T10171089 10046 21017=
KSXK 172355Z AUTO 34026G32KT 10SM SCT030 BKN110 M02/M08 A2976 RMK
     AO2=
K5SM 172355Z AUTO 10SM OVC025 M08/M13 A2985 RMK AO2=
KDKR 172355Z AUTO 16004KT 10SM 14/13 A2978 RMK AO2=
KDVO 172355Z AUTO 28005KT 10SM CLR 13/07 A3020 RMK AO2=
KDZB 172355Z AUTO 19007G15KT 10SM CLR 17/08 A2977 RMK AO2
     T01650080 10199 20147=
KE42 172355Z AUTO 36018G24KT 10SM CLR 11/M04 A2969 RMK AO2
     T01091036 10158 20107 401580020=
KE57 172355Z AUTO 29023G28KT 10SM FEW090 15/M07 A2976 RMK AO2=
KELA 172355Z AUTO 23004KT 10SM BKN027 16/13 A2982 RMK AO2
     T01550133 10160 20135=
KFMM 172355Z AUTO 01015KT 10SM SCT033 BKN042 OVC070 M01/M06 A2991
     RMK AO2=
KGOP 172355Z AUTO 18011G17KT 10SM CLR 17/09 A2971 RMK AO2 LTG DSNT
     NE AND SE=
KHII 172355Z AUTO 15005KT 10SM CLR 19/M07 A3002 RMK AO2=


024 
SAUS70 KWBC 180000 RRT
METAR
KCCY 172355Z AUTO 32019G30KT 10SM BKN033 OVC100 01/M05 A2961 RMK
     AO2=
KLXN 172355Z AUTO 36025G32KT 10SM OVC085 02/M06 A2984 RMK AO2
     T00151064 10098 20015=
KPNT 172355Z 10SM BKN055 04/00 A2959 RMK AO2 T00401005 10062
     20036=
KPPO 172355Z AUTO 18010KT 10SM SCT042 03/00 A2961 RMK AO2 10056
     20028=
KPPQ 172355Z AUTO 18003KT 10SM OVC060 08/M01 A2959 RMK AO2
     T00771015 10094 20074=
KRDK 172355Z AUTO 34014KT 10SM CLR 04/M04 A2970 RMK AO2=
KSDA 172355Z AUTO 36012G18KT 10SM CLR 05/M04 A2969 RMK AO2=
K6P9 172355Z AUTO 25012G20KT 2 1/2SM HZ OVC030 20/M02 A2965 RMK
     AO2 T01961018 10215 20135=
K6R3 172355Z AUTO 19003KT 10SM OVC028 16/11 A2983 RMK AO2
     T01580114 10165 20146=
K74V 172355Z AUTO 28017G24KT 10SM CLR 05/M10 A2984 RMK AO2=
KA39 172355Z AUTO 29008KT 10SM CLR 18/M06 A3009 RMK AO2=
KAJZ 172355Z AUTO 21005KT 10SM CLR 04/M11 A2988 RMK AO2 T00411112
     10060 21017=
KANK 172355Z AUTO 23018G25KT 10SM 01/M14 A2977 RMK AO2 T00141143
     $=
KAQO 172355Z AUTO 19014KT 10SM CLR 18/07 A2973 RMK AO2=
KAUN 172355Z AUTO 20005KT 10SM CLR 12/01 A3018 RMK A01=
KAXX 172355Z AUTO 26008G16KT 220V280 10SM CLR 00/M15 A2986 RMK AO2
     T00011154 10027 20001=
KBBD 172355Z AUTO 24012KT 10SM FEW046 20/01 A2972 RMK AO2=
KBMC 172355Z AUTO 31011G16KT 10SM SCT049 BKN060 OVC070 02/M07
     A3002 RMK AO1 T00161069 10131 21081=
KBMT 172355Z AUTO 15008KT 10SM CLR 15/12 A2982 RMK AO2 T01520115
     10167 20146=
KBPG 172355Z AUTO 25024G31KT 1 1/2SM HZ OVC026 18/M04 A2975 RMK
     AO2 T01751036 10195 20173 401950063=
KBVS 172355Z AUTO 32007KT 10SM BKN028 05/02 A3047 RMK A01=
KCOM 172355Z AUTO 26020G29KT 2SM OVC024 20/M04 A2971 RMK AO2
     T02001045 10215 20145 PWINO=
KOZA 172355Z AUTO 32010KT 5SM HZ CLR 18/M02 A2982 RMK AO2=
KPEQ 172355Z AUTO 27023G30KT 7SM SCT050 17/M07 A2986 RMK AO2
     T01701074 10191 20170=
KPEZ 172355Z AUTO 00000KT 10SM CLR 15/09 A2985 RMK AO2 T01530093
     10178 20146=
K57C 172355Z AUTO 21006KT 10SM CLR 06/M02 A2948 RMK AO2 T00621020
     10110 20062=
KAAA 172355Z AUTO 18012KT 10SM OVC060 06/00 A2961 RMK AO2
     T00560000 10066 20046=
KAIG 172355Z AUTO 25012G16KT 10SM SCT024 OVC033 00/M03 A2940 RMK
     AO2 T00011027 10015 20000=
KAIO 172355Z AUTO 34011KT 10SM SCT038 BKN120 03/M03 A2968 RMK
     AO2=
KARV 172355Z AUTO 30009G16KT 10SM BKN037 OVC043 01/M05 A2936 RMK
     AO2 T00071050 10021 20007=
KAWG 172355Z AUTO 31008KT 10SM CLR 04/M02 A2956 RMK AO2=
KBCK 172355Z AUTO 26006KT 10SM OVC036 03/M02 A2950 RMK AO2
     T00251020 10040 20025=
KBUU 172355Z AUTO 19008KT 10SM CLR 05/M01 A2950 RMK AO2 T00451010
     10110 20045 PWINO=
KBVN 172355Z AUTO 34023G32KT 10SM BKN029 OVC100 00/M07 A2983 RMK
     AO2 T10041075 10079 21004=
KC75 172355Z AUTO 20010G14KT 10SM BKN055 OVC110 06/M02 A2957 RMK
     AO2 T00601021 10102 20060=
KCAV 172355Z AUTO 33021G36KT 10SM SCT038 OVC100 00/M06 A2967 RMK
     A01=
KCIN 172355Z AUTO 33022G28KT 10SM FEW036 OVC090 02/M05 A2968 RMK
     AO2=
KPMV 172355Z AUTO 34016G24KT 10SM CLR 04/M05 A2972 RMK AO2
     T00421051 10096 20042=
K0CO 172355Z AUTO 34008KT M1/4SM +SN OVC001 M13/M15 A2976 RMK
     AO2=
K2R9 172355Z AUTO 23004KT 10SM CLR 19/13 A2983 RMK AO2 T01900134
     10203 20184 402030068=
K4V0 172355Z AUTO 24004KT 10SM 03/M09 A2983 RMK AO2 T00291092
     10052 21050 PWINO=
KEKO 172356Z AUTO 36009KT 10SM OVC045 03/M07 A3008 RMK AO2 SLP213
     T00281067 10067 20022 53010=
KLAS 172356Z 09005KT 10SM CLR 16/M12 A3000 RMK AO2 SLP157
     T01561117 10156 20089 55010=
KPAN 172355Z AUTO 25006KT 230V290 10SM BKN045 BKN055 08/M04 A3007
     RMK AO2 10086 20037=


025 
SAXX60 KWBC 180000 RRC
METAR
KPSM 172355Z 17005KT 10SM FEW050 SCT100 M02/M09 A3006 RMK AO2A
     SLP183 T10191086 10023 21023 51012=
KRDR 172355Z 36019G26KT 10SM FEW020 FEW028 SCT036 M10/M15 A2998
     RMK AO2A PK WND 34030/2256 SLP172 60000 T10981155 11060 21098
     52052 $=
KAFF 172355Z AUTO 36004KT 10SM OVC025 00/M06 A2979 RMK AO2 SLP086
     T00031059 10121 20003 52026=
KCEF 172355Z 00000KT 10SM SCT055 M03/M07 A3007 RMK AO2A SLP190
     T10271067 10030 21028 52015=
KFAF 172355Z 14006KT 10SM CLR 02/M05 A3013 RMK AO2A SLP207
     T00201052 10085 20020 50008 $=
KMCF 172355Z 08007KT 10SM SCT055 16/13 A3005 RMK AO2A SLP176 ALSTG
     ESTMD T01560133 53001 FZRANO $=
PHSF 172355Z AUTO 27012G18KT 10SM FEW013 18/11 A3022 RMK AO2
     SLP136 T01790107 10196 20088 57024 $=


026 
SAXX60 KWBC 180000 CCB
METAR
EQYR 172357Z AUTO 05004KT CLR 06/03 A3030 RMK AO2 SLP261 T00610033
     10111 20056 55000 $=
EQYR 172357Z AUTO 05004KT CLR 06/03 A3030 RMK AO2 SLP261 T00610033
     10111 20056 55000 $=
KNYG 172356Z AUTO 18004KT 10SM CLR 03/ A3014 RMK AO2 SLP207 T0033
     10067 20033 53003 $=


027 
SAUS70 KWBC 180000 RRV
METAR
KORG 172355Z AUTO 14004KT 10SM BKN036 14/10 A2985 RMK AO2
     T01400103 10159 20140 PWINO=
KPPA 172355Z AUTO 36016G22KT 10SM CLR 12/M01 A2966 RMK AO2
     T01201015 10177 20120=
KRCV 172355Z AUTO 00000KT 10SM BKN100 02/M13 A2981 RMK AO2
     T00221133 10056 20022=
KSWW 172355Z AUTO 25018G26KT 2 1/2SM 19/M02 A2970 RMK AO2
     T01891025 10210 20150=
KDKB 172355Z AUTO 20013KT 10SM CLR 03/00 A2954 RMK AO2 T00321005
     10088 20032=
KDUX 172355Z AUTO 36011KT 10SM CLR 10/M07 A2971 RMK AO2 T00971068
     10145 20097=
KE11 172355Z AUTO 27019G27KT 7SM BKN027 OVC033 16/M04 A2979 RMK
     AO2 T01561045 10185 20156=
KE41 172355Z AUTO 29025G32KT 1SM HZ OVC026 18/M09 A2981 RMK AO2
     VIS 1/2V2 1/2 T01761086 10204 20151 402040081=
KEBG 172355Z AUTO 15007KT 10SM CLR 21/15 A2983 RMK AO2 10246
     20201=
KECU 172355Z AUTO 18009KT 140V200 10SM CLR 16/05 A2984 RMK AO2=
KEIK 172355Z AUTO 05009KT 1 3/4SM UP OVC042 M03/M06 A2991 RMK AO2
     P0000 T10281061=
KLSB 172355Z AUTO 29017KT 10SM CLR 11/M08 A3003 RMK AO2=
KMDD 172355Z AUTO 26021G29KT 4SM HZ OVC038 17/M04 A2979 RMK AO2
     T01671041 10190 20167 401900070=
KRYW 172355Z AUTO 20004KT 10SM CLR 15/10 A2982 RMK AO2 T01450095
     10156 20130=
KSEZ 172355Z AUTO 18010KT 150V220 10SM FEW055 SCT065 10/M02 A3004
     RMK AO2=
KSLR 172355Z AUTO 17008KT 10SM CLR 13/07 A2970 RMK AO2 T01280065
     10152 20116=
KSVC 172355Z AUTO 27020G24KT 10SM CLR 08/M08 A3001 RMK AO2
     T00831085 10103 20083=
KCSQ 172355Z AUTO 34011KT 10SM CLR 04/M03 A2964 RMK AO2=
KDEH 172355Z AUTO 30008G17KT 10SM SCT075 OVC090 02/M04 A2954 RMK
     AO2=
KDNV 172355Z AUTO 18014G17KT 10SM CLR 05/00 A2965 RMK AO2
     T00501003 10067 20048=
KFET 172355Z AUTO 33020G25KT 10SM CLR 02/M07 A2977 RMK AO2
     T00191070 10092 20019=
KFKR 172355Z AUTO 18007G16KT 10SM FEW033 SCT042 05/01 A2968 RMK
     AO2=
KGGF 172355Z AUTO 01022G28KT 10SM BKN028 BKN048 BKN070 M01/M06
     A2986 RMK AO2=
KGPC 172355Z AUTO 17009KT 10SM CLR 04/M01 A2971 RMK AO2 T00371011
     10085 20036 400851069=
KHNR 172355Z AUTO 33017G22KT 10SM FEW039 02/M03 A2970 RMK A01=
KI74 172355Z AUTO 18009KT 10SM CLR 01/M03 A2982 RMK AO2=
KIIB 172355Z AUTO 32013G21KT 10SM CLR 03/M03 A2961 RMK AO2
     T00331032 10088 20032 400881078=
KMZZ 172355Z AUTO 17017G22KT 10SM CLR 03/M03 A2971 RMK AO2
     T00311027 10147 21200=
KOEO 172355Z AUTO 32019G31KT 10SM OVC035 00/M07 A2961 RMK AO2
     T10041075 10035 21004 PWINO=
KONL 172355Z AUTO 34022G33KT 10SM OVC027 M03/M08 A2990 RMK AO2
     T10291077 10030 21029=
KRCR 172355Z AUTO 17009KT 10SM CLR 03/M02 A2966 RMK AO2=
KRYV 172355Z AUTO 00000KT 10SM CLR 02/M05 A2947 RMK AO2 T00151049
     10097 20015=
KRZN 172355Z AUTO 32013G21KT 10SM BKN039 BKN050 M01/M07 A2957 RMK
     AO2 60001 T10121075 10028 21012=
KSLB 172355Z AUTO 34020G31KT 10SM BKN033 OVC110 M01/M07 A2973 RMK
     AO2=
KVCB 172353Z AUTO 22006KT 10SM CLR 15/07 A3018 RMK AO2 SLP220
     T01500067 10161 20094 55007=
KLNK 172354Z 36023G34KT 10SM OVC120 04/M04 A2975 RMK AO2 PK WND
     01035/2324 SLP084 T00441044 10117 20044 51046=
KPNE 172354Z 00000KT 10SM CLR 01/M07 A3014 RMK AO2 SLP208
     T00061072 10072 20000 51014=
KGOV 172355Z AUTO 22006G15KT 10SM OVC120 04/M03 A2943 RMK AO2
     SLP984 T00371031 10038 21006 55008 $=
KNFE 172356Z AUTO 13003KT 10SM CLR 01/M07 A3019 RMK AO2 SLP225
     T00061072 10089 20006 51008=
KE38 172355Z 10SM CLR 15/M06 A2998 RMK AO2 T01461060 10176
     20146=
KGNB 172355Z AUTO 20006KT 4SM -SN SCT021 SCT026 OVC032 M03/M07
     A2983 RMK AO2 T10351073 11024 21141=


028 
SAUS70 KWBC 180000 RRS
METAR
KT74 172355Z AUTO 19007KT 10SM CLR 14/09 A2978 RMK AO2 T01440091
     10161 20123 401610025=
KTIP 172355Z AUTO 18011KT 10SM BKN075 02/00 A2964 RMK AO2
     T00241003 10051 20022=
KTMK 172355Z AUTO 30007KT 10SM CLR 08/03 A3039 RMK AO2=
KTNB 172355Z AUTO 00000KT 10SM CLR 01/M06 A2986 RMK AO2 T00141059
     10085 20008=
KTNU 172355Z AUTO 34011KT 10SM CLR 03/M03 A2962 RMK A01=
KTOC 172355Z AUTO 00000KT 10SM CLR 08/M03 A3006 RMK AO2 T00761029
     10139 20075 401391015=
KTVI 172355Z AUTO 00000KT 10SM CLR 10/05 A3008 RMK AO2=
KTVK 172355Z AUTO 31005G12KT 10SM CLR 03/M04 A2960 RMK AO2=
KTXW 172355Z AUTO 16008KT 10SM CLR 22/15 A2985 RMK AO2 T02180154
     10245 20208 402450085=
KTYQ 172355Z AUTO 17014G18KT 10SM CLR 03/M01 A2971 RMK AO2
     T00331013 10053 20030=
KUBE 172355Z AUTO 32024G29KT 10SM -SN OVC033 00/M05 A2952 RMK
     AO2=
KUNI 172355Z AUTO 00000KT 10SM CLR 00/M04 A2991 RMK AO2 T00001044
     10068 20000 TSNO=
KVHN 172355Z AUTO 27017G26KT 7SM HZ BKN037 OVC047 14/M09 A2998 RMK
     AO2 T01421088 10160 20139 401600077=
KVKS 172355Z AUTO 15010KT 9SM FEW028 SCT037 BKN075 11/05 A2985 RMK
     A01=
KVPC 172355Z AUTO 00000KT CLR 11/M07 A3002 RMK AO2 PWINO=
KVVS 172355Z AUTO 16003KT 10SM CLR M02/M06 A2995 RMK AO2 T10181062
     10035 21020 400351025 60010=
KVYS 172355Z AUTO 20011KT 10SM BKN110 05/00 A2956 RMK AO2
     T00471002=
KW22 172355Z AUTO 14004KT CLR 01/M06 A2995 RMK AO2=
KX26 172355Z AUTO 01004KT 10SM OVC029 17/12 A3010 RMK AO2
     T01660123 10195 20164 401950126=
KXLL 172355Z AUTO 00000KT 10SM CLR 00/M05 A3010 RMK AO2=
KZER 172355Z AUTO 16006KT 10SM CLR M01/M06 A3001 RMK AO2=
KZPH 172355Z AUTO 00000KT 10SM SCT036 SCT090 14/07 A3010 RMK A02
     T01360074 10210 20134 402100103=
K2G9 172355Z AUTO 19003KT 10SM CLR M01/M07 A2994 RMK AO2=
K2P2 172355Z AUTO 21005KT 10SM OVC100 02/01 A2938 RMK AO2
     T00220007 10025 20021=
K4R5 172355Z AUTO 29016G23KT 10SM OVC030 00/M05 A2945 RMK AO2
     T00001055=
KADU 172355Z AUTO 33013G19KT 10SM SCT049 SCT070 03/M03 A2969 RMK
     AO2=
KAHQ 172355Z AUTO 34021G32KT 10SM SCT041 SCT120 03/M04 A2976 RMK
     AO2 T00271045 10100 20027=
KAXA 172355Z AUTO 34020G28KT 10SM BKN031 OVC120 M01/M06 A2967 RMK
     A01=
KC09 172355Z AUTO 20006KT 10SM SCT110 03/00 A2958 RMK AO2
     T00320000 10079 20032=
KC65 172355Z AUTO 17009KT 10SM CLR 02/M01 A2963 RMK A01=
KCNC 172355Z AUTO 34010KT CLR 04/M01 A2961 RMK AO2=
KGHW 172355Z AUTO 31017G33KT 10SM SCT017 M09/M13 A2977 RMK AO2=
KI23 172355Z AUTO 13005KT 10SM CLR M00/M04 A2985 RMK AO1=
KIMS 172355Z AUTO 12005KT 10SM CLR 05/00 A2982 RMK AO2=
KLWA 172355Z AUTO 20012G20KT 10SM CLR 06/M04 A2957 RMK AO2
     T00571041 10063 20037=
KMSP 172353Z COR 31023G36KT 10SM BKN038 M03/M09 A2963 RMK AO2 PK
     WND 31036/2347 SLP043 4/001 T10281089 10033 21028 53046=
KPEA 172355Z AUTO 33012KT 10SM CLR 04/M02 A2962 RMK AO2 T00401022
     10111 20038 401111035=
KVWU 172355Z AUTO 34014G22KT 7SM SCT012 SCT027 OVC037 M08/M14
     A2977 RMK AO2=
K82C 172355Z AUTO 28008KT 10SM OVC110 04/M03 A2948 RMK AO2
     T00431030 10093 20043=
KAFK 172355Z AUTO 02021G29KT 10SM CLR 04/M04 A2970 RMK AO2
     T00431045 10100 20043=
KANW 172355Z AUTO 35018G25KT 10SM OVC024 M03/M08 A2993 RMK AO2
     T10351084 10028 21035=
KAUH 172355Z AUTO 35020KT 10SM BKN033 OVC110 02/M04 A2979 RMK AO2
     T00211040 10087 20021=
KBIE 172355Z AUTO 01019G26KT 10SM CLR 04/M04 A2973 RMK AO2
     T00401038 10101 20040=
KBNW 172355Z AUTO 32015KT 10SM SCT110 04/M03 A2963 RMK AO2=
KC35 172355Z AUTO 25006KT 10SM SCT080 OVC090 06/M02 A2948 RMK AO2
     T00551018 10088 20055 PWINO=


560 
SAHW40 PHFO 180002 COR
MTRNGF
METAR PHNG 172357Z AUTO 36006KT 10SM SCT030 OVC037 A2990 RMK AO2 
SLP122 60001 56024 $


666 
SACZ31 LKPW 180000
METAR LKKV 180000Z 07004KT 040V110 3300 BR OVC003 M03/M04 Q1034=
METAR LKMT 180000Z 23014KT 9999 OVC010 00/M01 Q1037 NOSIG=
METAR LKPR 180000Z 07003KT 020V130 6000 FEW003 OVC004 M00/M01 Q1036
NOSIG=
METAR LKTB 180000Z 13003KT 030V150 9999 OVC009 01/M02 Q1038 NOSIG=


667 
SAFR21 LFPW 180000
METAR LFPV 180000Z AUTO 07005KT 0700 0650 R27/0750N R09/1000U FZFG
VV/// M01/M01 Q1032 TEMPO 0300 FZFG=
METAR LFOA 180000Z NIL=


668 
SAFR33 LFPW 180000
METAR LFCR 180000Z AUTO 14001KT CAVOK M04/M05 Q1027 NOSIG=
METAR LFJL 180000Z AUTO 07009KT 7000 OVC008 00/M01 Q1032 TEMPO
0500 FZFG VV///=
METAR LFKC 180000Z AUTO VRB04KT CAVOK 09/04 Q1024=
METAR LFKF 180000Z AUTO 05013KT CAVOK 10/03 Q1021=
METAR LFKJ 180000Z AUTO 14002KT 9999 FEW088 BKN160 OVC200 10/05
Q1021 NOSIG=
METAR LFLC 180000Z AUTO VRB02KT 5000 BR OVC013 01/M01 Q1029 TEMPO
OVC007=
METAR LFLS 180000Z AUTO VRB02KT 2700 1000 R09/P2400 R27/1200D BR
OVC002 M02/M02 Q1029=
METAR LFMP 180000Z AUTO 28006KT 230V320 CAVOK 07/M03 Q1027=
METAR LFSL 180000Z AUTO 00000KT CAVOK M03/M04 Q1028=
METAR LFMV 180000Z NIL=


669 
SAFR31 LFPW 180000
METAR LFBD 180000Z AUTO 26002KT 4600 0600 R23/P2300 R05/0900U
R29/P2300 BCFG NSC M02/M02 Q1030 TEMPO 1500 MIFG=
METAR LFBH 180000Z AUTO 05004KT 6000 NSC 02/01 Q1031 BECMG 4000 BR
OVC003=
METAR LFLL 180000Z 34003KT 320V020 1300 R35L/1500D R17R/P2000
R35R/1200D R17L/1800U BR OVC001 M02/M02 Q1031 TEMPO VV///=
METAR LFMN 180000Z 33010KT CAVOK 07/M03 Q1026 NOSIG=
METAR LFPG 180000Z AUTO 07006KT 4300 BR OVC003 M01/M01 Q1033=
METAR LFPO 180000Z AUTO 06006KT 030V090 4100 BR OVC003 M00/M01
Q1033 TEMPO 0800 FG BKN001=
METAR LFQQ 180000Z AUTO VRB03KT 1300 1100 R26/1300D R08/2000N BR
VV/// 00/00 Q1034 TEMPO 0200 FZFG=
METAR LFRB 180000Z AUTO 14005KT 7000 NSC 02/02 Q1031 BECMG 4000 BR=
METAR LFRS 180000Z AUTO 03003KT 4300 BR NSC M01/M02 Q1032 BECMG
2000 BR OVC002=


670 
SAFR32 LFPW 180000
METAR LFBI 180000Z AUTO 02007KT 0400 R21/0450N FZFG VV/// M01/M01
Q1031 TEMPO 0300 FZFG=
METAR LFBL 180000Z AUTO 02006KT CAVOK 01/M01 Q1028 TEMPO 2000 BR=
METAR LFBO 180000Z AUTO 18004KT 5000 BR NSC M01/M01 Q1029 TEMPO
2000 BR=
METAR LFBP 180000Z AUTO VRB02KT 5000 BR NSC M00/M01 Q1029 NOSIG=
METAR LFBZ 180000Z AUTO 08005KT CAVOK 02/02 Q1029 TEMPO 0500 FG
VV///=
METAR LFKB 180000Z AUTO 30006KT 280V340 9999 // FEW031 SCT190
08/03 Q1025=
METAR LFLB 180000Z AUTO VRB02KT 5000 BR FEW006 OVC022 01/M00 Q1031=
METAR LFML 180000Z AUTO 14003KT 9000 NSC 01/M02 Q1026 NOSIG=
METAR LFBT 180000Z NIL=


671 
SAFR23 LFPW 180000
METAR LFOE 180000Z AUTO 05006KT 020V080 0800 0600 R22/1000U FZFG
VV/// M01/M01 Q1033 NOSIG=
METAR LFRL 180000Z AUTO 11004KT CAVOK 03/02 Q1031=
METAR LFOC 180000Z NIL=
METAR LFOJ 180000Z NIL=
METAR LFRJ 180000Z NIL=


672 
SAFR24 LFPW 180000
METAR LFSI 180000Z AUTO 07006KT 040V100 9999 OVC012 01/M01 Q1032=
METAR LFSO 180000Z AUTO 06010KT 040V100 9000 OVC010 00/M02 Q1031=
METAR LFSX 180000Z AUTO VRB02KT 4600 BR OVC021 M01/M01 Q1031=
METAR LFYR 180000Z AUTO 05006KT 010V080 3800 BR OVC003 M01/M01
Q1032=


673 
SAFR22 LFPW 180000
METAR LFBC 180000Z AUTO 05002KT 9000 NSC M02/M03 Q1030=
METAR LFBG 180000Z AUTO VRB02KT 7000 NSC 00/M00 Q1031=
METAR LFBM 180000Z AUTO 09002KT CAVOK M02/M02 Q1030 TEMPO 0650 FG
VV///=
METAR LFBY 180000Z AUTO 05003KT 010V070 7000 // ////// 02/01 Q1030=
METAR LFMO 180000Z AUTO 32004KT 310V020 CAVOK 01/M02 Q1028 NOSIG=
METAR LFKS 180000Z NIL=
METAR LFMC 180000Z NIL=
METAR LFMY 180000Z NIL=


675 
SAPL32 EPWA 180000
METAR EPBY 180000Z 25006KT 4200 BR BKN003 00/M00 Q1033=
METAR EPKT 180000Z 20004KT 150V220 2400 BR NSC M01/M02 Q1036 =
METAR EPLB 180000Z 28013KT 8000 NSC 02/01 Q1032 =
METAR EPMO 180000Z 23008KT 210V270 2000 BR OVC002 01/01 Q1032 =
METAR EPRA 180000Z 28009KT CAVOK 02/00 Q1033=
METAR EPSC 180000Z 25004KT 200V280 0750 R31/1100D FZFG OVC001 M01/M01
     Q1035 =
METAR EPSY 180000Z 24003KT 210V280 5000 BR SCT002 01/01 Q1030=
METAR EPWR 180000Z VRB01KT 9000 NSC M02/M03 Q1036 =
METAR EPZG 180000Z NIL=


676 
SAPL31 EPWA 180000
METAR EPGD 180000Z 27011KT CAVOK 01/M01 Q1030 =
METAR EPKK 180000Z 22004KT 200V260 6000 NSC M02/M03 Q1036 =
METAR EPLL 180000Z 25002KT 4000 BR NSC M00/M01 Q1034 =
METAR EPPO 180000Z 21003KT 200V260 5000 BR NSC M00/M00 Q1034 =
METAR EPRZ 180000Z 25010KT CAVOK 01/M01 Q1035 =
METAR EPWA 180000Z 28009KT 5000 BR SCT006 01/01 Q1032 TEMPO 3000=


677 
SAXX60 KAWN 180000
METAR NSTU 172350Z VRB05KT 12SM -SHRA BKN018CB BKN100 29/25 A2979 RMK
      SHRAB47 CB ALQDS SLP088 60000 8/370 T02870254 10305 20257 57014=
METAR PHKO 172353Z 23011KT 10SM FEW050 28/19 A2992 RMK AO2 SLP131 T02780189
      10278 20233 56031=
METAR PHMK 172354Z 03008KT 10SM BKN022 BKN075 24/18 A2994 RMK AO2 SLP142
      60000 T02440178 10256 20211 56020=
METAR PHNY 172356Z AUTO 26008KT 240V300 10SM BKN017 BKN022 23/17 A2998
      RMK AO2 SLP131 T02330172 10233 20200 56021 $=
METAR PHOG 172354Z 34008KT 10SM FEW020 SCT030 BKN060 23/19 A2992 RMK
      AO2 RAE08B40E50 SLP137 P0000 60000 T02330194 10278 20194 56021=


697 
SAZZ40 KAWN 180000 RRA
METAR KLUF 172355Z AUTO 21006KT 10SM CLR 18/M04 A3003 RMK AO2 SLP167
      T01821045 10186 20140 55008 $=
METAR KNDZ 172356Z 14006KT 10SM FEW055 SCT140 SCT250 13/06 A3003 RMK
      AO2 SLP158 T01330056 10178 20133 58007 $=
METAR KNDZ 172356Z 14006KT 10SM FEW055 SCT140 SCT250 13/06 A3003 RMK
      AO2 SLP158 T01330056 10178 20133 58007 $=
METAR KNYL 172357Z AUTO 25007KT 10SM CLR 19/M03 A3006 RMK AO2 SLP178
      T01941033 10200 20144 55007 $=
METAR KRND 172355Z AUTO 23003KT 10SM FEW160 15/09 A2978 RMK AO2 SLP083
      T01500094 10159 20125 58010=
METAR KWRI 172355Z AUTO 00000KT 10SM CLR M02/M08 A3012 RMK AO2 SLP201
      T10191082 10064 21020 52016=
METAR MDPP 180000Z 11008KT 9999 BKN018 24/23 Q1018=
METAR MGHT 180000Z 09006KT CAVOK 21/06=
METAR MGSJ 180000Z 27006KT CAVOK 28/// Q1014 A2994=
METAR MKJP 180000Z 34018KT 9999 FEW022 SCT040 28/22 Q1016=
METAR MYGF 180000Z 13004KT 9999 VCSH FEW018 BKN040 20/17 A3010=
METAR MZBZ 180000Z 14003KT 9999 FEW023 26/24 A2998 Q1015 NOSIG=
METAR OEAH 180000Z 33010KT CAVOK 12/00 Q1018 NOSIG=
METAR OEDR 180000Z 32012KT CAVOK 13/03 Q1016=
METAR OEGS 180000Z 32002KT CAVOK 08/01 Q1020=
METAR OEGT 180000Z 28004KT CAVOK 07/02 Q1022 NOSIG=
METAR OEHL 180000Z 00000KT CAVOK 07/M02 Q1021=
METAR OJAM 180000Z 00000KT CAVOK 08/04 Q1024 NOSIG=
METAR ROTM 172356Z AUTO 03003KT 10SM CLR A3021 RMK AO2 SLPNO 6////
      52007 PNO $=
METAR SCSE 180000Z 28007KT CAVOK 17/14 Q1016=
METAR SPYL 180000Z 19008KT CAVOK 24/18 Q1012 RMK BIRD HAZARD RWY 17/35
      PP000=


704 
SAUS14 KAWN 180000 RRE
METAR K20V 172355Z AUTO 00000KT 10SM BKN065 M06/M16 A2981 RMK AO2=
METAR K5C1 172355Z AUTO 20004KT 10SM CLR 12/07 A2983 RMK AO1=
METAR K81R 172355Z AUTO 21010KT 10SM CLR 18/06 A2973 RMK AO2 T01820056
      10223 20146 402230057=
METAR KCQC 172353Z AUTO 29023G38KT 10SM CLR 04/M13 RMK AO2 PK WND 29041/2305
      SLPNO T00441133 10067 20039=
METAR KEHY 172355Z AUTO 03012KT 1SM OVC009 M08/M11 A2981 RMK AO2 PWINO=
METAR KF00 172355Z AUTO 17014G22KT 10SM CLR 13/06 A2963 RMK AO2 T01280060
      10154 20117=
METAR KFOM 172355Z AUTO 10SM CLR 09/M11 A2996 RMK AO1=
METAR KLUF 172355Z AUTO 21006KT 10SM CLR 18/M04 A3003 RMK AO2 SLP167
      T01821045 10186 20140 55008 $=
METAR KNYL 172357Z AUTO 25007KT 10SM CLR 19/M03 A3006 RMK AO2 SLP178
      T01941033 10200 20144 55007 $=
METAR KP60 172356Z AUTO VRB03KT M13/M18 A2991 RMK AO1 SLP186 T11281178
      11083 21128 53014=
METAR KPAO 172355Z 33008KT 9SM HZ SKC 12/07 A3021=
METAR KRND 172355Z AUTO 23003KT 10SM FEW160 15/09 A2978 RMK AO2 SLP083
      T01500094 10159 20125 58010=
METAR KSMP 172356Z AUTO VRB04KT 10SM CLR M03/M03 A3028 RMK AO2 SLP884
      T10281028 11017 21039 53004=
METAR KT35 172355Z AUTO 19010KT 10SM CLR 15/10 A2977 RMK AO2 T01490097
      10161 20138=
METAR KT41 172355Z AUTO 18012G17KT 10SM CLR 19/14 A2980 RMK AO2 T01870142
      10200 20173 402000043=
METAR KTXW 172355Z AUTO 16008KT 10SM CLR 22/15 A2985 RMK AO2 T02180154
      10245 20208 402450085=
METAR KVHN 172355Z AUTO 27017G26KT 7SM HZ BKN037 OVC047 14/M09 A2998
      RMK AO2 T01421088 10160 20139 401600077=


706 
SANA35 KAWN 180000
METAR KCHS 172356Z 11005KT 10SM CLR 09/03 A3013 RMK AO2 SLP204 T00890033
      10144 20083 51003=
METAR KNCA 172356Z 13003KT 10SM CLR 03/01 A3018 RMK SLP221 T00330011
      10111 20033 50005=
METAR KNRB 172352Z AUTO 15003KT 10SM CLR 13/08 A3011 RMK AO2 SLP196
      T01280078 10161 20122 55000=
METAR KWRI 172355Z AUTO 00000KT 10SM CLR M02/M08 A3012 RMK AO2 SLP201
      T10191082 10064 21020 52016=
METAR MDSD 180000Z 04005KT 9999 BKN018 25/23 Q1018=
METAR MKJP 180000Z 34018KT 9999 FEW022 SCT040 28/22 Q1016=
METAR MMVR 172350Z 10007KT 7SM SKC 24/21 A2993 RMK SLP119 57002 994
      HZY ISOL SC=
METAR MUGM 172351Z 05009KT 10SM FEW030 FEW060 27/22 A3006 RMK AO2 SLP178
      T02670222 10300 20267 53012 $=
METAR MYGF 180000Z 13004KT 9999 VCSH FEW018 BKN040 20/17 A3010=
METAR SCAR 180000Z 19006KT CAVOK 22/17 Q1016=
METAR SCDA 180000Z 20017KT CAVOK 22/17 Q1015=
METAR SCFA 180000Z 19008KT 9999 FEW017 21/17 Q1016 NOSIG=
METAR SCIE 180000Z 23016KT CAVOK 19/08 Q1017=
METAR SCTE 180000Z 16007KT CAVOK 15/07 Q1023 NOSIG=
METAR SKBQ 180000Z 03009KT 350V050 9999 FEW015 27/23 Q1012 NOSIG=
METAR SKCG 180000Z 01006KT 340V070 CAVOK 27/24 Q1011=
METAR SKSP 180000Z 05012KT 9999 FEW016 28/24 Q1014=
METAR SPHI 180000Z 18014KT CAVOK 24/17 Q1013 RMK BIRD HAZARD RWY 19/01
      PP000=
METAR SPQU 180000Z 27008KT 230V300 9999 BKN140 12/03 Q1028 RMK PP000=
METAR SPRU 180000Z 16008KT 8000 FEW150 20/18 Q1013 RMK PP000=
METAR SPSO 180000Z 21014KT 9999 SCT070 22/19 Q1014 RMK PP000=
METAR SPUR 180000Z 23014KT CAVOK 28/17 Q1011 RMK PP000=
METAR TBPB 180000Z 06009KT 9999 VCSH SCT016 26/23 Q1016 NOSIG=


708 
SAFR36 LFPW 180000
METAR LFCK 180000Z AUTO VRB01KT CAVOK M01/M01 Q1030=
METAR LFLP 180000Z AUTO 04007KT 7000 OVC015 01/M01 Q1030=
METAR LFLW 180000Z AUTO 12003KT CAVOK M04/M05 Q1027=
METAR LFLX 180000Z AUTO 04007KT 0600 R21/0750N FZFG VV/// M01/M01
Q1031=
METAR LFOH 180000Z AUTO 09004KT 4600 BR OVC006 01/00 Q1033=
METAR LFOP 180000Z AUTO 07005KT 050V110 0750 0650 R22/0900N FZFG
VV/// M01/M01 Q1033=
METAR LFQA 180000Z AUTO 08004KT 7000 OVC009 00/M01 Q1033=
METAR LFQB 180000Z AUTO VRB01KT 6000 OVC011 00/M01 Q1032=
METAR LFSN 180000Z AUTO 06009KT 8000 OVC013 01/M01 Q1032=
METAR LFLU 180000Z NIL=
METAR LFLV 180000Z NIL=


709 
SAHU41 LHBM 180000
METAR LHBC 180000Z NIL=
METAR LHDC 172345Z AUTO 00000KT 5000 BR OVC014 M00/M01 Q1039=
METAR LHKE 172345Z 25003KT 210V280 9999 OVC017 M01/M03 Q1039 NOSIG
     RMK WHT=
METAR LHPA 172345Z 19006KT 160V220 9999 OVC007 M02/M03 Q1039 BECMG
     OVC005 RMK GRN=
METAR LHPP 172345Z AUTO VRB03KT 5000 BR OVC004 M03/M04 Q1039=
METAR LHPR 172345Z AUTO 25004KT 170V320 9999 OVC015 M01/M03 Q1039=
METAR LHSM 172345Z AUTO VRB02KT 9999 OVC008 M03/M04 Q1040=
METAR LHSN 172345Z 23004KT 8000 OVC019 M00/M02 Q1039 NOSIG RMK WHT=
METAR LHUD 180000Z NIL=
METAR LHNY 172345Z AUTO VRB02KT 5000 BR OVC004 00/M01 Q1039=


710 
SAMC33 GMMC 180000
METAR GMAG 180000Z AUTO 33013KT 9999 FEW037 14/09 Q1021=
METAR GMFM 180000Z 11008KT 9999 FEW016 SCT020 06/04 Q1023 NOSIG=
METAR GMMB 180000Z NIL=
METAR GMMC 180000Z NIL=
METAR GMMD 180000Z NIL=
METAR GMMH 180000Z NIL=
METAR GMML 180000Z NIL=


711 
SAMC35 GMMC 180000
METAR GMAZ 180000Z 05004KT CAVOK 08/M02 Q1021 NOSIG=
METAR GMFB 180000Z NIL=


712 
SAMC32 GMMC 180000
METAR GMAT 180000Z NIL=
METAR GMFK 180000Z 12005KT CAVOK 05/M01 Q1024 NOSIG=
METAR GMMI 180000Z AUTO 05004KT 7000 SCT033 11/07 Q1022 NOSIG=
METAR GMMW 180000Z VRB02KT 6000 SCT023 05/04 Q1025 NOSIG=
METAR GMMZ 180000Z 06006KT CAVOK 07/M07 Q1021 NOSIG=
METAR GMTA 180000Z VRB02KT 9999 FEW020 08/05 Q1025 NOSIG=
METAR GMTN 180000Z 13004KT 9999 SCT029 11/07 Q1025 NOSIG=


714 
SAMC31 GMMC 180000
METAR GMAD 180000Z 05005KT 8000 NSC 11/11 Q1021 NOSIG=
METAR GMFF 180000Z 09003KT 060V120 9999 FEW020 SCT200 05/05 Q1023
NOSIG=
METAR GMFO 180000Z NIL=
METAR GMME 180000Z 16003KT 5000 SCT016 05/05 Q1022 NOSIG=
METAR GMMN 180000Z 21005KT 9999 SCT030 08/06 Q1022 NOSIG=
METAR GMMX 180000Z 18006KT 8000 NSC 11/02 Q1022 NOSIG=
METAR GMTT 180000Z 08006KT CAVOK 11/07 Q1024 NOSIG=


715 
SACU31 MUHA 180000
METAR MUVR 172350Z 20006KT 150V220 9999 FEW020 BKN030 24/21 Q1016=
METAR MUSC 172350Z VRB01KT 7000 BKN020 23/21 Q1018=
MUMZ NIL=
METAR MUHG 172350Z 07008KT CAVOK 23/20 Q1018=
METAR MUHA 172350Z VRB03KT 9000 BKN025 BKN040 24/20 Q1017=
METAR MUCU 172350Z 12009KT 090V150 9000 FEW020 26/22 Q1018=
METAR MUCM 172350Z 06006KT 9000 FEW020 23/19 Q1018=
METAR MUCL 172350Z 18006KT 150V210 9000 BKN020 25/21 Q1016=
METAR MUCF 172350Z AUTO 21004KT 24/21 Q1017=
METAR MUCC 172350Z 12006KT 9000 NSC 24/21 Q1017=


716 
SAFR35 LFPW 180000
METAR LFBE 180000Z AUTO 00000KT 4400 BR NSC M04/M05 Q1030=
METAR LFGJ 180000Z AUTO 13001KT 5000 BR OVC012 00/M00 Q1030=
METAR LFMD 180000Z AUTO 36005KT 330V030 CAVOK 02/M01 Q1026=
METAR LFMH 180000Z AUTO 33003KT 5000 BR OVC003 M03/M03 Q1029=
METAR LFOT 180000Z AUTO 04006KT 350V070 1900 BR VV/// M00/M00 Q1032=
METAR LFST 180000Z AUTO 01005KT 7000 OVC023 01/M00 Q1032 TEMPO
0300 FZFG VV///=
METAR LFTH 180000Z AUTO 31007KT CAVOK 06/01 Q1026 NOSIG=
METAR LFTW 180000Z AUTO 03006KT CAVOK 04/M02 Q1027=
METAR LFRG 180000Z NIL=


717 
SAFR34 LFPW 180000
METAR LFLY 180000Z AUTO 32003KT 290V350 2800 BR OVC002 M02/M02
Q1031 TEMPO 0600 FZFG VV///=
METAR LFMK 180000Z AUTO 24006KT 210V270 CAVOK 04/01 Q1029=
METAR LFMT 180000Z AUTO 36003KT CAVOK 02/M02 Q1028 NOSIG=
METAR LFMU 180000Z AUTO 28003KT 250V310 CAVOK M01/M03 Q1028=
METAR LFOB 180000Z AUTO 08005KT 040V100 2600 BR OVC001 M01/M01
Q1033 TEMPO 0200 FZFG VV///=
METAR LFPB 180000Z AUTO 04007KT 020V080 7000 OVC005 M01/M01 Q1034=
METAR LFRD 180000Z AUTO 10004KT 4300 BR OVC009 02/02 Q1033 TEMPO
0300 FZFG VV///=
METAR LFRN 180000Z AUTO 36002KT 0650 0400 R28/0750D R10/0900D FZFG
NSC M02/M02 Q1033 TEMPO 0300 FZFG VV///=
METAR LFSB 180000Z AUTO 09006KT 050V130 9999 OVC018 01/M02 Q1031
TEMPO 0400 FZFG VV///=
METAR LFOK 180000Z NIL=


718 
SAFR37 LFPW 180000
METAR LFBA 180000Z AUTO 00000KT 0500 0450 R29/0900U FZFG VV///
M03/M03 Q1029=
METAR LFBX 180000Z AUTO 00000KT 6000 NSC M03/M04 Q1030=
METAR LFMI 180000Z AUTO 02008KT CAVOK 02/M02 Q1027 NOSIG=
METAR LFRZ 180000Z AUTO VRB02KT 2600 1200 R25/P2000 BR NSC 00/M00
Q1032 BECMG OVC002=
METAR LFBF 180000Z NIL=
METAR LFOV 180000Z NIL=
METAR LFRI 180000Z NIL=
METAR LFRM 180000Z NIL=
METAR LFRO 180000Z NIL=
METAR LFRV 180000Z NIL=
METAR LFSG 180000Z NIL=


724 
SANU31 TNCA 180000
METAR TNCA 180000Z 11007KT 7000 SHRA FEW010TCU SCT030 24/23 Q1015 RERA NOSIG=
NNNN

811 
SAPS32 NFFN 180000
METAR NLWW 180000Z 29010KT 9999 FEW021 SCT060 31/26 Q1008 TEMPO
SHRA BKN014 SCT018TCU=
METAR NWWW 180000Z AUTO 21005KT 170V250 CAVOK 31/23 Q1007 NOSIG=


824 
SACO20 SKBO 180000
METAR SKAR 180000Z 00000KT 9999 SCT023 SCT100 21/18 Q1016=
METAR SKBG 180000Z VRB02KT 9999 SCT015 20/20 Q1017=
METAR SKBO 180000Z 23007KT 9999 SCT020 SCT070 14/12 Q1027 NOSIG=
METAR SKBQ 180000Z 03009KT 350V050 9999 FEW015 27/23 Q1012 NOSIG=
METAR SKCC 180000Z VRB02KT 9999 FEW017 SCT070 26/22 Q1016=
METAR SKCG 180000Z 01006KT 340V070 CAVOK 27/24 Q1011=
METAR SKCL 180000Z 33009KT 9999 SCT025 SCT120 25/18 Q1014 NOSIG=
METAR SKCO 180000Z AUTO 27006KT CAVOK 27/23 Q1012=
METAR SKCZ 180000Z AUTO 30005KT 270V330 CAVOK 27/23 Q1011=
METAR SKEJ 180000Z AUTO VRB01KT //// R04///// // ////// 28/22 Q1010=
METAR SKGI 180000Z AUTO 02009KT CAVOK 31/19 Q1008=
METAR SKGO 180000Z AUTO 36003KT 320V020 9999 BKN120TCU 23/19 Q1015=
METAR SKGY 180000Z AUTO VRB02KT 9999NDV R29///// // SCT035/// BKN042/// BKN072/// 13/11 Q1027=
METAR SKIB 180000Z 06005KT 9999 SCT030 SCT100 25/21 Q1017=
METAR SKIP 180000Z AUTO 12003KT CAVOK 11/11 Q1029=
METAR SKLC 180000Z 35006KT 9999 FEW020 27/24 Q1011=
METAR SKLT 180000Z VRB02KT 9999 SCT020 27/25 Q1008=
METAR SKMR 180000Z 33008KT 300V020 9999 FEW015 28/24 Q1011=
METAR SKNV 180000Z 03005KT 9999 FEW030 29/19 Q1010=
METAR SKPC 180000Z AUTO /////KT CAVOK 30/19 Q1010=
METAR SKAS 180000Z NIL=
METAR SKBS 180000Z NIL=
METAR SKBU 180000Z NIL=
METAR SKFL 180000Z NIL=
METAR SKGP 180000Z NIL=
METAR SKMD 180000Z NIL=
METAR SKMU 180000Z NIL=
METAR SKMZ 180000Z NIL=
METAR SKPD 180000Z NIL=


825 
SACO20 SKBO 180000
METAR SKPE 180000Z 33004KT 290V020 9999 SCT020 SCT080 23/17 Q1017=
METAR SKPP 180000Z 34003KT 310V030 9999 VCSH FEW020CB BKN030 18/15
Q1020 RMK CB/VCSH/N=
METAR SKPS 180000Z AUTO 04005KT 9999 FEW003/// BKN031/// OVC110///
17/16 Q1021=
METAR SKRG 180000Z 05005KT 9999 FEW017 16/14 Q1026 NOSIG=
METAR SKRH 180000Z 09008KT 040V100 CAVOK 28/23 Q1013=
METAR SKSA 180000Z AUTO 22003KT 190V250 CAVOK 24/21 Q1013=
METAR SKSM 180000Z 02014KT 9999 FEW020 29/21 Q1012=
METAR SKSP 180000Z 05012KT 9999 FEW016 28/24 Q1014=
METAR SKTM 180000Z AUTO 32003KT CAVOK 26/19 Q1014=
METAR SKUC 180000Z 00000KT 9999 FEW025 28/21 Q1012=
METAR SKUI 180000Z 00000KT 9999 TS FEW025 FEW027CB 27/25 Q1010 RMK
CB/S=
METAR SKVP 180000Z 09011KT 9999 FEW020 29/19 Q1014=
METAR SKVV 180000Z AUTO VRB01KT 9999NDV R05///// // OVC053/// 27/21 Q1013=
METAR SKYP 180000Z 05008KT 9999 NSC 28/19 Q1012=
METAR SKPV 180000Z NIL=
METAR SKQU 180000Z NIL=
METAR SKSJ 180000Z NIL=


826 
SAHK31 VHHH 180000
METAR VHHH 180000Z 07004KT 9999 FEW045 14/08 Q1021 NOSIG=


926 
SAMZ40 FQMA 180000
METAR FQPB 180000Z /////KT 9999 FEW020 26/25 Q1010=

927 
SAMZ40 FQMA 180000
METAR FQMA 180000Z 23003KT 9999 SCT020 22/19 Q1015 NOSIG=

928 
SAMZ40 FQMA 180000
METAR FQXA 180000Z 18004KT 9999 SCT020 23/21 Q1016=

988 
SAAK40 KNKA 180002
METAR PAFS 180001Z AUTO 08009G17KT 060V120 10SM SCT046 BKN060 OVC075 
    M10/M14 A2999 RMK AO2 SLP170 T11001144 11100 21122 50007 FZRANO=


166 
SAAA31 NZSP 180002
METAR NZCM 172355Z VRB03KT 9999 CLR 04/M12 A2943 RMK AO2
SLP970 T00361115 10036 20004 $=


430 
SAUS46 KLOX 180002 COR
MTRNSI
METAR KNSI 172353Z AUTO 32016G23KT SCT009 A3016 RMK AO2 SLPNO 56010 
$


432 
SAUS45 KPIH 180002 COR
MTRLLJ
METAR KLLJ 172355Z AUTO 36011KT 10SM BKN065 M04/M15 A3005 RMK AO2 
SLP227 T10391150 10006 21044 53013


433 
SABW31 VGHS 180000
METAR VGHS 180000Z 32007KT 1800 BR NSC 17/15 Q1015 TEMPO S/VIS
1500M=


621 
SAUS41 KAKQ 180002 COR
MTRNTU
METAR KNTU 172356Z 16005KT 10SM FEW250 02/M03 A3019 RMK AO2 SLP225 
T00171033 10078 20017 51009


026 
SAIN90 VOML 180000
METAR VOML 180000Z 09005KT 6000 NSC 23/17 Q1009 NOSIG=


208 
SAIL31 BICC 180000
METAR BIAR 180000Z 04005KT 320V090 9999 OVC052 M00/M05 Q1011=
METAR BIEG 180000Z 05016KT 7000 -SN SCT020 OVC030 01/M03 Q1012=
METAR BIKF 180000Z 06015KT 9999 -RASN OVC011 02/00 Q1000=
METAR BIRK 180000Z 07013KT 9999 BKN033 03/M01 Q1000=


209 
SAMC33 GMMC 180000 RRA
METAR GMML 180000Z 02011KT 8000 BKN020 17/07 Q1025 NOSIG=


210 
SASQ41 LZIB 180000
METAR LZPP 180000Z 21004KT 8000 OVC011 M00/M01 Q1038=
METAR LZZI 180000Z VRB02KT 9999 OVC007 M01/M02 Q1037=


211 
SABA31 MYNN 180000
METAR MYNN 180000Z 12006KT 010V130 9999 SCT022 SCT035 BKN080 23/18
    A3012 PKWND-08KT=


212 
SAAT31 TKPK 180000
METAR TKPK 180000Z 05010KT 9999 FEW020 25/22 Q1018=
NNNN

213 
SAPF20 NTAA 180000
METAR NTAA 180000Z AUTO 36006KT 9999 FEW066/// BKN076/// ///CB
31/25 Q1011 TEMPO 30015G25KT 2500 TSRA=


214 
SAFP20 LFVP 180000
METAR LFVP 180000Z AUTO 13013KT 9999 BKN021 OVC026 M00/M02 Q1015=


219 
SAXX70 KAWN 180000 RRA
METAR KQEV 180000Z AUTO 00000KT 6000 HZ CLR M06/M09 A3031 RMK A02 TSNO=
METAR KQFT 180000Z AUTO 03002KT 6000 CLR M07/M09 A3034 RMK A02 TSNO=


448 
SAUS14 KAWN 180000 RRF
METAR K04V 172350Z AUTO 31007KT 10SM SCT090 02/M14 A2985 RMK AO2=
METAR K1V6 172350Z AUTO 13012KT 10SM CLR 04/M03 A2979 RMK AO2=
METAR K2V6 172354Z AUTO 36012G16KT 10SM OVC037 M01/M06 A2987 RMK AO2=
METAR KAFO 172355Z AUTO 35005KT 3SM BR BKN028 OVC037 M06/M07 A2993
      RMK AO2=
METAR KCZT 172350Z AUTO 00000KT 10SM CLR 18/07 A2979 RMK AO2=
METAR KE16 172355Z AUTO 18005KT 10SM CLR 14/05 A3021 RMK AO2=
METAR KEAN 172355Z AUTO 36012G19KT 5SM -SN BKN023 BKN031 OVC044 M05/M08
      A2995 RMK AO2 T10501076 10000 21050=
METAR KETN 172350Z AUTO 24016G29KT 1 3/4SM HZ OVC029 19/M02 A2964 RMK
      AO2 T01911022 10210 20131 402101001=
METAR KGVT 172350Z AUTO 18012KT 10SM CLR 12/08 A2967 RMK AO2 TSNO=
METAR KMNZ 172355Z AUTO 20014G18KT 10SM CLR 16/06 A2969 RMK AO2 10216
      20136=
METAR KOSA 172350Z AUTO 16009KT 10SM SCT031 SCT120 12/07 A2970 RMK
      AO2 T01230073 10143 20107 401431012=
METAR KPSO 172355Z AUTO 17008KT 10SM CLR 04/M16 A2988 RMK AO2 10048
      21005=
METAR KS33 172355Z AUTO 02003KT 10SM CLR 03/M05 A3034 RMK AO2=
METAR KSXU 172355Z AUTO 29017G25KT 10SM CLR 12/M12 A2972 RMK AO2 PK
      WND 30032/22 10152 20119=
METAR KSZT 172350Z AUTO 25004KT 10SM BKN050 OVC075 M01/M04 A3028 RMK
      AO2=
METAR KT20 172355Z AUTO 00000KT 10SM CLR 14/10 A2982 RMK AO2 T01380100
      10155 20123=
METAR KT74 172355Z AUTO 19007KT 10SM CLR 14/09 A2978 RMK AO2 T01440091
      10161 20123 401610025=
METAR KTMK 172355Z AUTO 30007KT 10SM CLR 08/03 A3039 RMK AO2=
METAR KU14 172355Z AUTO 36016G21KT 10SM OVC065 05/M07 A2995 RMK AO2
      10079 20018=


683 
SARM31 LUKK 180000
METAR LUKK 180000Z 33009KT 290V350 9999 OVC010 02/00 Q1029 NOSIG=
METAR LUBM 180000Z NIL=


684 
SAYG31 LYYN 180000
METAR LYBE 180000Z 01004KT 340V040 9000 OVC008 M03/M04 Q1040 NOSIG=
METAR LYBT 180000Z NIL=
METAR LYKV 180000Z 01002KT 6000 OVC017 M01/M03 Q1038 NOSIG=
METAR LYNI 180000Z 34007KT 8000 OVC013 M02/M03 Q1038 NOSIG=
METAR LYPG 180000Z 02004KT CAVOK 01/M01 Q1030 NOSIG=
METAR LYPR 180000Z NIL=
METAR LYTV 180000Z AUTO 00000KT CAVOK 03/02 Q1028=
METAR LYVR 180000Z AUTO 28005KT 8000 OVC010/// M02/M02 Q1039=


731 
SAUS41 EQYR 180003 COR
MTRXXD
METAR EQYR 172357Z AUTO 05004KT CLR 06/03 A3030 RMK AO2 SLP261 
T00610033 10111 20056 55000 $


876 
SAIE31 EIDB 180000
METAR EIDW 180000Z 13003KT 9999 FEW015 BKN021 06/04 Q1028 NOSIG=
METAR EINN 180000Z 16019KT 9999 BKN024 09/05 Q1026 NOSIG=
METAR EICK 180000Z 17010KT 150V210 9999 FEW015 BKN018 08/05 Q1027
     NOSIG=
METAR EIKN 180000Z NIL=


877 
SAIR31 OIII 180000
METAR OIAW 180000Z 31004KT 8000 NSC 10/05 Q1014=
METAR OIFM 180000Z 34006KT CAVOK M01/M09 Q1019 A3009=
METAR OIII 180000Z 14010KT 9999 FEW035CB BKN090 05/M03 Q1019 A3009
NOSIG=
METAR OIKB 180000Z 28006KT 4000 HZ NSC 18/12 Q1012 A2991=
METAR OIKK 180000Z 00000KT 4000 BR FEW030CB SCT035 OVC070 00/00
Q1015 A3000=
METAR OIMM 180000Z NIL=
METAR OISS 180000Z 28006KT 9999 FEW040 05/M02 Q1014 A2997=
METAR OITT 180000Z 08004KT 9999 FEW035 M04/M07 Q1021 A3015=
METAR OIZH 180000Z 29004KT 9999 FEW040 BKN100 05/01 Q1015 A2999=


033 
SAIR32 OIII 180000
METAR OIAA 180000Z NIL=
METAR OIBK 180000Z 30008KT 7000 FEW030 19/13 Q1012=
METAR OICC 180000Z 00000KT CAVOK M02/M06 Q1018 A3008=
METAR OIGG 180000Z NIL=
METAR OIIE 180000Z 27006KT 9999 FEW040 BKN100 04/M06 Q1019=
METAR OINZ 180000Z 17004KT CAVOK 04/03 Q1022=
METAR OITR 180000Z 28004KT 9999 FEW040 M04/M06 Q1020 A3012=
METAR OIYY 180000Z 30002KT 7000 FEW090 02/00 Q1018=


184 
SAQB31 LQBK 180000
METAR LQBK 180000Z 02002KT 7000 OVC017 M01/M02 Q1039 NOSIG=
METAR LQMO 180000Z 15004KT 130V190 CAVOK M00/M03 Q1030=
METAR LQSA 180000Z 12001KT 5000 BR SCT012 M04/M06 Q1036=
METAR LQTZ 180000Z 10004KT 5000 BR OVC015 M01/M03 Q1038=


299 
SAIR36 OIII 180000
METAR OIBA 180000Z NIL=
METAR OIBV 180000Z NIL=
METAR OIFS 180000Z 32006KT 9999 SCT035 M00/M02 Q1017=
METAR OIIP 180000Z VRB02KT 9999 FEW040 M03/M06 Q1017 A3005=
METAR OIMB 180000Z 00000KT 9999 SCT020 BKN080 03/03 Q1014 A2997=
METAR OIMN 180000Z 00000KT 9999 FEW015 BKN070 01/M02 Q1020=
METAR OIMS 180000Z NIL=
METAR OIMT 180000Z NIL=
METAR OIZJ 180000Z 24006KT 8000 NSC 23/12 Q1013=


300 
SAIR35 OIII 180000
METAR OIAD 180000Z NIL=
METAR OIBJ 180000Z NIL=
METAR OIBS 180000Z NIL=
METAR OIHR 180000Z NIL=
METAR OIKM 180000Z NIL=
METAR OIKR 180000Z NIL=
METAR OING 180000Z 19004KT 9999 FEW035 SCT080 05/04 Q1024=
METAR OIZB 180000Z 34018KT 9999 FEW040 OVC090 08/04 Q1016=
METAR OIZI 180000Z 32004KT 9999 SCT040TCU OVC090 16/09 Q1015=


301 
SAIR34 OIII 180000
METAR OIAG 180000Z 00000KT 5000 HZ NSC 09/04 Q1016=
METAR OIAM 180000Z NIL=
METAR OICI 180000Z 15004KT CAVOK 02/M04 Q1017 A3006=
METAR OIKQ 180000Z 00000KT 9999 SCT030 18/13 Q1012=
METAR OINN 180000Z 19002KT 9999 SCT027 07/05 Q1021=
METAR OINR 180000Z 24002KT 9999 FEW026 08/05 Q1021=
METAR OISL 180000Z 26004KT CAVOK 08/03 Q1012 A2991=
METAR OISY 180000Z 00000KT 9999 FEW035 02/M00 Q1016=
METAR OITZ 180000Z NIL=


302 
SAIR33 OIII 180000
METAR OIBB 180000Z 35014KT CAVOK 17/09 Q1014 A2997=
METAR OIBP 180000Z 00000KT CAVOK 14/11 Q1012 A2989=
METAR OICK 180000Z 11006KT CAVOK 02/M03 Q1017 A3004=
METAR OICS 180000Z 00000KT CAVOK M04/M06 Q1019 A3011=
METAR OIHH 180000Z 12006KT CAVOK M05/M06 Q1018 A3008=
METAR OITL 180000Z 16002KT 1500 PRFG BR BKN005 SCT025 BKN080
M02/M02 Q1018=
METAR OIZC 180000Z NIL=


349 
SPCN43 CWAO 180002
SPECI CYLL 180002Z 34006KT 15SM -SN OVC075 M16/M20 A3034 RMK AS8 SLP338=


666 
SAIR37 OIII 180000
METAR OIBL 180000Z NIL=
METAR OIBQ 180000Z NIL=
METAR OIIK 180000Z NIL=
METAR OIMD 180000Z NIL=
METAR OIMQ 180000Z NIL=
METAR OINE 180000Z 00000KT 8000 BKN030 OVC080 07/05 Q1022=
METAR OITK 180000Z NIL=
METAR OITM 180000Z 25002KT 2000 BR BKN022 M03/M04 Q1018=


667 
SASC20 FSIA 180000
METAR FSIA 180000Z 32010KT 280V340 9999 FEW016CB BKN020 26/25 Q1009
NOSIG=

799 
SAUS41 EQYR 180004 COR
MTRXXD
METAR EQYR 172357Z AUTO 05004KT CLR 06/03 A3030 RMK AO2 SLP261 
T00610033 10111 20056 55000 $


848 
SAXX60 KWBC 180000 CCC
METAR
KNSI 172353Z AUTO 32016G23KT SCT009 A3016 RMK AO2 SLPNO 56010
     $=
KNTU 172356Z 16005KT 10SM FEW250 02/M03 A3019 RMK AO2 SLP225
     T00171033 10078 20017 51009=
EQYR 172357Z AUTO 05004KT CLR 06/03 A3030 RMK AO2 SLP261 T00610033
     10111 20056 55000 $=


849 
SPAU31 YBBN 180003
SPECI YSSY 180000Z 17027G37KT 8000 VCSH FEW011 SCT015 BKN022 21/20
Q1017=


850 
SACN98 KWBC 180004
METAR CXWB 172300Z AUTO 29007KT M31/M35 RMK AO1 SOG 05 3015 SLP191
T13091350=


851 
SAXX60 KWBC 180000 RRD
METAR
KLUF 172355Z AUTO 21006KT 10SM CLR 18/M04 A3003 RMK AO2 SLP167
     T01821045 10186 20140 55008 $=
KNDZ 172356Z 14006KT 10SM FEW055 SCT140 SCT250 13/06 A3003 RMK AO2
     SLP158 T01330056 10178 20133 58007 $=
KNDZ 172356Z 14006KT 10SM FEW055 SCT140 SCT250 13/06 A3003 RMK AO2
     SLP158 T01330056 10178 20133 58007 $=
KNYL 172357Z AUTO 25007KT 10SM CLR 19/M03 A3006 RMK AO2 SLP178
     T01941033 10200 20144 55007 $=
KRND 172355Z AUTO 23003KT 10SM FEW160 15/09 A2978 RMK AO2 SLP083
     T01500094 10159 20125 58010=
KWRI 172355Z AUTO 00000KT 10SM CLR M02/M08 A3012 RMK AO2 SLP201
     T10191082 10064 21020 52016=
ROTM 172356Z AUTO 03003KT 10SM CLR A3021 RMK AO2 SLPNO 6//// 52007
     PNO $=
KWRI 172355Z AUTO 00000KT 10SM CLR M02/M08 A3012 RMK AO2 SLP201
     T10191082 10064 21020 52016=
KNCA 172356Z 13003KT 10SM CLR 03/01 A3018 RMK SLP221 T00330011
     10111 20033 50005=
KNRB 172352Z AUTO 15003KT 10SM CLR 13/08 A3011 RMK AO2 SLP196
     T01280078 10161 20122 55000=
KWRI 172355Z AUTO 00000KT 10SM CLR M02/M08 A3012 RMK AO2 SLP201
     T10191082 10064 21020 52016=
MUGM 172351Z 05009KT 10SM FEW030 FEW060 27/22 A3006 RMK AO2 SLP178
     T02670222 10300 20267 53012 $=
KLUF 172355Z AUTO 21006KT 10SM CLR 18/M04 A3003 RMK AO2 SLP167
     T01821045 10186 20140 55008 $=
KNYL 172357Z AUTO 25007KT 10SM CLR 19/M03 A3006 RMK AO2 SLP178
     T01941033 10200 20144 55007 $=
KRND 172355Z AUTO 23003KT 10SM FEW160 15/09 A2978 RMK AO2 SLP083
     T01500094 10159 20125 58010=
KNTD 172355Z 25007KT 10SM FEW025 15/09 A3017 RMK AO2 SLP219
     T01500094 10161 20144 56010 VISNO S $=
KNBG 172355Z 12005KT 10SM 16/11 A2997 RMK AO2 SLP146 T01610111
     10183 20161 56011 $=


852 
SAUS70 KWBC 180000 RRX
METAR
KOAR 172355Z AUTO 29006KT 10SM BKN019 10/06 A3021 RMK AO2=
KD25 172355Z AUTO 31018G25KT 10SM OVC033 00/M06 A2938 RMK AO2
     T00001056 10025 20000=
KEOK 172355Z AUTO 23006KT 10SM OVC055 08/M01 A2957 RMK A01=
KFSW 172355Z AUTO 21007KT 10SM FEW060 09/M01 A2956 RMK AO2 10130
     20088=
KHDE 172355Z AUTO 36024G33KT 10SM OVC090 03/M05 A2979 RMK AO2
     T00261046 10096 20026=
KHJH 172355Z AUTO 01019G28KT 10SM CLR 04/M04 A2976 RMK AO2
     T00361037 10097 20036=
KI95 172355Z AUTO 17013G21KT 10SM CLR 02/M02 A2976 RMK A01=
KIBM 172355Z AUTO 36019G25KT 10SM SCT060 BKN095 M03/M09 A2987 RMK
     AO2 T10321091 10003 21032=
KJOT 172355Z AUTO 20009G14KT 10SM CLR 05/00 A2958 RMK AO2
     T00510002 10080 20051=
KLCG 172355Z AUTO 35023G32KT 10SM OVC110 M01/M07 A2981 RMK AO2
     T10071072 10075 21007=
KMLE 172355Z AUTO 33012G20KT 10SM SCT120 04/M05 A2974 RMK AO2
     T00431050 10096 20043=
KPRO 172355Z AUTO 33015KT 10SM OVC120 03/M02 A2965 RMK AO2
     T00331022=
KTNU 172355Z AUTO 34011KT 10SM CLR 03/M03 A2962 RMK A01=
KUBE 172355Z AUTO 32024G29KT 10SM -SN OVC033 00/M05 A2952 RMK
     AO2=
KVYS 172355Z AUTO 20011KT 10SM BKN110 05/00 A2956 RMK AO2
     T00471002=
KXLL 172355Z AUTO 00000KT 10SM CLR 00/M05 A3010 RMK AO2=
KZER 172355Z AUTO 16006KT 10SM CLR M01/M06 A3001 RMK AO2=
K20V 172355Z AUTO 00000KT 10SM BKN065 M06/M16 A2981 RMK AO2=
K5C1 172355Z AUTO 20004KT 10SM CLR 12/07 A2983 RMK AO1=
K81R 172355Z AUTO 21010KT 10SM CLR 18/06 A2973 RMK AO2 T01820056
     10223 20146 402230057=
KEHY 172355Z AUTO 03012KT 1SM OVC009 M08/M11 A2981 RMK AO2
     PWINO=
KF00 172355Z AUTO 17014G22KT 10SM CLR 13/06 A2963 RMK AO2
     T01280060 10154 20117=
KPAO 172355Z 33008KT 9SM HZ SKC 12/07 A3021=
KT35 172355Z AUTO 19010KT 10SM CLR 15/10 A2977 RMK AO2 T01490097
     10161 20138=
KT41 172355Z AUTO 18012G17KT 10SM CLR 19/14 A2980 RMK AO2
     T01870142 10200 20173 402000043=
KTXW 172355Z AUTO 16008KT 10SM CLR 22/15 A2985 RMK AO2 T02180154
     10245 20208 402450085=
KVHN 172355Z AUTO 27017G26KT 7SM HZ BKN037 OVC047 14/M09 A2998 RMK
     AO2 T01421088 10160 20139 401600077=
KGOV 172355Z AUTO 22006G15KT 10SM OVC120 04/M03 A2943 RMK AO2
     SLP984 T00371031 10038 21006 55008 $=
KPNE 172354Z 00000KT 10SM CLR 01/M07 A3014 RMK AO2 SLP208
     T00061072 10072 20000 51014=
K06C 172355Z AUTO 21010G16KT 10SM CLR 05/00 A2955 RMK AO2
     T00451001 10078 20045=
K1H2 172355Z AUTO 16008KT 10SM RA BKN070 BKN080 OVC100 07/00 A2972
     RMK AO2 T00741002 10085 20059=
K3D2 172355Z AUTO 25005KT 10SM OVC100 04/M03 A2938 RMK AO2
     T00351026 10035 20017=
KDCY 172355Z AUTO 16008KT 10SM SCT100 SCT120 05/00 A2975 RMK AO2
     T00511002 10056 20032=
KDLZ 172355Z AUTO 16008KT 10SM CLR 01/M05 A2983 RMK AO2=
KGBG 172355Z AUTO 20009KT 10SM SCT070 SCT120 07/01 A2956 RMK AO2
     T00650005 10120 20065=
KGYY 172345Z 20010G20KT 10SM BKN070 06/00 A2957=
KHHG 172355Z AUTO 18012G17KT 10SM CLR 04/M02 A2968 RMK AO2
     T00371021 10040 20030=
KIKK 172355Z AUTO 20015G20KT 10SM OVC070 04/M01 A2961 RMK AO2
     T00351007 10045 20030=
KRZT 172355Z AUTO 16006KT 10SM CLR 03/M04 A2988 RMK AO2 PWINO=
KTIP 172355Z AUTO 18011KT 10SM BKN075 02/00 A2964 RMK AO2
     T00241003 10051 20022=
KTVK 172355Z AUTO 31005G12KT 10SM CLR 03/M04 A2960 RMK AO2=
KTYQ 172355Z AUTO 17014G18KT 10SM CLR 03/M01 A2971 RMK AO2
     T00331013 10053 20030=
KUNI 172355Z AUTO 00000KT 10SM CLR 00/M04 A2991 RMK AO2 T00001044
     10068 20000 TSNO=
KVVS 172355Z AUTO 16003KT 10SM CLR M02/M06 A2995 RMK AO2 T10181062
     10035 21020 400351025 60010=
KW22 172355Z AUTO 14004KT CLR 01/M06 A2995 RMK AO2=


853 
SAPQ50 KWBC 180000 RRA
METAR
PGUM 172354Z 08012KT 10SM FEW022 29/23 A2990 RMK AO2 SLP117
     T02890228 10289 20256 50013 $=


854 
SAIR38 OIII 180000
METAR OIAH 180000Z 00000KT CAVOK 06/02 Q1016=
METAR OIBH 180000Z NIL=
METAR OICM 180000Z NIL=
METAR OIIS 180000Z NIL=
METAR OIMJ 180000Z NIL=
METAR OISF 180000Z 00000KT 9999 FEW040 OVC100 08/03 Q1014 A2996=
METAR OISR 180000Z NIL=
METAR OITP 180000Z 27008KT 9999 SCT040 05/M01 Q1021=
METAR OITU 180000Z NIL=


855 
SPUS70 KWBC 180004
SPECI
KFPR 180000Z 00000KT 10SM SCT036 BKN048 OVC075 17/16 A3008 RMK AO2
     T01670156=
KRSW 180000Z 07007KT 5SM BR HZ OVC043 17/17 A3006 RMK AO1
     T01670167=
KAIA 180001Z AUTO 36013KT 7SM FEW025 BKN034 BKN095 M06/M07 A2994
     RMK AO2 SNE01 P0000 T10561072=
KBYG 180001Z AUTO 34026G36KT 2SM -SN BR FEW018 OVC047 M11/M12
     A3001 RMK AO2 PK WND 35035/0000 P0000 T11061122=
KRWL 180001Z AUTO 35006KT 1 3/4SM -SN FEW012 OVC022 M08/M11 A2986
     RMK AO2 P0000 T10781106=


856 
SAUS70 KWBC 180000 CCA
METAR
KLLJ 172355Z AUTO 36011KT 10SM BKN065 M04/M15 A3005 RMK AO2 SLP227
     T10391150 10006 21044 53013=


859 
SPZA31 KWBC 180004
SPECI
FAPE 172357Z 23003KT 4000 R26/1200U BR BKN004 16/15 Q1011 NOSIG=


862 
SAUS70 KWBC 180000 RRX
METAR
K04V 172350Z AUTO 31007KT 10SM SCT090 02/M14 A2985 RMK AO2=
K1V6 172350Z AUTO 13012KT 10SM CLR 04/M03 A2979 RMK AO2=
K2V6 172354Z AUTO 36012G16KT 10SM OVC037 M01/M06 A2987 RMK AO2=
KAFO 172355Z AUTO 35005KT 3SM BR BKN028 OVC037 M06/M07 A2993 RMK
     AO2=
KCZT 172350Z AUTO 00000KT 10SM CLR 18/07 A2979 RMK AO2=
KE16 172355Z AUTO 18005KT 10SM CLR 14/05 A3021 RMK AO2=
KEAN 172355Z AUTO 36012G19KT 5SM -SN BKN023 BKN031 OVC044 M05/M08
     A2995 RMK AO2 T10501076 10000 21050=
KETN 172350Z AUTO 24016G29KT 1 3/4SM HZ OVC029 19/M02 A2964 RMK
     AO2 T01911022 10210 20131 402101001=
KGVT 172350Z AUTO 18012KT 10SM CLR 12/08 A2967 RMK AO2 TSNO=
KMNZ 172355Z AUTO 20014G18KT 10SM CLR 16/06 A2969 RMK AO2 10216
     20136=
KOSA 172350Z AUTO 16009KT 10SM SCT031 SCT120 12/07 A2970 RMK AO2
     T01230073 10143 20107 401431012=
KPSO 172355Z AUTO 17008KT 10SM CLR 04/M16 A2988 RMK AO2 10048
     21005=
KS33 172355Z AUTO 02003KT 10SM CLR 03/M05 A3034 RMK AO2=
KSXU 172355Z AUTO 29017G25KT 10SM CLR 12/M12 A2972 RMK AO2 PK WND
     30032/22 10152 20119=
KSZT 172350Z AUTO 25004KT 10SM BKN050 OVC075 M01/M04 A3028 RMK
     AO2=
KT20 172355Z AUTO 00000KT 10SM CLR 14/10 A2982 RMK AO2 T01380100
     10155 20123=
KT74 172355Z AUTO 19007KT 10SM CLR 14/09 A2978 RMK AO2 T01440091
     10161 20123 401610025=
KTMK 172355Z AUTO 30007KT 10SM CLR 08/03 A3039 RMK AO2=
KC99 172349Z AUTO 00000KT 7SM SCT008 BKN017 OVC043 M10/M12 A2977
     RMK AO2=
KDVP 180000Z AUTO 33017G29KT 10SM CLR M05/M11 A2979 RMK AO2=
KGCD 172356Z AUTO 31005KT 10SM BKN050 OVC055 01/M09 A3025 RMK
     AO2=
KW43 172350Z AUTO 34012G17KT 3SM -SN BKN012 OVC020 M07/M10 A3004
     RMK AO2=


863 
SAUS70 KWBC 180004
METAR
PAFS 180001Z AUTO 08009G17KT 060V120 10SM SCT046 BKN060 OVC075
     M10/M14 A2999 RMK AO2 SLP170 T11001144 11100 21122 50007
     FZRANO=
PAHX 180002Z AUTO 14006KT 9SM -SN BKN035 BKN045 OVC060 02/01 A2975
     RMK AO2 SNB2317 SLP076 P0000 60000 T00170011 10017 21083
     51010 FZRANO=


864 
SAUS80 KWBC 180000 RRD
METAR
PHKO 172353Z 23011KT 10SM FEW050 28/19 A2992 RMK AO2 SLP131
     T02780189 10278 20233 56031=
PHMK 172354Z 03008KT 10SM BKN022 BKN075 24/18 A2994 RMK AO2 SLP142
     60000 T02440178 10256 20211 56020=
PHNY 172356Z AUTO 26008KT 240V300 10SM BKN017 BKN022 23/17 A2998
     RMK AO2 SLP131 T02330172 10233 20200 56021 $=
PHOG 172354Z 34008KT 10SM FEW020 SCT030 BKN060 23/19 A2992 RMK AO2
     RAE08B40E50 SLP137 P0000 60000 T02330194 10278 20194
     56021=
KTKV 172355Z 10SM OVC026 01/M05 A2941 RMK AO2 T00121047 10025
     20012 PWINO=
KCHS 172356Z 11005KT 10SM CLR 09/03 A3013 RMK AO2 SLP204 T00890033
     10144 20083 51003=
KCQC 172353Z AUTO 29023G38KT 10SM CLR 04/M13 RMK AO2 PK WND
     29041/2305 SLPNO T00441133 10067 20039=
KP60 172356Z AUTO VRB03KT M13/M18 A2991 RMK AO1 SLP186 T11281178
     11083 21128 53014=
KSMP 172356Z AUTO VRB04KT 10SM CLR M03/M03 A3028 RMK AO2 SLP884
     T10281028 11017 21039 53004=
KIRK 172355Z AUTO 30004KT 10SM BKN050 06/M01 A2958 RMK AO2 SLP026
     T00611011 10106 20061 53010=
KN60 172354Z AUTO 33020G29KT M13/M17 A3010 RMK AO1 PK WND
     33030/2341 SLP226 T11281167 11078 21128 51031=
K2WX 172356Z AUTO 33022KT M11/M14 A3005 RMK AO1 PK WND 34031/2337
     SLP219 T11061144 11061 21106 51030=
KY23 172355Z AUTO 30007KT 260V020 10SM OVC034 00/M06 A2952 RMK AO2
     T00011059 10033 20001=
KP28 172356Z AUTO 36017G28KT 06/M01 A2964 RMK AO1 PK WND
     01032/2318 SLP042 T00611011 10139 20061 51039 $=
KGNR 172356Z AUTO 20003KT M08/M12 A2994 RMK AO1 SLP167 T10781122
     11033 21078 53015=
KGNA 172356Z AUTO 34013G31KT M02/M09 A2941 RMK AO1 PK WND
     35033/2320 SLP970 T10221094 10039 21022 53060=
KP53 172356Z AUTO 19009KT 02/M03 A2934 RMK AO1 SLP944 T00221028
     10033 20022 53015 $=
KD07 172356Z AUTO 35018G26KT M08/M11 A3003 RMK AO1 PK WND
     01037/2301 PRESRR SLP207 T10781111 11028 21078 53037=
KALK 172356Z AUTO 27011KT 10SM CLR 12/M07 A3010 RMK AO2 SLP143
     T01171067 10128 20117 53003 $=


868 
SAAG01 SABM 180000
METAR SAAR 180000Z 17012KT CAVOK 28/20 Q1010=
METAR SABE 180000Z 13016KT CAVOK 26/18 Q1013 NOSIG=
METAR SACO 180000Z 12004KT 9999 SCT045 25/18 Q1013 NOSIG=
METAR SADF 180000Z 13013KT CAVOK 28/18 Q1012=
METAR SADP 180000Z NIL=
METAR SAEZ 180000Z 12012KT 9999 FEW039 SCT200 26/18 Q1013 NOSIG=
METAR SAME 180000Z  09005KT 9999  FEW040 FEW045CB
30/13 Q1010=
METAR SANT 180000Z 25003KT 220V290 8000 SCT110 29/19 Q1008=
METAR SARC 180000Z 14007KT 7000 NSC 33/17 Q1006=
METAR SARE 180000Z 10005KT CAVOK 33/15 Q1006=
METAR SARF 180000Z NIL=
METAR SARI 180000Z 17003KT 140V210 CAVOK 26/22 Q1009=
METAR SARL 180000Z 14007KT 7000 NSC 32/18 Q1008=
METAR SARP 180000Z 05003KT CAVOK 29/23 Q1008=
METAR SASA 180000Z 25003KT 9999 SCT045 23/17 Q1015=
METAR SASJ 180000Z 32006KT 9999 FEW100 SCT190 28/14 Q1013=
METAR SAVC 180000Z 30006KT CAVOK 24/M01 Q1014=
METAR SAVT 180000Z 06011KT CAVOK 23/07 Q1014=
METAR SAWC 180000Z 24020KT 9999 FEW040 17/03 Q1011=
METAR SAWE 180000Z 27022KT 9999 FEW045 13/02 Q1001=
METAR SAWG 180000Z 23022KT 9999 FEW035 SCT200 17/04 Q1008=
METAR SAWH 180000Z 24026G36KT 9999 SCT040 10/03 Q0997=
METAR SAZM 180000Z 14008KT CAVOK 19/14 Q1017=
METAR SAZN 180000Z 00000KT CAVOK 28/09 Q1012=
METAR SAZS 180000Z 29017KT CAVOK 15/04 Q1019=


904 
SAUS42 KMOB 180004 COR
MTRNPA
METAR KNPA 172356Z 15009KT 10SM BKN060 BKN150 BKN250 16/09 A3002 RMK 
AO2 SLP167 T01560094 10183 20156 58004 $


976 
SAUS46 KLOX 180004 COR
MTRNLC
METAR KNLC 172356Z 03004KT 9SM CLR 18/01 A3016 RMK AO2 SLP215 RH/30 
T01830011 10189 20100 56013


016 
SAFR34 LFPW 180000 RRA
METAR LFOK 180000Z AUTO 05005KT 6000 OVC008 00/M00 Q1032 TEMPO
0200 FZFG OVC003=


018 
SAFR33 LFPW 180000 RRA
METAR LFMV 180000Z AUTO VRB02KT 8000 NSC M03/M04 Q1028=


019 
SAFR32 LFPW 180000 RRA
METAR LFBT 180000Z AUTO 18003KT CAVOK M02/M03 Q1029 NOSIG=


021 
SAFR21 LFPW 180000 RRA
METAR LFOA 180000Z AUTO 08006KT 5000 BR OVC004 M01/M01 Q1031=


022 
SALJ31 LJLJ 180000
METAR LJLJ 180000Z VRB01KT 9999 BKN016 M01/M03 Q1037 NOSIG=
METAR LJMB 180000Z AUTO VRB01KT 9999 OVC009/// M01/M03 Q1038=
METAR LJPZ 180000Z AUTO VRB02KT 9999 NCD 01/M04 Q1031=


023 
SALJ32 LJLJ 180000
METAR LJCE 180000Z AUTO VRB01KT 9999 OVC014/// M01/M03 Q1039=


024 
SAPH31 RPLL 180000
METAR RPLL 180000Z VRB02KT 9999 FEW025 BKN100 27/23 Q1012 NOSIG RMK A2988=
METAR RPVM 180000Z 06012KT 9999 FEW020 SCT300 29/21 Q1012 NOSIG RMK A2988=
METAR RPMD 180000Z 02005KT 340V040 9999 FEW016 26/24 Q1011 RMK A2985=
METAR RPLB 180000Z 04005KT 010V070 9999 FEW020 27/21 Q1013 NOSIG RMK A2991=
METAR RPLI 180000Z 07003KT 9999 FEW018 24/20 Q1013 NOSIG RMK A2991=
METAR RPMZ 180000Z 06005KT 030V100 9999 FEW017 29/24 Q1010 RMK A2983=
METAR RPLC 180000Z 36010KT 9999 FEW020 25/20 Q1013 NOSIG RMK A2991=
METAR RPVP 180000Z 27004KT 9999 FEW019 BKN240 26/24 Q1011 RMK A2985=


026 
SAFR22 LFPW 180000 RRA
METAR LFKS 180000Z AUTO 33004KT 9999 BKN070 OVC084 09/04 Q1024=
METAR LFMC 180000Z AUTO 30002KT 9999 ////// M02/M03 Q1027=
METAR LFMY 180000Z AUTO 00000KT CAVOK M04/M05 Q1027=


027 
SAFR23 LFPW 180000 RRA
METAR LFOJ 180000Z AUTO 07008KT 1500 BR VV/// M01/M01 Q1032 BECMG
0400 FZFG=
METAR LFRJ 180000Z AUTO 13004KT 6000 NSC 02/01 Q1031=


028 
SAPH32 RPLL 180000
METAR RPVD 180000Z 04010KT 9999 FEW015 SCT220 28/22 Q1011 RMK A2985=
METAR RPMR 180000Z 34007KT 9999 FEW018 SCT250 28/20 Q1011 RMK A2985=


029 
SARO33 LROM 180000
METAR LRBC 180000Z 32003KT 9999 BKN048 02/M02 Q1031=
METAR LRCV 180000Z 28010KT CAVOK M05/M07 Q1032=
METAR LRIA 180000Z 30007KT 240V320 9999 FEW029 02/00 Q1030=
METAR LRSV 180000Z 33018KT 9999 SCT034 05/M01 Q1029=
METAR LRTC 180000Z AUTO 30008KT 6000 FEW110/// BKN180/// 04/M02
Q1030=
METAR LRBV 180000Z AUTO 22006KT 6000 OVC009/// M04/M05 Q1035=


030 
SARO32 LROM 180000
METAR LRAR 180000Z AUTO 00000KT 0600 R27/0700N FZFG VV001 M01/M01
Q1039=
METAR LRBM 180000Z AUTO 28006KT 2700 BR BKN002/// M01/M01 Q1038=
METAR LRCL 180000Z 32004KT 9999 OVC011 M00/M03 Q1037=
METAR LROD 180000Z AUTO 20002KT 3300 BR SCT002/// BKN014/// M01/M01
Q1039=
METAR LRSM 180000Z NIL=
METAR LRTM 180000Z AUTO 08002KT 4100 BR SCT011/// OVC014/// M02/M03
Q1037=


031 
SARO31 LROM 180000
METAR LRBS 180000Z 27006KT 250V310 CAVOK M01/M05 Q1031 NOSIG=
METAR LRCK 180000Z 28015KT CAVOK 01/M02 Q1030 NOSIG=
METAR LROP 180000Z 26005KT 8000 NSC M02/M06 Q1031 NOSIG=
METAR LRSB 180000Z 10002KT 8000 OVC010 M03/M04 Q1036 NOSIG=
METAR LRTR 180000Z 31005KT 0550 R11/0900U FZFG FEW001 BKN002 OVC010
M01/M01 Q1039 TEMPO 0800=


142 
SAIN90 VANP 180000
METAR VANP 180000Z 33004KT 1800 BR SCT100 17/12 Q1017 NOSIG=

143 
SAMZ40 FQMA 180000
METAR FQBR 180000Z 30006KT 9999 FEW020 26/21 Q1010=

144 
SAIN90 VAUD 180000
METAR VAUD 180000Z 08002KT 1200 BR NSC 10/07 Q1018 NOSIG=

145 
SAIN90 VEIM 180000
METAR VEIM 180000Z 00000KT 2000 BR FEW018 10/10 Q1018 NOSIG=

146 
SAIN90 VABB 180000
METAR VABB 180000Z 05004KT 2100 FU FEW100 26/13 Q1011 NOSIG=

147 
SAAN40 FNLU 180000 RRA
METAR COR FNLU 180000Z 12005KT 9000 OVC021 26/23 Q1013=

148 
SAIN90 VOCI 180000
METAR VOCI 180000Z 10004KT 3500 BR FEW015 21/19 Q1009 NOSIG=

149 
SAIN90 VEBS 180000
METAR VEBS 180000Z 00000KT 1500 BR NSC 13/12 Q1015 NOSIG=

150 
SAIN90 VEBN 180000
METAR VEBN 180000Z 22003KT 0700 R27/0650 MIFG NSC 10/10 Q1017 NOSIG=

152 
SAIN90 VAAH 180000
METAR VAAH 180000Z 04008KT 3000 HZ NSC 17/11 Q1014 NOSIG=

153 
SAIN90 VOTP 180000
METAR VOTP 180000Z 05006KT 2000 BR FEW020 23/20 Q1013 NOSIG=

154 
SAIN90 VIDN 180000
METAR VIDN 180000Z 33003KT 3000 BR SCT030 BKN060 10/10 Q1018 NOSIG=

155 
SAIN90 VORY 180000
METAR VORY 180000Z 02010KT 2000 BR FEW020 18/15 Q1014 NOSIG=

156 
SAIN90 VAAU 180000
METAR VAAU 180000Z 00000KT 2000 BR NSC 15/13 Q1016 NOSIG=

338 
SPCN46 CWAO 180003
SPECI CYLH 180003Z AUTO 34010G19KT 1 1/4SM -SN FEW030 BKN120 OVC140 M12/M14 A2936 RMK SLP966=


339 
SPCN47 CWAO 180003
SPECI CYTL 180003Z AUTO 35012G22KT 2 1/4SM -SN SCT033 OVC046 M22/M25 A2963 RMK SLP065=


340 
SPCN46 CWAO 180003
SPECI CZSJ 180003Z AUTO 32015G22KT 6SM HZ OVC026 M21/M24 A2980 RMK SLP127=


341 
SAZZ40 KAWN 180000 RRB
METAR BIAR 180000Z 04005KT 320V090 9999 OVC052 M00/M05 Q1011=
METAR CWAE 180000Z 00000KT 15SM SKC M01/M08 A3039 RMK LAST OB/NXT 181500Z
      SLP320=
METAR CYPC 180000Z VRB04KT 15SM SKC M22/M29 A3083 RMK LAST STFD OBS/
      NEXT 181400 SLP441=
METAR KNCA 172356Z 13003KT 10SM CLR 03/01 A3018 RMK SLP221 T00330011
      10111 20033 50005=
METAR KNYG 172356Z AUTO 18004KT 10SM CLR 03/ A3014 RMK AO2 SLP207 T0033
      10067 20033 53003 $=
METAR NTTO 180000Z AUTO 26005KT 230V310 //// // SCT014/// BKN038///
      BKN220/// 28/24 Q1013=
METAR OEMA 180000Z 01004KT CAVOK 17/M01 Q1020 NOSIG=
METAR OEPA 180000Z 00000KT CAVOK 09/01 Q1019 NOSIG=
METAR OERF 180000Z 25003KT CAVOK 07/M01 Q1020 NOSIG=
METAR OERK 180000Z 30006KT CAVOK 11/00 Q1020 NOSIG=
METAR OERR 180000Z 33006KT CAVOK 07/00 Q1021 NOSIG=
METAR OESK 180000Z 34005KT CAVOK 08/M02 Q1024 NOSIG=
METAR OETB 180000Z 00000KT CAVOK 08/M08 Q1021 NOSIG=
METAR OETR 180000Z 02010KT CAVOK 05/M01 Q1022 NOSIG=
METAR OEWJ 180000Z 35004KT CAVOK 19/10 Q1014 NOSIG=
METAR OEYN 180000Z 29006KT CAVOK 21/13 Q1011 NOSIG=
METAR OTBH 172355Z 25009KT 9000 HZ CLR 14/07 A2999 Q1015 RMK AO2A SLP157
      T01380073 10182 20138 55002 FZRANO $=
METAR SECU 180000Z 25007KT 9999 -DZ BKN023 BKN070 14/12 Q1026=
METAR TBPB 180000Z 06009KT 9999 VCSH SCT016 26/23 Q1016 NOSIG=
METAR TFFF 180000Z AUTO 09007KT CAVOK 26/22 Q1017 NOSIG=
METAR TFFR 180000Z AUTO 09007KT //// R12///// // FEW037 26/22 Q1017=
METAR TNCE 172355Z AUTO 07012KT //// // ///////// 26/22 Q1018 RE//=
METAR WSAP 180000Z 34005KT 9999 FEW016 BKN150 26/23 Q1010=
METAR WSSS 180000Z 33008KT 7000 FEW015 BKN150 25/24 Q1009 NOSIG=


342 
SAXN17 KAWN 180000 RRA
METAR MDSD 180000Z 04005KT 9999 BKN018 25/23 Q1018=
METAR MGGT 180000Z 030008KT 9999 FEW018 21/11 Q1022 A3018=
METAR MGSJ 180000Z 27006KT CAVOK 28/// Q1014 A2994=
METAR MKJP 180000Z 34018KT 9999 FEW022 SCT040 28/22 Q1016=
METAR MMLP 172345Z 34006KT 10SM BKN100 BKN200 23/13 A3011 RMK SLP193
      57004 960 8/038=
METAR MMOX 172346Z 20005KT 10SM FEW030 SCT210 27/04 A3016 RMK SLP102
      57025 990 8/502=
METAR MRPV 180000Z 11008KT 9999 FEW040 22/16 A3009 NOSIG=
METAR MSSS 180000Z 17007KT CAVOK 26/18 Q1016 A3002=
METAR MUGM 172351Z 05009KT 10SM FEW030 FEW060 27/22 A3006 RMK AO2 SLP178
      T02670222 10300 20267 53012 $=
METAR MYGF 180000Z 13004KT 9999 VCSH FEW018 BKN040 20/17 A3010=
METAR MZBZ 180000Z 14003KT 9999 FEW023 26/24 A2998 Q1015 NOSIG=
METAR NWWW 180000Z AUTO 21005KT 170V250 CAVOK 31/23 Q1007 NOSIG=
METAR PASV 172355Z AUTO 12017G26KT 10SM SCT070 SCT080 BKN210 04/M05
      A2985 RMK AO2 PK WND 14032/2314 SLP123 T00421051 10041 20018
      52016=
METAR SKBO 180000Z 23007KT 9999 SCT020 SCT070 14/12 Q1027 NOSIG=
METAR SKBQ 180000Z 03009KT 350V050 9999 FEW015 27/23 Q1012 NOSIG=
METAR SKCG 180000Z 01006KT 340V070 CAVOK 27/24 Q1011=
METAR SKCL 180000Z 33009KT 9999 SCT025 SCT120 25/18 Q1014 NOSIG=
METAR SKLT 180000Z VRB02KT 9999 SCT020 27/25 Q1008=
METAR SOCA 180000Z AUTO 08004KT 050V110 9999 FEW023 26/22 Q1014 NOSIG=
METAR TBPB 180000Z 06009KT 9999 VCSH SCT016 26/23 Q1016 NOSIG=
METAR TFFF 180000Z AUTO 09007KT CAVOK 26/22 Q1017 NOSIG=
METAR TFFR 180000Z AUTO 09007KT //// R12///// // FEW037 26/22 Q1017=
METAR TNCB 172355Z 07005KT 9999 FEW045 26/24 Q1015=
METAR TNCE 172355Z AUTO 07012KT //// // ///////// 26/22 Q1018 RE//=


383 
SARS33 UUUJ 180000
METAR ULLI 180000Z 24005MPS 200V280 9999 BKN011 BKN020 03/01 Q1007
R28L/290050 NOSIG=
METAR UUDD 180000Z 28005MPS 9999 OVC007 01/00 Q1015 R32L/290042
NOSIG=
METAR UUDL 180000Z 27005MPS 9999 OVC005 01/M00 Q1011 R23/290353 NOSIG
RMK QBB150 QFE750=
METAR UUEE 180000Z 26006MPS 9999 OVC004 01/M00 Q1014 R24L/250140
R24C/250140 NOSIG=
METAR UUWW 180000Z 28006MPS 9999 OVC004 00/M00 Q1015 R24/250050
NOSIG=


384 
SARS36 UUUJ 180000
METAR ULAA 180000Z 24004MPS 170V280 3800 -SNRA BR OVC003 01/01 Q0993
R26/690141 NOSIG RMK QBB100 QFE743/0991=
METAR ULMM 180000Z 16002MPS 8000 -SHRA BKN012CB 01/01 Q0982
R13/690140 NOSIG RMK QFE730=
METAR ULOO 180000Z 22004MPS 9999 BKN016 03/02 Q1014 NOSIG RMK QFE756=
METAR ULPB 180000Z AUTO 22008G13MPS 9999 // ///006/// 02/01 Q0999 RMK
QBB200 QFE746/0994=
METAR UMKK 180000Z 26008MPS 9999 BKN008 04/02 Q1027 R24/CLRD95 NOSIG
RMK QFE769/1026=
METAR UUOO 180000Z 32004MPS 9999 OVC010 02/02 Q1016 R12/290150 NOSIG
RMK QFE748=
METAR UUYY 180000Z 21004MPS 4900 BR OVC003 M07/M07 Q1002 R18/390333
NOSIG RMK QBB100 QFE743/0991=


385 
SARA32 UUUJ 180000
METAR UHBB 180000Z VRB01MPS 9999 FEW033 M22/M25 Q1013 R36/810255
NOSIG RMK QFE742/0989=
METAR UHHH 180000Z 18002MPS 160V220 9000 NSC M21/M25 Q1022 R88/820255
NOSIG RMK QFE760/1014=
METAR UHPP 180000Z 36004MPS CAVOK M14/M20 Q1007 R34L/CLRD60 NOSIG RMK
QFE752/1003=
METAR UHWW 180000Z 00000MPS 9999 NSC M13/M16 Q1024 R25L/0///70 NOSIG
RMK QFE767=
METAR UHMA 180000Z 36006MPS CAVOK M30/M33 Q1006 R02/////// NOSIG RMK
MID 36007G10MPS END R02/35007MPS QFE751/1001=
METAR UHMD 180000Z NIL=
METAR UHMM 180000Z 11001MPS 9999 NSC M26/M29 Q1008 R10/490357 NOSIG
RMK QFE741 R28/09004MPS=
METAR UHSS 180000Z 35004MPS 9999 NSC M13/M16 Q1021 R01/810360 NOSIG
RMK QFE764/1019=


386 
SARA34 UUUJ 180000
METAR UNAA 180000Z 25002MPS 190V270 6000 NSC M08/M09 Q1013 R20/190059
NOSIG RMK QFE738=
METAR UNBB 180000Z 25011MPS 9999 SCT020 M05/M09 Q1014 R24/450332
NOSIG RMK QFE738=
METAR UNEE 180000Z 22006MPS 4100 -SN FEW008 OVC038 M04/M04 Q1009
R23/490535 NOSIG RMK QFE734=
METAR UNKL 180000Z 08002MPS 4700 -SHSN SCT049CB M08/M09 Q1012
R29/490237 NOSIG RMK QFE733=
METAR UNNT 180000Z 23006MPS 9999 -SN OVC026 M04/M07 Q1010 R25/490237
R34/////// NOSIG RMK QFE748/0997=
METAR UNOO 180000Z 25001MPS 9999 SCT030 M13/M15 Q1011 R25/490545
NOSIG RMK QFE750=
METAR UNTT 180000Z 20003MPS 3800 -SHSN SCT010 BKN029CB M06/M07 Q1008
R21/490238 NOSIG RMK QFE741=
METAR UNWW 180000Z 23008MPS 8000 -SHSN DRSN SCT013 OVC026CB M01/M03
Q1011 R19/490535 NOSIG RMK QFE731=
METAR USTR 180000Z 23003MPS 9999 -SN BKN017 M19/M21 Q1010 R21/450548
R30/450548 TEMPO 0500 -SN FZFG VV003=
METAR USHH 180000Z 18003MPS 6000 -SN BKN013 M18/M22 Q1005 R24/490242
TEMPO 0500 FZFG OVC002=


387 
SARA36 UUUJ 180000
METAR UWUU 180000Z 16003MPS 9999 OVC012 M10/M13 Q1012 R14R/811050
NOSIG=
METAR USCC 180000Z 00000MPS 9999 BKN040 M16/M17 Q1010 R27/420350
NOSIG RMK QFE738=
METAR USNN 180000Z 21001MPS 9000 -SN OVC013 M20/M22 Q1007 R21/490248
NOSIG RMK QFE750=
METAR USRR 180000Z 24002MPS 6000 BKN011 M16/M18 Q1005 R25/35//42 RMK
QFE749=
METAR USSS 180000Z 20002MPS CAVOK M17/M18 Q1009 R26L/450145 NOSIG RMK
QFE736/0982=


389 
SAMC31 GMMC 180000 RRA
METAR GMFO 180000Z VRB02KT 9999 FEW033 05/04 Q1025 NOSIG=


390 
SAFR35 LFPW 180000 RRA
METAR LFRG 180000Z AUTO 11006KT 4200 BR OVC005 01/00 Q1033=


391 
SAFR37 LFPW 180000 RRA
METAR LFOV 180000Z AUTO 06004KT 3700 BR OVC005 00/00 Q1032=
METAR LFRI 180000Z AUTO 05006KT 5000 BR NSC M02/M02 Q1031=
METAR LFRM 180000Z AUTO 05006KT 030V090 6000 OVC007 02/01 Q1032=
METAR LFRV 180000Z AUTO 04006KT 6000 NSC 01/01 Q1031=


395 
SANZ31 NZKL 180000
METAR NZAA 180000Z AUTO 05011G21KT 020V090 9999 BKN046/// OVC055///
23/12 Q1012=
METAR NZWN 180000Z AUTO 20011KT 9999 FEW046/// 18/14 Q1015=
METAR NZCH 180000Z AUTO 05015KT 9999 FEW030/// BKN035/// 19/10 Q1015=


396 
SAKO31 RKSI 180000
METAR RKSI 180000Z 05003KT CAVOK M02/M04 Q1027 NOSIG=
METAR RKSS 180000Z 30003KT CAVOK M03/M04 Q1027 NOSIG=
METAR RKPC 180000Z 16005KT 100V180 CAVOK 05/M01 Q1026 NOSIG=
METAR RKPK 180000Z 32002KT CAVOK M01/M06 Q1026=
METAR RKTU 180000Z 09001KT CAVOK M07/M08 Q1027=
METAR RKTN 180000Z 33001KT CAVOK M04/M08 Q1027=
METAR RKJB 180000Z 06003KT CAVOK M03/M06 Q1026 NOSIG=
METAR RKNY 180000Z 27008KT CAVOK 04/M14 Q1023 NOSIG=


397 
SARS35 UUUJ 180000
METAR USPP 180000Z 23005MPS 9999 -SN OVC011 M11/M12 Q1008 REFZDZ
R21/690343 NOSIG RMK QFE745=
METAR UWKD 180000Z 14002MPS 2800 BR OVC006 M05/M06 Q1008 R11/490145
NOSIG RMK QFE746/0995=
METAR UWKE 180000Z 20002MPS 9999 SCT011 OVC023 M07/M08 Q1008
R21/410260 NOSIG RMK QFE740/0986=
METAR UWKS 180000Z 36003MPS 5000 BR OVC006 M03/M03 Q1009 R24/490337
NOSIG RMK QFE742=
METAR UWLW 180000Z 00000MPS 4900 BR OVC016 M04/M04 Q1009 R20/850537
NOSIG RMK QFE751/1002=
METAR UWOR 180000Z 22002MPS CAVOK M12/M14 Q1012 R25/820250 NOSIG RMK
QFE736/0981=
METAR UWOO 180000Z 12004MPS 9999 OVC005 M11/M12 Q1012 R08/850250
NOSIG RMK QBB170 QFE748/0998=
METAR UWSG 180000Z 33003MPS 9999 BKN020 01/00 Q1009 R26/290250 NOSIG
RMK QFE754/1005=
METAR UWWW 180000Z 09003MPS 9999 OVC007 M04/M05 Q1008 R15/450142
NOSIG RMK QFE745/0993=


398 
SARA39 UUUJ 180000
METAR UERP 180000Z 19001MPS CAVOK M31/M34 Q0997 R36/850240 NOSIG RMK
QFE703=
METAR UERR 180000Z VRB01MPS 9999 -SN SCT006 M31/M34 Q1003 R25/490332
NOSIG RMK QFE721/0962=
METAR UOOO 180000Z 11003MPS 9999 -SN OVC039 M19/M22 Q0993 R19/490535
NOSIG RMK QFE729/0972=


399 
SARA33 UUUJ 180000
METAR UIAA 180000Z 20005MPS 9999 NSC M09/M15 Q1009 R29/410152 NOSIG
RMK QFE698/0931=
METAR UIBB 180000Z 25003MPS 9000 -SHSN BKN012CB M10/M12 Q1013
R30/450145 NOSIG RMK MT OBSC QFE717/0956=
METAR UIII 180000Z 08002MPS CAVOK M17/M20 Q1015 R12/810350 NOSIG RMK
QFE719/0959=
METAR UIUU 180000Z 06002MPS 3600 FU NSC M24/M26 Q1018 R26/821055
NOSIG RMK QFE719/0959=


400 
SAUZ31 UTTW 180000
METAR UTFN 180000Z VRB02KT 2400 BR NSC M01/M03 Q1019 R28/CLRD70
NOSIG=
METAR UTNN 180000Z 21006KT 9999 OVC040 00/M02 Q1019 R33/290050 NOSIG=
METAR UTNU 180000Z 25008KT 9999 OVC010 04/02 Q1019 R31/19//55 NOSIG=
METAR UTSA 180000Z 28004KT 9999 BKN036 M01/M02 Q1021 R25/CLRD70
NOSIG=
METAR UTSB 180000Z 33002KT CAVOK M02/M03 Q1021 R01/CLRD70 NOSIG=
METAR UTSK 180000Z 33004KT 4600 BR OVC040CB 01/01 Q1020 R16/290050=
METAR UTSS 180000Z VRB02KT 5000 -SHRA BR OVC005CB 02/01 Q1018
R27/29//50 NOSIG RMK BASE500=
METAR UTST 180000Z 24010KT 4400 BR BKN066CB 05/02 Q1019 R25/CLRD70
NOSIG=
METAR UTFA 180000Z NIL=
METAR UTFF 180000Z 26004KT 6000 NSC M02/M06 Q1018 R18/CLRD70=
METAR UTTT 180000Z 33006KT 3000 -SHRA BR OVC004CB 04/03 Q1019
R08R/29//50 NOSIG RMK BASE460=


401 
SARS32 UUUJ 180000
METAR URKA 180000Z 31003MPS 8000 SCT007 BKN020CB 02/02 Q1023
R03/290155 TEMPO 1000 TSRASN SCT003 BKN015CB RMK QFE764/1018=
METAR URKK 180000Z 28007MPS 5000 -RA BR BKN007 OVC019 04/03 Q1022
R23L/290060 TEMPO 0200 -TSRA FG BKN002 BKN016CB RMK QFE763=
METAR URMG 180000Z 00000MPS 9000 SCT034 BKN072 02/01 Q1020 R26/190060
NOSIG RMK QFE750/1000=
METAR URML 180000Z 29005MPS 250V320 9999 FEW037 07/01 Q1020
R32/01//70 NOSIG RMK QFE764/1019=
METAR URMM 180000Z 28008MPS 9999 -SHRA OVC020CB 04/00 Q1018
R29/290150 NOSIG RMK MT OBSC QFE735/0980=
METAR URMN 180000Z 01003MPS 9999 OVC081 02/00 Q1017 R24/////// NOSIG
RMK QFE726=
METAR URMO 180000Z 33001MPS 7000 OVC075 00/M01 Q1018 R09/190060 TEMPO
0300 FZFG BKN002 RMK QFE720/0960=
METAR URMT 180000Z 32012G17MPS 9999 -RA OVC006 02/01 Q1017 R25/190060
NOSIG RMK QFE724=
METAR URRP 180000Z 29005MPS 9999 FEW009 BKN019 01/01 Q1018 R23/290049
NOSIG RMK QFE756/1008=
METAR URSS 180000Z 08003MPS 9999 -SHRA SCT014 OVC030CB 05/04 Q1027
R06/290060 R02/////// NOSIG RMK R02/06002MPS MT OBSC QFE770=
METAR URWA 180000Z 28007MPS 9999 OVC007 01/01 Q1013 R27/290052 TEMPO
1000 RASN BKN003 OVC020 RMK OBST OBSC QFE762/1016=
METAR URWI 180000Z AUTO 29011MPS 9999 // ///009/// 01/M01 Q1014=
METAR URWW 180000Z 29007MPS 9999 -SHSN BKN003 OVC025CB 01/01 Q1011
R23/290050 TEMPO 0500 +SHSN FZRA BKN001 BKN020CB OVC030 RMK OBST
OBSC=


402 
SABY31 UMMN 180000
METAR UMBB 180000Z NIL=
METAR UMGG 180000Z 28006MPS 3500 -DZ BR OVC005 02/02 Q1024 TEMPO 2500
RMK QBB160=
METAR UMII 180000Z NIL=
METAR UMMG 180000Z NIL=
METAR UMMS 180000Z 28005MPS 9999 OVC007 03/02 Q1023 NOSIG=
METAR UMOO 180000Z NIL=


403 
SARS39 UUUJ 180000
METAR UUBW 180000Z 26004MPS 9999 OVC010 02/02 Q1015 R30/010060 NOSIG
RMK QFE751=
METAR UUOL 180000Z AUTO 33004MPS 9999 UP ///034 02/01 Q1016=


404 
SARA35 UUUJ 180000
METAR USCM 180000Z 00000MPS 9999 FEW040 M17/M18 Q1009 R18/090060
TEMPO 0300 FZFG VV002 RMK QFE719=


405 
SARA31 UUUJ 180000
METAR UEEE 180000Z 00000MPS 0350 0250NE R23/0400N FG VV004 M42/M46
Q1010 R23/490148 NOSIG RMK QBB120 QFE749=
METAR USDA 180000Z 10004MPS 9000 -SN SCT008 M23/M25 Q0990 NOSIG RMK
QFE741/0988=


406 
SARS31 UUUJ 180000
METAR ULWC 180000Z NIL=
METAR UUBC 180000Z 28004MPS 6000 OVC005 01/00 Q1017 R31/290150 NOSIG
RMK QFE746/0994=
METAR UUBP 180000Z NIL=
METAR UUOB 180000Z 32004MPS 9999 OVC006 01/01 Q1020 R29/290060 NOSIG=
METAR UUOK 180000Z AUTO 32004MPS 9999 // ///007/// 01/00 Q1020 RMK
QBB210 QFE746/0995=
METAR UWGG 180000Z 29002MPS 9999 OVC008 00/M00 Q1011 R36R/590138
NOSIG=
METAR UWLL 180000Z 02001MPS 0350 0300S R02/0800N FZFG OVC002 M02/M02
Q1009 R02/850239 NOSIG RMK QBB070 QFE744/0992=
METAR UWPS 180000Z 34005MPS 9000 -SN OVC005 00/M00 Q1010 R02/290351
NOSIG RMK QBB150 QFE738=


541 
SAEW KAWN 180000 RRA
METAR EBCV 172355Z AUTO 08003KT 0500 FZFG OVC005/// M01/M01 Q1034 RED=
METAR LFAT 180000Z AUTO 12005KT 090V160 3600 BR OVC003 01/00 Q1034=
METAR LFBA 180000Z AUTO 00000KT 0500 0450 R29/0900U FZFG VV/// M03/M03
      Q1029=
METAR LFBC 180000Z AUTO 05002KT 9000 NSC M02/M03 Q1030=
METAR LFBI 180000Z AUTO 02007KT 0400 R21/0450N FZFG VV/// M01/M01 Q1031
      TEMPO 0300 FZFG=
METAR LFKB 180000Z AUTO 30006KT 280V340 9999 // FEW031 SCT190 08/03
      Q1025=
METAR LFKC 180000Z AUTO VRB04KT CAVOK 09/04 Q1024=
METAR LFLN 180000Z AUTO 08003KT 050V110 5000 BR OVC004 M01/M02 Q1030=
METAR LFLX 180000Z AUTO 04007KT 0600 R21/0750N FZFG VV/// M01/M01 Q1031=
METAR LFMO 180000Z AUTO 32004KT 310V020 CAVOK 01/M02 Q1028 NOSIG=
METAR LFOE 180000Z AUTO 05006KT 020V080 0800 0600 R22/1000U FZFG VV///
      M01/M01 Q1033 NOSIG=
METAR LFOP 180000Z AUTO 07005KT 050V110 0750 0650 R22/0900N FZFG VV///
      M01/M01 Q1033=
METAR LFPM 180000Z AUTO 06003KT 010V100 3000 BR OVC003 M00/M00 Q1033=
METAR LFPN 180000Z AUTO 07006KT 1500 1200 R25R/1600U BR VV/// M01/M01
      Q1033=
METAR LFPO 180000Z AUTO 06006KT 030V090 4100 BR OVC003 M00/M01 Q1033
      TEMPO 0800 FG BKN001=
METAR LFPV 180000Z AUTO 07005KT 0700 0650 R27/0750N R09/1000U FZFG
      VV/// M01/M01 Q1032 TEMPO 0300 FZFG=
METAR LFRK 180000Z AUTO 13005KT 8000 OVC009/// 02/00 Q1033=
METAR LFRN 180000Z AUTO 36002KT 0650 0400 R28/0750D R10/0900D FZFG
      NSC M02/M02 Q1033 TEMPO 0300 FZFG VV///=
METAR LFSD 180000Z AUTO 04005KT 7000 OVC014 01/M01 Q1031=
METAR LFSX 180000Z AUTO VRB02KT 4600 BR OVC021 M01/M01 Q1031=
METAR LFYR 180000Z AUTO 05006KT 010V080 3800 BR OVC003 M01/M01 Q1032=


542 
SAUS14 KAWN 180000 RRG
METAR K7BM 172354Z AUTO 26010G16KT 230V290 10SM CLR M02/M14 A2978 RMK
      AO2=
METAR KC99 172349Z AUTO 00000KT 7SM SCT008 BKN017 OVC043 M10/M12 A2977
      RMK AO2=
METAR KGCD 172356Z AUTO 31005KT 10SM BKN050 OVC055 01/M09 A3025 RMK
      AO2=
METAR KHVE 172350Z AUTO 00000KT 10SM CLR 05/M12 A2992 RMK AO2=
METAR KNOW 172350Z AUTO 18005KT 10SM CLR 06/04 A3048 RMK AO2 T00560038
      10062 20049=
METAR KNUW 172353Z 33010KT 10SM SCT030 SCT050 06/01 A3047 RMK AO2 SLP322
      T00610011 10072 20044 55001 $=
METAR KOAR 172355Z AUTO 29006KT 10SM BKN019 10/06 A3021 RMK AO2=
METAR KPNA 172355Z AUTO 28012KT 10SM SCT032 BKN065 OVC075 M06/M09 A2983
      RMK AO2=
METAR KPOY 172355Z AUTO 34010KT 4SM -SN SCT020 SCT030 BKN070 M11/M13
      A3005 RMK AO2=
METAR KPVW 172355Z AUTO 36012KT 10SM CLR 12/M07 A2968 RMK AO2 T01241070
      10173 20124=
METAR KRBO 172355Z AUTO 17009KT 10SM CLR 20/17 A2981 RMK AO2 T02030170
      10239 20203=
METAR KSBS 172355Z AUTO 17005KT 10SM BKN070 OVC080 M03/M09 A2978 RMK
      AO1 T10301090 11003 21096=
METAR KSOA 172355Z AUTO 00000KT 10SM CLR A2983 RMK AO2=
METAR KTMT 172350Z AUTO 32009KT 10SM CLR 07/M11 A3010 RMK AO2 T00701114=
METAR KW43 172350Z AUTO 34012G17KT 3SM -SN BKN012 OVC020 M07/M10 A3004
      RMK AO2=
METAR KXBP 172350Z AUTO 19010KT 10SM CLR 19/02 A2958 RMK AO2 T01900022
      10199 20137=
METAR PFCB 172350Z AUTO 36005KT 4SM SCT022 OVC028 05/04 A3037 RMK AO2
      P0005 60023 T00450039 10050 20037 PWINO=


543 
SAEW KAWN 180000 RRC
METAR LFBD 180000Z AUTO 26002KT 4600 0600 R23/P2300 R05/0900U R29/P2300
      BCFG NSC M02/M02 Q1030 TEMPO 1500 MIFG=
METAR LFBG 180000Z AUTO VRB02KT 7000 NSC 00/M00 Q1031=
METAR LFBM 180000Z AUTO 09002KT CAVOK M02/M02 Q1030 TEMPO 0650 FG VV///=
METAR LFGJ 180000Z AUTO 13001KT 5000 BR OVC012 00/M00 Q1030=
METAR LFKF 180000Z AUTO 05013KT CAVOK 10/03 Q1021=
METAR LFKJ 180000Z AUTO 14002KT 9999 FEW088 BKN160 OVC200 10/05 Q1021
      NOSIG=
METAR LFLL 180000Z 34003KT 320V020 1300 R35L/1500D R17R/P2000 R35R/1200D
      R17L/1800U BR OVC001 M02/M02 Q1031 TEMPO VV///=
METAR LFLY 180000Z AUTO 32003KT 290V350 2800 BR OVC002 M02/M02 Q1031
      TEMPO 0600 FZFG VV///=
METAR LFMD 180000Z AUTO 36005KT 330V030 CAVOK 02/M01 Q1026=
METAR LFMK 180000Z AUTO 24006KT 210V270 CAVOK 04/01 Q1029=
METAR LFML 180000Z AUTO 14003KT 9000 NSC 01/M02 Q1026 NOSIG=
METAR LFMT 180000Z AUTO 36003KT CAVOK 02/M02 Q1028 NOSIG=
METAR LFMU 180000Z AUTO 28003KT 250V310 CAVOK M01/M03 Q1028=
METAR LFOB 180000Z AUTO 08005KT 040V100 2600 BR OVC001 M01/M01 Q1033
      TEMPO 0200 FZFG VV///=
METAR LFOH 180000Z AUTO 09004KT 4600 BR OVC006 01/00 Q1033=
METAR LFPB 180000Z AUTO 04007KT 020V080 7000 OVC005 M01/M01 Q1034=
METAR LFQQ 180000Z AUTO VRB03KT 1300 1100 R26/1300D R08/2000N BR VV///
      00/00 Q1034 TEMPO 0200 FZFG=
METAR LFRD 180000Z AUTO 10004KT 4300 BR OVC009 02/02 Q1033 TEMPO 0300
      FZFG VV///=
METAR LFSI 180000Z AUTO 07006KT 040V100 9999 OVC012 01/M01 Q1032=
METAR LFSL 180000Z AUTO 00000KT CAVOK M03/M04 Q1028=
METAR LFSN 180000Z AUTO 06009KT 8000 OVC013 01/M01 Q1032=
METAR LFSO 180000Z AUTO 06010KT 040V100 9000 OVC010 00/M02 Q1031=


544 
SAEW KAWN 180000 RRB
METAR LFBE 180000Z AUTO 00000KT 4400 BR NSC M04/M05 Q1030=
METAR LFBL 180000Z AUTO 02006KT CAVOK 01/M01 Q1028 TEMPO 2000 BR=
METAR LFBO 180000Z AUTO 18004KT 5000 BR NSC M01/M01 Q1029 TEMPO 2000
      BR=
METAR LFBP 180000Z AUTO VRB02KT 5000 BR NSC M00/M01 Q1029 NOSIG=
METAR LFBY 180000Z AUTO 05003KT 010V070 7000 // ////// 02/01 Q1030=
METAR LFBZ 180000Z AUTO 08005KT CAVOK 02/02 Q1029 TEMPO 0500 FG VV///=
METAR LFCR 180000Z AUTO 14001KT CAVOK M04/M05 Q1027 NOSIG=
METAR LFJL 180000Z AUTO 07009KT 7000 OVC008 00/M01 Q1032 TEMPO 0500
      FZFG VV///=
METAR LFLB 180000Z AUTO VRB02KT 5000 BR FEW006 OVC022 01/M00 Q1031=
METAR LFLC 180000Z AUTO VRB02KT 5000 BR OVC013 01/M01 Q1029 TEMPO OVC007=
METAR LFLS 180000Z AUTO VRB02KT 2700 1000 R09/P2400 R27/1200D BR OVC002
      M02/M02 Q1029=
METAR LFMH 180000Z AUTO 33003KT 5000 BR OVC003 M03/M03 Q1029=
METAR LFMN 180000Z 33010KT CAVOK 07/M03 Q1026 NOSIG=
METAR LFMP 180000Z AUTO 28006KT 230V320 CAVOK 07/M03 Q1027=
METAR LFOT 180000Z AUTO 04006KT 350V070 1900 BR VV/// M00/M00 Q1032=
METAR LFPG 180000Z AUTO 07006KT 4300 BR OVC003 M01/M01 Q1033=
METAR LFRB 180000Z AUTO 14005KT 7000 NSC 02/02 Q1031 BECMG 4000 BR=
METAR LFRL 180000Z AUTO 11004KT CAVOK 03/02 Q1031=
METAR LFRS 180000Z AUTO 03003KT 4300 BR NSC M01/M02 Q1032 BECMG 2000
      BR OVC002=
METAR LFSB 180000Z AUTO 09006KT 050V130 9999 OVC018 01/M02 Q1031 TEMPO
      0400 FZFG VV///=
METAR LFST 180000Z AUTO 01005KT 7000 OVC023 01/M00 Q1032 TEMPO 0300
      FZFG VV///=
METAR LFTH 180000Z AUTO 31007KT CAVOK 06/01 Q1026 NOSIG=
METAR LFTW 180000Z AUTO 03006KT CAVOK 04/M02 Q1027=


545 
SAZZ40 KAWN 180000 RRC
METAR BIEG 180000Z 05016KT 7000 -SN SCT020 OVC030 01/M03 Q1012=
METAR BIKF 180000Z 06015KT 9999 -RASN OVC011 02/00 Q1000=
METAR BIRK 180000Z 07013KT 9999 BKN033 03/M01 Q1000=
METAR KNIP 172353Z 11005KT 10SM FEW250 11/06 A3011 RMK AO2 SLP193 T01110056
      10178 20111 53004=
METAR KNUW 172353Z 33010KT 10SM SCT030 SCT050 06/01 A3047 RMK AO2 SLP322
      T00610011 10072 20044 55001 $=
METAR LKKV 180000Z 07004KT 040V110 3300 BR OVC003 M03/M04 Q1034=
METAR MUCF 172350Z AUTO 21004KT 24/21 Q1017=
METAR MUCL 172350Z 18006KT 150V210 9000 BKN020 25/21 Q1016=
METAR MUCM 172350Z 06006KT 9000 FEW020 23/19 Q1018=
METAR MUCU 172350Z 12009KT 090V150 9000 FEW020 26/22 Q1018=
METAR MUGM 172351Z 05009KT 10SM FEW030 FEW060 27/22 A3006 RMK AO2 SLP178
      T02670222 10300 20267 53012 $=
METAR MUHA 172350Z VRB03KT 9000 BKN025 BKN040 24/20 Q1017=
METAR MUHG 172350Z 07008KT CAVOK 23/20 Q1018=
METAR MUVR 172350Z 20006KT 150V220 9999 FEW020 BKN030 24/21 Q1016=
METAR MYNN 180000Z 12006KT 010V130 9999 SCT022 SCT035 BKN080 23/18
      A3012 PKWND-08KT=
METAR NTAA 180000Z AUTO 36006KT 9999 FEW066/// BKN076/// ///CB 31/25
      Q1011 TEMPO 30015G25KT 2500 TSRA=
METAR OIII 180000Z 14010KT 9999 FEW035CB BKN090 05/M03 Q1019 A3009
      NOSIG=
METAR OIKB 180000Z 28006KT 4000 HZ NSC 18/12 Q1012 A2991=
METAR OIZH 180000Z 29004KT 9999 FEW040 BKN100 05/01 Q1015 A2999=
METAR TKPK 180000Z 05010KT 9999 FEW020 25/22 Q1018=
METAR TNCA 180000Z 11007KT 7000 SHRA FEW010TCU SCT030 24/23 Q1015 RERA
      NOSIG=
METAR TNCB 172355Z 07005KT 9999 FEW045 26/24 Q1015=


546 
SAKU31 NCRG 180000
METAR NCRG 180000Z AUTO 35004KT 310V060 9999 BKN033/// BKN065///
28/23 Q1010=


547 
SAPS31 NZKL 180000
METAR NIUE 180000Z AUTO 22005KT 170V270 9999 BKN031/// 29/23 Q1009=


548 
SACO20 SKBO 180000 CCA
METAR COR SKCO 180000Z 27006KT 9999 SCT041 27/23 Q1012=


549 
SAID31 WIII 180000
METAR
WAAA 180000Z VRB02KT 9999 SCT018 26/25 Q1009 NOSIG=
WABB 180000Z 17003KT 9999 FEW015 31/25 Q1009 NOSIG=
WADD 180000Z 28010KT 9999 FEW017 29/26 Q1006 NOSIG=
WARR 180000Z 27009KT 5000 HZ FEW020 26/25 Q1007 NOSIG=
WIDD 180000Z 02008KT 9000 BKN014 26/24 Q1010 NOSIG=
WIHH 180000Z 24011KT 6000 -RA BKN018 25/23 Q1009 NOSIG=
WIII 180000Z 24009KT 5000 -RA SCT020 24/23 Q1009 NOSIG=
WIMM 180000Z 23005KT 8000 -RA BKN017 23/23 Q1009 NOSIG=


592 
SAIN90 VIDP 180000
METAR VIDP 180000Z 25005KT 0400 R28/2000 R27/2000 R29R/2000 R29L/2000
FG FEW100 11/10 Q1018 NOSIG=

599 
SAPO32 LPMG 180000
METAR LPAZ 180000Z 14012KT 5000 -RA BR FEW002 BKN004 17/17 Q1019=
METAR LPPD 180000Z 25002KT 5000 -DZ BR SCT003 BKN008 17/16 Q1019=


601 
SANZ32 NZKL 180000
METAR NZQN 180000Z AUTO 26007KT 210V320 9999 NCD 22/12 Q1012=


602 
SAPO31 LPMG 180000
METAR LPFR 180000Z 02006KT CAVOK 09/04 Q1025=
METAR LPMA 180000Z 33006KT 280V010 9999 BKN015 SCT030 17/07 Q1026=
METAR LPPR 180000Z 11009KT CAVOK 08/01 Q1027=
METAR LPPS 180000Z 31005KT 9999 FEW015 BKN030 16/07 Q1026=
METAR LPPT 180000Z 35005KT CAVOK 07/03 Q1027=


830 
SPAK40 KNKA 180004
SPECI PAAK 180003Z AUTO 08003KT 8SM BKN003 BKN019 OVC024 04/04 A2897 
    RMK AO2 TSNO=


944 
SASR31 WSSL 180000
METAR WSSL 180000Z 36004KT 330V050 9999 FEW016
BKN160 25/24 Q1009=

038 
SAPO33 LPMG 180000
METAR LPBJ 180000Z 07004KT CAVOK 06/02 Q1026=
METAR LPCS 180000Z NIL=


098 
SACA00 KMSC 180004
METAR TJPS 172355Z AUTO 10005KT 10SM 28/22 A3007 RMK AO2 PWINO=


197 
SPCN47 CWAO 180004
SPECI CYHD 180004Z AUTO 32014G24KT 280V020 9SM -SN FEW025 SCT032 OVC045 M12/M16 A2964 RMK PRESRR SLP074=


242 
SAAJ31 UBBB 180000
METAR UBBL 180000Z 00000KT 8000 BKN040 07/07 Q1023
NOSIG=


243 
SAGG41 UGTB 180000
METAR UGAM 180000Z AUTO VRB01KT //// ////// 01/01 Q1025=
METAR UGMS 180000Z AUTO 00000KT //// ////// M04/M05 Q1021=


244 
SAGG31 UGTB 180000
METAR UGKO 180000Z 31006KT 9999 SCT021 OVC038 04/04 Q1028 NOSIG=
METAR UGSB 180000Z 14005KT 9999 -RA BKN026 06/04 Q1030 NOSIG=
METAR UGTB 180000Z 30021KT 9999 FEW031 04/M02 Q1022 NOSIG=


508 
SAIN90 VOCB 180000
METAR VOCB 180000Z VRB03KT 2000 BR FEW015 20/18 Q1014 NOSIG=

600 
SPAU33 YBBN 180004
SPECI YHID 180004Z AUTO 35007KT 9999 // BKN012 27/25 Q1009=


601 
SAIR32 OIII 180000 RRA
METAR OIAA 180000Z 30010KT CAVOK 12/07 Q1016=


627 
SPCN31 KWBC 180005
SPECI
CYTL 180003Z AUTO 35012G22KT 2 1/4SM -SN SCT033 OVC046 M22/M25
A2963 RMK SLP065=


684 
SAAG01 SABM 180000 RRA
METAR SADP 180000Z 14012KT CAVOK 26/18 Q1011=


690 
SPZZ40 KAWN 180005
SPECI CYAM 172358Z 19005KT 20SM OVC014 02/01 A2936 RMK SC8 SLP955=
SPECI CYGV 172358Z AUTO 31003KT 9SM OVC034 M06/M09 A2996 RMK SLP151=
SPECI CYLL 180002Z 34006KT 15SM -SN OVC075 M16/M20 A3034 RMK AS8 SLP338=
SPECI CYTL 180003Z AUTO 35012G22KT 2 1/4SM -SN SCT033 OVC046 M22/M25
      A2963 RMK SLP065=
SPECI CYXR 172358Z AUTO 16020G26KT 9SM -SN OVC018 M03/M04 A2944 RMK
      ICE PRESFR SLP985=
SPECI EHGR 172356Z AUTO 07004KT 020V120 0700 FZFG VV000 M01/M02 Q1035
      RED=
SPECI ETNG 180002Z AUTO 08008KT 5000 // OVC002/// M01/M01 Q1035=
SPECI FAPE 172357Z 23003KT 4000 R26/1200U BR BKN004 16/15 Q1011 NOSIG=
SPECI K1DN 180001Z AUTO 33017KT 5SM BLSN OVC024 M12/M16 A3005 RMK AO2
      WSHFT 2359 SLP217 $=
SPECI KBLV 180001Z AUTO 18012KT 10SM -RA FEW065 FEW080 OVC100 09/M02
      A2965 RMK AO2 RAB01 SLP047=
SPECI YBRM 180000Z AUTO 08011KT 8000 RA FEW006 BKN022 BKN031 25/24
      Q1001=
SPECI YSDU 180000Z AUTO 13015G33KT 9999 // NCD 27/14 Q1014=
SPECI YSRI 180000Z AUTO 17019G29KT 9999 // BKN030 BKN035 OVC039 23/18
      Q1017=
SPECI YSSY 180000Z 17027G37KT 8000 VCSH FEW011 SCT015 BKN022 21/20
      Q1017=


787 
SAAP31 FAPR 180000
METAR FACT 180000Z 21011KT 9999 FEW016 19/17 Q1012 NOSIG=
METAR FAGG 180000Z AUTO 34003KT CAVOK 16/13 Q1012=
METAR FAHS 180000Z AUTO 19001KT //// // ////// 21/19 Q1018=
METAR FAKM 180000Z AUTO 01010KT //// // ////// 21/16 Q1017=
METAR FALE 180000Z 01004KT CAVOK 18/17 Q1014 NOSIG=
METAR COR FAOR 180000Z 36008KT 4000 BR BKN003 16/16 Q1023 TEMPO 2000=


789 
SANG31 YBBN 180000
METAR AYPY 180000Z 34010KT 9999 FEW050 32/22 Q1007=
METAR AYWK 180000Z NIL=
METAR AYVN 180000Z NIL=
METAR AYNZ 180000Z 29005G10KT 9999 HZ FEW010 31/25 Q1008=
METAR AYMH 180000Z 14007KT 9999 SCT025 22/16 Q1021=
METAR AYGN 180000Z NIL=
METAR AYMO 180000Z NIL=
METAR ANYN 180000Z NIL=
METAR AGGH 180000Z NIL=


790 
SAAU33 YBBN 180000
METAR YSDU 180000Z AUTO 13015G33KT 9999 // NCD 27/14 Q1014=
METAR YGEL 180000Z AUTO 15018KT 9999 // NCD 24/16 Q1010=
METAR YGLA 180000Z AUTO 24006KT 200V290 9999 // NCD 31/18 Q1005=
METAR YHID 180000Z NIL=
METAR YPJT 180000Z AUTO 15011KT 9999 // NCD 19/11 Q1015=
METAR YSRI 180000Z AUTO 17019G29KT 9999 // BKN030 BKN035 OVC039
23/18 Q1017=
METAR YSTW 180000Z AUTO 18017KT 9999 // OVC042 OVC049 23/15 Q1011=
METAR YPWR 180000Z AUTO 03010KT 9999 // NCD 32/05 Q1015=


791 
SAAU32 YBBN 180000
METAR YBAS 180000Z AUTO 08013KT 9999 // NCD 32/01 Q1013=
METAR YMAV 180000Z AUTO 08015KT 9999 // NCD 22/10 Q1021=
METAR YBWW 180000Z AUTO 16011KT 9999 // SCT038 BKN048 BKN070 26/16
Q1007=
METAR YBRM 180000Z AUTO 08011KT 8000 RA FEW006 BKN022 BKN031 25/24
Q1001=
METAR YBLN 180000Z AUTO 14005KT 9999 // NCD 19/10 Q1015=
METAR YPXM 180000Z AUTO 26005KT 9999 // NCD 25/23 Q1009=
METAR YPCC 180000Z AUTO 11007KT 9999 // FEW021 28/24 Q1007=
METAR YCFS 180000Z AUTO 16020KT 9999 // BKN022 26/21 Q1007=
METAR YPKG 180000Z AUTO 13007KT 9999 // NCD 23/21 Q1012=
METAR YMLT 180000Z AUTO 13006KT 080V190 9999 // FEW038 20/10 Q1027=
METAR YPLM 180000Z AUTO 18014KT 9999 // NCD 31/19 Q1002=
METAR YLHI 180000Z AUTO 09024KT 9999 // FEW024 25/18 Q1009=
METAR YSNF 180000Z AUTO 28016KT 9999 // BKN019 OVC025 24/19 Q1006=
METAR YPPD 180000Z AUTO 12017KT 9999 // FEW024 SCT030 29/24 Q0999=
METAR YBRK 180000Z AUTO 23005KT 170V270 9999 // NCD 30/22 Q1006=
METAR YBSU 180000Z AUTO 14008KT 9999 // FEW046 26/19 Q1005=


792 
SAAP32 FAPR 180000
METAR FALA 180000Z AUTO 08002KT //// ///////// 18/16 Q1021=
METAR FAPP 180000Z AUTO 07001KT //// // ////// 17/17 Q1023=
METAR FAUT 180000Z AUTO 16001KT //// // ////// 18/17 Q1014=


793 
SAAP36 FAPR 180000
METAR FQBR 180000Z 30006KT 9999 FEW020 26/21 Q1010=
METAR FQLC 180000Z 24002KT 9999 BKN013 FEW020CB 18/17 Q1019 RMK CB TO
    SE/S/NW AND DIST LIGHT=
METAR FQMA 180000Z 23003KT 9999 SCT020 22/19 Q1015 NOSIG=
METAR FQNP 180000Z 21004KT 8000 BKN020 24/06 Q1013=
METAR FQPB 180000Z /////KT 9999 FEW020 26/25 Q1010=


794 
SATS32 DTTA 180000
METAR DTKA 180000Z 11007KT 9999 SCT020 BKN030 06/05 Q1010=
METAR DTTF 180000Z 23011KT 8000 FEW026 08/01 Q1015=
METAR DTTG 180000Z NIL=
METAR DTTX 180000Z 20013KT 9999 FEW020 SCT030 12/06 Q1016=
METAR DTTZ 180000Z 21018KT 8000 FEW033 08/M01 Q1016=


795 
SAAU35 YBBN 180000
METAR YCIN 180000Z AUTO 03007KT 9999 -RA FEW052 BKN071 OVC084 26/25
Q1004 RERA=
METAR YFRT 180000Z AUTO 01018KT 9999 // NCD 35/05 Q1008=
METAR YPKU 180000Z AUTO 34004KT 9999 // BKN008 28/25 Q1007=
METAR YPGV 180000Z AUTO 30012KT 9999 // NCD 30/25 Q1008=


796 
SAAU34 YBBN 180000
METAR YBHM 180000Z AUTO 10005KT 9999 // ////// 30/26 Q1005=
METAR YBMA 180000Z AUTO 12009KT 9999 // NCD 36/01 Q1009=


798 
SAAP33 FAPR 180000
METAR FAPE 180000Z 23003KT 4000 R26/1200U BR BKN004 16/15 Q1011
     NOSIG=
METAR FAUP 180000Z 15007KT CAVOK 24/M00 Q1013 NOSIG=
METAR FAWB 180000Z AUTO 08001KT //// // ////// 18/17 Q1020=
METAR FAWK 180000Z AUTO 00000KT //// // ////// 17/16 Q1021=
METAR FBMN 180000Z 10008KT CAVOK 21/21 Q1016=


799 
SACZ43 LKPW 180000
METAR LKCV 180000Z 13003KT 080V170 9000 OVC008 01/M01 Q1037 NOSIG=
METAR LKKB 180000Z VRB02KT 7000 OVC004 00/M01 Q1037=
METAR LKLN 180000Z AUTO 07005KT 020V090 9999 OVC012 M00/M02 Q1036=
METAR LKNA 180000Z 13004KT 100V170 7000 BKN004 OVC006 M01/M02 Q1036=
METAR LKPD 180000Z VRB02KT 9999 OVC008 00/M01 Q1038=


857 
SARS18 KAWN 180000
METAR BIKF 180000Z 06015KT 9999 -RASN OVC011 02/00 Q1000=
METAR LUKK 180000Z 33009KT 290V350 9999 OVC010 02/00 Q1029 NOSIG=
METAR UBBB 180000Z 29006KT 9999 BKN017 05/04 Q1021 NOSIG=
METAR UHMM 180000Z 11001MPS 9999 NSC M26/M29 Q1008 R10/490357 NOSIG
      RMK QFE741 R28/09004MPS=
METAR UHSS 180000Z 35004MPS 9999 NSC M13/M16 Q1021 R01/810360 NOSIG
      RMK QFE764/1019=
METAR UHWW 180000Z 00000MPS 9999 NSC M13/M16 Q1024 R25L/0///70 NOSIG
      RMK QFE767=
METAR UIAA 180000Z 20005MPS 9999 NSC M09/M15 Q1009 R29/410152 NOSIG
      RMK QFE698/0931=
METAR UIII 180000Z 08002MPS CAVOK M17/M20 Q1015 R12/810350 NOSIG RMK
      QFE719/0959=
METAR UIUU 180000Z 06002MPS 3600 FU NSC M24/M26 Q1018 R26/821055 NOSIG
      RMK QFE719/0959=
METAR UMKK 180000Z 26008MPS 9999 BKN008 04/02 Q1027 R24/95D NOSIG RMK
      QFE769/1026=
METAR UMMS 180000Z 28005MPS 9999 OVC007 03/02 Q1023 NOSIG=
METAR UTTT 180000Z 33006KT 3000 -SHRA BR OVC004CB 04/03 Q1019 R08R/29//50
      NOSIG RMK BASE460=
METAR UUDD 180000Z 28005MPS 9999 OVC007 01/00 Q1015 R32L/290042 NOSIG=
METAR UUEE 180000Z 26006MPS 9999 OVC004 01/M00 Q1014 R24L/250140 R24C/250140
      NOSIG=
METAR UUWW 180000Z 28006MPS 9999 OVC004 00/M00 Q1015 R24/250050 NOSIG=
METAR UWGG 180000Z 29002MPS 9999 OVC008 00/M00 Q1011 R36R/590138 NOSIG=
METAR UWKD 180000Z 14002MPS 2800 BR OVC006 M05/M06 Q1008 R11/490145
      NOSIG RMK QFE746/0995=
METAR UWOO 180000Z 12004MPS 9999 OVC005 M11/M12 Q1012 R08/850250 NOSIG
      RMK QBB170 QFE748/0998=


173 
SARE20 FMEE 180000
METAR FMCZ 180000Z AUTO 26009KT 9999 ///CB 28/25 Q1008 BECMG FEW020=
METAR FMEE 180000Z AUTO 18004KT 110V210 CAVOK 22/17 Q1011 NOSIG=
METAR FMEP 180000Z AUTO 04007KT CAVOK 25/16 Q1011=


368 
SAYG31 LYYN 180000 RRA
METAR LYBT 180000Z 01004KT 8000 OVC007 M03/M03 Q1040 NOSIG=


369 
SACI31 ZBBB 180000
METAR ZBAA 180000Z 36002MPS CAVOK M08/M13 Q1021 NOSIG=
METAR ZBAD 180000Z 00000MPS CAVOK M10/M16 Q1020 NOSIG=
METAR ZBTJ 180000Z VRB01MPS 7000 NSC M05/M12 Q1020 NOSIG=
METAR ZBYN 180000Z VRB01MPS CAVOK M06/M17 Q1021 NOSIG=
METAR ZGGG 180000Z 06002MPS CAVOK 09/03 Q1022 NOSIG=
METAR ZSHC 180000Z 24002MPS 8000 NSC 02/M03 Q1026 NOSIG=
METAR ZSPD 180000Z 16002MPS 080V200 5000 BR NSC 02/M00 Q1026 NOSIG=
METAR ZSSS 180000Z 19001MPS 6000 NSC 03/01 Q1026 NOSIG=
METAR ZWWW 180000Z 00000MPS 1600 BR NSC M17/M19 Q1023 NOSIG=
METAR ZYTL 180000Z 20004MPS 180V240 8000 NSC 04/M01 Q1022 NOSIG=
METAR ZYTX 180000Z 17003MPS CAVOK M01/M07 Q1020 BECMG TL0130
 22008MPS=
METAR ZMCK 180000Z VRB02MPS CAVOK M21/M25 Q1015 NOSIG RMK QFE645.9
72=


370 
SAPS33 NTAA 180000
METAR NTAA 180000Z AUTO 36006KT 9999 FEW066/// BKN076/// ///CB
31/25 Q1011 TEMPO 30015G25KT 2500 TSRA=


371 
SATR31 UTAA 180000
METAR UTAA 180000Z 22004KT 8000 FEW050 SCT100 02/02 Q1021
R88/CLRD70 NOSIG=
METAR UTAK 180000Z 22006KT 9999 SCT016 BKN100 06/03 Q1022
R34L/CLRD70 NOSIG=
METAR UTAV 180000Z 36002KT 7000 NSC M02/M02 Q1021 R31/CLRD70
NOSIG=
METAR UTAM 180000Z 00000KT 6000 SCT030CB BKN030 OVC100 04/03 Q1024
R88/CLRD70 NOSIG=
METAR UTAT 180000Z 31006KT 9999 OVC016 01/01 Q1020
R26/19//65 NOSIG=
METAR UTAE NIL=


372 
SAKY31 UUUJ 180000
METAR UCFM 180000Z 13003MPS 1800 1400W R07/P1500 BR FU NSC M03/M04
Q1017 NOSIG=
METAR UCFO 180000Z 16002MPS 5000 FU NSC M04/M08 Q1017 NOSIG=
METAR UCFL 180000Z 35003MPS 9999 BKN026CB 01/M04 Q1017=


373 
SAIY36 LIIB 180000
METAR LIPF 180000Z NIL=
METAR LIQN 180000Z NIL=
METAR LIQW 180000Z NIL=
METAR LIRG 180000Z NIL=
METAR LIRH 180000Z NIL=
METAR LIRL 180000Z NIL=
METAR LIRM 172355Z 02023G34KT 9999 SCT030 BKN070 12/02 Q1023=
METAR LIRS 172355Z 01012KT 9999 SCT030 BKN080 09/03 Q1023=
METAR LIRV 180000Z NIL=


374 
SAAE31 VTBB 180000
METAR VTBD 180000Z 03006KT 8000 NSC 20/12 Q1014 NOSIG=
METAR VTBS 180000Z 01005KT 8000 NSC 20/13 Q1014 NOSIG=
METAR VTCC 180000Z 00000KT 9000 NSC 15/14 Q1016 NOSIG=
METAR VTSP 180000Z 07005KT 350V110 9999 FEW020 SCT090 26/22 Q1010
      NOSIG=
METAR VTSS 180000Z 03008KT 8000 -RA FEW018TCU SCT020 BKN028 23/22
      Q1011 NOSIG=
METAR VTBU 180000Z 35006KT 8000 NSC 20/13 Q1013 NOSIG=


375 
SAIY35 LIIB 180000
METAR LICG 180000Z NIL=
METAR LICT 172355Z 13008KT 9999 SCT018 10/09 Q1016=
METAR LIMG 180000Z NIL=
METAR LIMP 180000Z NIL=
METAR LIRJ 180000Z NIL=
METAR LIRU 180000Z NIL=


376 
SAAE33 VTBB 180000
METAR VLLB 180000Z NIL=
METAR VLLN 180000Z NIL=
METAR VLPS 180000Z NIL=
METAR VLSK 180000Z NIL=


377 
SAKZ31 UUUJ 180000
METAR UAAH 180000Z NIL=
METAR UAAT 180000Z NIL=
METAR UADD 180000Z 23003MPS 6000 -SHRA BKN018CB OVC100 01/00 Q1018
NOSIG RMK QFE706/0942=
METAR UACK 180000Z NIL=
METAR UACP 180000Z NIL=
METAR UAIT 180000Z 23001MPS 5000 BR BKN010 OVC026CB M01/M02 Q1021
NOSIG RMK QFE741/0988=
METAR UAOO 180000Z 20003MPS 9999 OVC004 M00/M01 Q1019 NOSIG RMK
QBB120 QFE753/1004=
METAR UASK 180000Z 21005MPS 9999 -SHSN BKN022CB OVC036 00/M02 Q1018
NOSIG RMK QFE738/0985=
METAR UASP 180000Z 25007MPS 9999 -SN OVC021 M05/M08 Q1015 NOSIG RMK
QFE750/1000=
METAR UASS 180000Z NIL=
METAR UARR 180000Z 13006MPS 3200 -SN BR BKN010 OVC020 M03/M05 Q1008
TEMPO -FZDZ RMK QFE752/1003=
METAR UAUU 180000Z 17002MPS 9999 BKN004 M11/M12 Q1013 NOSIG RMK
QBB120 QFE743/0991=
METAR UAKD 180000Z NIL=


378 
SAKZ32 UUUJ 180000
METAR UAAA 180000Z VRB01MPS 5000 BR SCT100 BKN200 M05/M08 Q1018
NOSIG=
METAR UACC 180000Z 25004MPS 9999 -SN SCT013 BKN040 M09/M10 Q1015
TEMPO -SN DRSN RMK QFE730/0973=
METAR UAII 180000Z 00000MPS 1200 R10/P2000 SHSN BR BKN008 OVC020CB
00/M00 Q1020 NOSIG RMK QFE730/0973=
METAR UAKK 180000Z 23006MPS 9999 SCT030 M09/M10 Q1015 NOSIG RMK
QFE715/0953=
METAR UATE 180000Z 30009MPS 9000 -SHRA BKN012CB OVC033 03/01 Q1015
NOSIG RMK QFE760/1013=
METAR UATG 180000Z 26005MPS 4000 BR OVC004 00/M00 Q1010 NOSIG RMK
QBB130 QFE759/1012=
METAR UATT 180000Z 13003MPS 9999 OVC010 M12/M14 Q1012 TEMPO 0500 FZFG
VV002 RMK QFE740/0986=


379 
SABZ52 SBBR 180005
METAR SBBE 180000Z 04009KT 9999 -RA BKN008 BKN011 OVC014 25/24 Q1016=
METAR SBBV 180000Z 09008KT 9999 FEW030 31/17 Q1011=
METAR SBCY 180000Z 16006KT 9999 FEW020 BKN100 26/24 Q1010=
METAR SBEG 180000Z 06005KT CAVOK 29/22 Q1011=
METAR SBMQ 180000Z 05008KT 9999 FEW007 25/23 Q1013=


380 
SAIN33 VECC 180000
METAR VECC 180000Z 01004KT 2200 BR NSC 15/13 Q1016 NOSIG=
METAR VEGT 180000Z NIL=
METAR VEGY 180000Z NIL=
METAR VEPT 180000Z 27004KT 1200 R25/2000 R07/2000 MIFG NSC 14/12
     Q1017 NOSIG=
METAR VGEG 180000Z 02004KT 3200 HZ NSC 17/15 Q1014
    TEMPO 2400M OR LESS=
METAR VGHS 180000Z 32007KT 1800 BR NSC 17/15 Q1015 TEMPO S/VIS
    1500M=
METAR VNKT 180000Z VRB02KT 6000 FEW015 05/04 Q1020 NOSIG=
METAR VQPR 180000Z NIL=


381 
SATA31 UUUJ 180000
METAR UTDD 180000Z 36002MPS 7000 SCT062CB SCT080 OVC093 05/01 Q1017
R09/CLRD// NOSIG RMK QFE694/0926=
METAR UTDK 180000Z VRB01MPS 4700 BR BKN120 03/01 Q1018 R01/09//70 RMK
QFE706/0941=
METAR UTDL 180000Z 23005MPS 0700 0550W R26/2000N FG OVC002 02/01
Q1019 R26/CLRD70 NOSIG RMK QBB060 QFE726/0968=
METAR UTDT 180000Z 19002MPS 170V250 2300 BR SCT080 BKN100 05/04 Q1017
R35/CLRD70 RMK QFE723/0965=


382 
SAAY31 UUUJ 180000
METAR UDYZ 180000Z 23002KT 9999 NSC M04/M07 Q1022 NOSIG=
METAR UDSG 180000Z VRB02KT 9999 SCT046 M08/M11 Q1021 NOSIG=


383 
SAJP51 RJTD 180000 RRA
METAR RJFE 180000Z 02003KT 9999 FEW030 SCT/// 06/03 Q1025=
METAR RJFF 180000Z VRB05KT 9999 FEW030 BKN035 07/03 Q1025 BECMG
           15007KT=
METAR RJFG 180000Z 32004KT 9999 FEW020 BKN/// 10/05 Q1023=
METAR RJFK 180000Z 36005KT 9999 FEW030 SCT/// 03/00 Q1024=
METAR RJFM 180000Z 30007KT 9999 FEW030 05/01 Q1025=
METAR RJFO 180000Z VRB02KT 9999 FEW030 SCT050 07/04 Q1025=
METAR RJFR 180000Z 36003KT 9999 FEW005 BKN045 06/05 Q1025=
METAR RJFS 180000Z VRB02KT 9999 FEW030 BKN040 05/03 Q1025=
METAR RJFT 180000Z 08005KT 9999 FEW035 05/M00 Q1025=
METAR RJFU 180000Z 12003KT 9999 FEW050 SCT/// 05/03 Q1025=
METAR RJGG 180000Z 35014KT 9999 FEW030 05/M03 Q1025 NOSIG=
METAR RJKA 180000Z VRB02KT 9999 FEW030 BKN/// 15/08 Q1022=
METAR RJKB 180000Z AUTO 02008KT 350V050 9999 NCD 17/05 Q1022=
METAR RJKI 180000Z AUTO 35005KT 300V030 9999 BKN046 BKN050 17/06
           Q1022=
METAR RJNK 180000Z 15004KT 9999 FEW030 02/M02 Q1026=
METAR RJNS 180000Z VRB01KT 9999 FEW020 BKN040 06/M01 Q1022=
METAR RJNT 180000Z VRB02KT 9999 FEW020 01/M06 Q1026=
METAR RJNW 180000Z 07002KT 9999 FEW020 01/M05 Q1025=
METAR RJOA 180000Z 08005KT 9999 FEW020 03/M03 Q1024=
METAR RJOB 180000Z 01005KT 9999 FEW020 03/M01 Q1025=

386 
SAJP51 RJTD 180000 RRB
METAR RJOC 180000Z 16008KT 9999 PRFG FEW001 03/M00 Q1025=
METAR RJOH 180000Z 20004KT 160V240 9999 FEW005 03/03 Q1026=
METAR RJOK 180000Z 34007KT 9999 FEW030 05/M02 Q1024=
METAR RJOM 180000Z 12005KT 9999 FEW025 06/01 Q1025=
METAR RJOO 180000Z 31004KT 9999 FEW025 BKN040 05/M02 Q1026=
METAR RJOR 180000Z 14007KT 9999 FEW030 BKN050 03/00 Q1026=
METAR RJOS 180000Z 27007KT 9999 FEW030 03/M00 Q1026=
METAR RJOT 180000Z 14003KT 080V190 9999 FEW025 03/M01 Q1025=
METAR RJOW 180000Z 17008KT 130V200 9999 FEW020 SCT040 BKN070 04/00
           Q1025=
METAR RJOY 180000Z VRB02KT 9999 FEW015 05/M02 Q1026=
METAR RJSA 180000Z 20003KT 180V240 9999 -SHSN FEW006 SCT020 BKN030
           M03/M04 Q1022=
METAR RJSC 180000Z 11003KT 2800 -SHSN FEW003 SCT010 BKN020 M01/M01
           Q1024=
METAR RJSF 180000Z 33009KT 9999 FEW010 SCT030 01/M06 Q1022=
METAR RJSI 180000Z VRB02KT 9999 FEW020 SCT050 BKN060 M05/M08 Q1023=
METAR RJSK 180000Z 30004KT 270V340 5000 -SHSN FEW008 SCT020 BKN040
           M01/M03 Q1023=
METAR RJSM 180000Z VRB02KT 8000 -SHSN FEW008 SCT015 BKN030 M04/M05
           Q1023=
METAR RJSN 180000Z 36012KT 9999 -SHSN FEW020 SCT030 BKN040 04/M02
           Q1025=
METAR RJSR 180000Z VRB02KT 4500 -SHSN FEW010 SCT020 BKN045 M05/M06
           Q1023=
METAR RJSS 180000Z 26004KT 9999 FEW020 BKN070 02/M04 Q1023=
METAR RJSY 180000Z 31010KT 270V360 9999 -SHSN FEW010 SCT030 BKN040
           04/M03 Q1024=

387 
SAJP51 RJTD 180000
METAR RJAA 180000Z VRB02KT 9999 FEW030 03/M06 Q1024 NOSIG=
METAR RJAF 180000Z VRB01KT 9999 FEW040 M05/M09 Q1023=
METAR RJAH 180000Z 00000KT 9999 FEW030 01/M07 Q1024=
METAR RJBB 180000Z 02007KT 9999 FEW015 06/M01 Q1026 NOSIG=
METAR RJBD 180000Z 36006KT CAVOK 05/M02 Q1023=
METAR RJBE 180000Z VRB02KT 9999 FEW025 SCT045 05/M03 Q1026=
METAR RJBT 180000Z VRB03KT 0600 FG FEW000 SCT002 BKN004 M01/M01
           Q1026=
METAR RJCB 180000Z 33007KT 9999 FEW040 M07/M12 Q1019=
METAR RJCC 180000Z VRB01KT 9999 FEW020 M09/M13 Q1022=
METAR RJCH 180000Z 35003KT 310V020 9999 FEW030 M05/M10 Q1022=
METAR RJCK 180000Z 34006KT 310V010 9999 FEW030 M04/M11 Q1018=
METAR RJCM 180000Z VRB03KT 9999 -SHSN FEW010 SCT020 BKN030 M05/M08
           Q1020=
METAR RJCN 180000Z 32011KT 280V350 9999 FEW015 M03/M10 Q1016=
METAR RJCO 180000Z 29009KT 9999 FEW030 M03/M09 Q1024=
METAR RJCW 180000Z 32005KT 280V350 9999 -SHSN FEW003 SCT015 BKN025
           M04/M09 Q1020=
METAR RJDB 180000Z AUTO 31003KT 9999 OVC037 05/02 Q1025=
METAR RJDC 180000Z 07005KT 9999 FEW025 BKN045 05/02 Q1025=
METAR RJDT 180000Z 00000KT 9999 FEW040 07/01 Q1025=
METAR RJEB 180000Z 26010KT 9999 FEW030 SCT040 M05/M11 Q1020=
METAR RJEC 180000Z 20002KT 9999 FEW004 SCT020 BKN050 M13/M15 Q1020=

388 
SAJP51 RJTD 180000 RRC
METAR RJTF 180000Z 01009KT CAVOK 05/M08 Q1024=
METAR RJTI 180000Z 01008KT 310V070 9999 FEW030 04/M06 Q1024=
METAR RJTO 180000Z 05018KT 9999 FEW030 BKN060 07/M03 Q1023=
METAR RJTT 180000Z 01013KT 9999 FEW030 SCT060 05/M04 Q1024 NOSIG=
METAR ROAH 180000Z 05009KT 9999 FEW035 17/07 Q1022=
METAR ROIG 180000Z 05012KT 9999 FEW038 BKN050 18/11 Q1020=
METAR ROMD 180000Z AUTO 04009KT 360V070 9999 FEW036 19/10 Q1021=
METAR ROMY 180000Z 07010KT 9999 FEW045 18/08 Q1021=
METAR RORK 180000Z AUTO 05010KT 020V080 9999 FEW036 19/10 Q1021=
METAR RORS 180000Z AUTO 08007KT 050V110 9999 NSC 19/09 Q1021=
METAR RORY 180000Z AUTO 03008KT 010V070 9999 FEW044 17/08 Q1022=
METAR ROYN 180000Z AUTO 04013KT 9999 FEW042 BKN050 19/09 Q1021=
METAR RORT 180000Z AUTO 08006KT 010V140 9999 NSC 18/09 Q1020=

517 
SATH32 VTBB 180000
METAR VTSB 180000Z 36006KT 8000 FEW020 23/23 Q1012 NOSIG=
METAR VTSC 180000Z 08008KT 9999 SCT018 BKN100 26/21 Q1011 NOSIG=
METAR VTSE 180000Z VRB02KT 8000 NSC 18/18 Q1012 NOSIG=
METAR VTSF 180000Z 35005KT 320V020 9999 FEW018 24/22 Q1011 NOSIG=
METAR VTSM 180000Z VRB02KT 9999 FEW020 25/23 Q1013 NOSIG=
METAR VTSR 180000Z 00000KT 9999 FEW025 20/18 Q1012 NOSIG=
METAR VTST 180000Z VRB02KT 9000 -DZ FEW025 SCT060 25/23 Q1010 NOSIG=
METAR VTSG 180000Z 01005KT 340V040 9999 SCT030 24/22 Q1011 NOSIG=
METAR VTSY 180000Z VRB02KT 9999 BKN010 22/21 Q1012 NOSIG=


519 
SATD31 TTPP 180000
METAR TTCP 180000Z 06003KT 9999 VCSH FEW016 25/23 Q1015 NOSIG
RMK VCSH NE=
METAR TTPP 180000Z 11003KT 9999 FEW017 26/22 Q1015 NOSIG=


520 
SATH31 VTBB 180000
METAR VTCH 180000Z 11002KT 0300 R11/P2000N FG VV002 14/14 Q1016 
BECMG
      2000 BR=
METAR VTCL 180000Z 15002KT 5000 BR NSC 13/13 Q1016 BECMG TL0030 2500
      BR=
METAR VTCN 180000Z 03002KT 0300 R02/0400 FG VV002 12/12 Q1016 BECMG
      0600 FG=
METAR VTCP 180000Z 00000KT 4000 BR NSC 13/12 Q1015 NOSIG=
METAR VTPH 180000Z VRB02KT 9999 FEW030 21/14 Q1013 NOSIG=
METAR VTPO 180000Z VRB02KT 9000 NSC 17/17 Q1014 NOSIG=
METAR VTPP 180000Z VRB01KT CAVOK 15/12 Q1014 NOSIG=
METAR VTPB 180000Z VRB01KT CAVOK 10/10 Q1015 NOSIG=
METAR VTPM 180000Z 00000KT 6000 NSC 15/15 Q1015 NOSIG=
METAR VTBO 180000Z 03005KT 4000 HZ NSC 19/14 Q1013=
METAR VTCT 180000Z 35001KT 2000 BR NSC 12/12 Q1017 BECMG 4000 BR=
METAR VTPT 180000Z /////KT 8000 NSC 16/15 Q1015 NOSIG=


543 
SAAE34 VTBB 180000
METAR VVCI 180000Z 06005KT 9000 NSC 14/10 Q1019 NOSIG=
METAR VVCR 180000Z 02009KT CAVOK 23/17 Q1014 NOSIG=
METAR VVCT 180000Z 04001KT CAVOK 22/20 Q1012 NOSIG=
METAR VVDN 180000Z 00000KT 4000 BR FEW003 BKN046 19/18 Q1018 BECMG
      TL0045 6000 NSW=
METAR VVNB 180000Z 06005KT 5000 HZ BKN035 15/08 Q1020 NOSIG=
METAR VVPB 180000Z 28004KT 2200 BR SCT006 SCT013 BKN050 18/17 Q1018
      BECMG TL0040 4000 BR=
METAR VVPQ 180000Z 07006KT CAVOK 25/22 Q1012 NOSIG=
METAR VVTS 180000Z 36003KT 320V030 CAVOK 22/18 Q1012 NOSIG=
METAR VVVD 180000Z VRB01KT 6000 FEW015 SCT024 BKN033 12/12 Q1020
      NOSIG=


680 
SPAK40 KNKA 180005
SPECI PAYA 180003Z AUTO 09004KT 3SM HZ SCT005 OVC014 02/M01 A3052 
    RMK AO2 T00221006 TSNO $=


684 
SAAK40 KNKA 180005
METAR PAPB 172353Z AUTO A2908 RMK AO2 SLPNO 58003 PWINO FZRANO TSNO 
    $=


903 
SATR31 UTAA 180000
METAR UTAA 180000Z 22004KT 8000 FEW050 SCT100 02/02 Q1021
R88/CLRD70 NOSIG=
METAR UTAK 180000Z 22006KT 9999 SCT016 BKN100 06/03 Q1022
R34L/CLRD70 NOSIG=
METAR UTAM 180000Z 00000KT 6000 SCT030CB BKN030 OVC100 04/03
Q1024 R88/CLRD70 NOSIG=
METAR UTAT 180000Z 31006KT 9999 OVC016 01/01 Q1020 R26/19//65
NOSIG=
METAR UTAV 180000Z NIL=
METAR UTAE 180000Z NIL=


904 
SATH33 VTBB 180000
METAR VTUD 180000Z 29002KT 3500 BR NSC 11/10 Q1017 BECMG TL0130 7000
      NSW=
METAR VTUI 180000Z 19001KT 3000 BR NSC 13/12 Q1017 NOSIG=
METAR VTUK 180000Z 36002KT 4000 BR NSC 13/12 Q1017 NOSIG=
METAR VTUL 180000Z 00000KT CAVOK 10/10 Q1017 NOSIG=
METAR VTUO 180000Z 04005KT 4000 BR NSC 14/13 Q1016 NOSIG=
METAR VTUQ 180000Z 21003KT 9000 NSC 10/10 Q1016 NOSIG=
METAR VTUU 180000Z 03003KT 6000 NSC 14/14 Q1016 NOSIG=
METAR VTUV 180000Z 06004KT 7000 NSC 15/12 Q1016 NOSIG=
METAR VTUW 180000Z 32003KT 3000 BR NSC 11/11 Q1017 NOSIG=


057 
SAUS44 KMOB 180005 COR
MTRNDZ
METAR KNDZ 172356Z 14006KT 10SM FEW055 SCT140 SCT250 13/06 A3003 RMK 
AO2 SLP158 T01330056 10178 20133 58007 $


093 
SAOM32 OOMS 180000 RRA
METAR OOSH 172350Z AUTO 21006KT //// ////// 19/05 Q1013=

151 
SAUS41 EQYR 180005 COR
MTRXXD
METAR EQYR 172357Z AUTO 05004KT CLR 06/03 A3030 RMK AO2 SLP261 
T00610033 10111 20056 55000 $


309 
SACI32 ZBBB 180000
METAR ZGKL 180000Z VRB01MPS 9999 FEW073 02/01 Q1023 NOSIG=
METAR ZGNN 180000Z 03002MPS 6000 BKN020 10/06 Q1021 NOSIG=
METAR ZGOW 180000Z 06002MPS 9999 FEW050 12/05 Q1022 NOSIG=
METAR ZGSZ 180000Z 02003MPS 320V050 8000 NSC 13/07 Q1021 NOSIG=
METAR ZLXY 180000Z 24002MPS 6000 NSC 01/M09 Q1025 NOSIG=
METAR ZMUB 180000Z 00000MPS 6000 NSC M25/M28 Q1016 NOSIG=
METAR ZPPP 180000Z 21004MPS CAVOK 06/02 Q1021 NOSIG=
METAR ZSAM 180000Z VRB01MPS CAVOK 12/04 Q1022 NOSIG=
METAR ZSFZ 180000Z 32005MPS 9999 BKN033 09/01 Q1023 NOSIG=
METAR ZSNB 180000Z VRB01MPS 8000 NSC 01/M04 Q1027 NOSIG=
METAR ZSQD 180000Z 17003MPS 4500 BR NSC M01/M02 Q1024 NOSIG=
METAR ZUGY 180000Z 03002MPS 9999 OVC026 07/01 Q1023 NOSIG=
METAR ZUTF 180000Z VRB01MPS 2700 BR SCT033 07/07 Q1025 BECMG TL0130
 3200=
METAR ZUUU 180000Z 24002MPS 4500 BR NSC 07/05 Q1025 NOSIG=
METAR ZBSJ 180000Z VRB01MPS 7000 NSC M08/M13 Q1020 NOSIG=
METAR ZWSH 180000Z 32003MPS 8000 NSC M07/M14 Q1023 NOSIG=


471 
SAIR37 OIII 180000 RRA
METAR OIBL 180000Z 03004KT 5000 HZ NSC 20/16 Q1013=


473 
SACI41 ZBBB 180000
METAR ZBHH 180000Z 04002MPS 9000 NSC M18/M21 Q1021 NOSIG=
METAR ZGHA 180000Z 06001MPS CAVOK 06/M03 Q1024 NOSIG=
METAR ZHCC 180000Z VRB01MPS 8000 NSC M01/M10 Q1022 NOSIG=
METAR ZHHH 180000Z 08003MPS CAVOK 06/M07 Q1023 NOSIG=
METAR ZJHK 180000Z 05003MPS 020V090 8000 NSC 16/13 Q1019 NOSIG=
METAR ZJSY 180000Z 01002MPS 330V070 9999 SCT053 17/12 Q1018 NOSIG=
METAR ZLLL 180000Z 33002MPS 290V350 CAVOK M15/M18 Q1023 NOSIG=
METAR ZSNJ 180000Z VRB01MPS 4000 BR NSC M03/M03 Q1025 NOSIG=
METAR ZSOF 180000Z 08001MPS CAVOK M01/M06 Q1024 NOSIG=
METAR ZUCK 180000Z VRB01MPS 6000 SCT040 08/06 Q1024 NOSIG=
METAR ZYCC 180000Z 20007MPS CAVOK M04/M10 Q1016 NOSIG=
METAR ZYHB 180000Z 18005MPS CAVOK M06/M11 Q1014 NOSIG=
METAR ZHEC 180000Z VRB01MPS CAVOK 02/M04 Q1024 NOSIG=


475 
SAAK31 KWBC 180000
METAR
PABR 172353Z 09016KT 10SM CLR M19/M22 A3010=
PACD 172353Z 12029G44KT 4SM -RA BR OVC029 06/04 A2913=
PACX 172356Z AUTO 03010KT 10SM OVC095 M16/M20 A3025=
PAED 172355Z 00000KT 10SM FEW080 BKN100 BKN170 M02/M07 A3024=
PAEI 172355Z 32006KT 10SM SCT080 BKN150 M14/M16 A3017=
PAEN 172353Z 35012KT 10SM OVC050 M01/M02 A3019=
PAFA 172353Z 04003KT 10SM BKN075 OVC100 M11/M15 A3018=
PAFR 172355Z AUTO 00000KT 10SM OVC100 M02/M05 A3024=
PAFS 180001Z AUTO 08009G17KT 060V120 10SM SCT046 BKN060 OVC075
     M10/M14 A2999=
PAFY NIL=
PAJN 172353Z 11003KT 1 3/4SM -DZ BCFG FEW001 BKN004 OVC010 00/M01
     A3061=
PAKN 172354Z 14007KT 10SM FEW030 BKN045 05/02 A2975=
PAKT 172353Z 30003KT 10SM FEW050 02/M02 A3060=
PANC 172353Z 32005KT 10SM BKN100 OVC120 M03/M06 A3025=
PAOM 172353Z 10020G29KT 1SM R28/4500V6000FT -SN BR SCT006 OVC010
     M02/M03 A2953=
PAOR 172353Z 13007KT 10SM BKN110 M16/M19 A3035=
PAOT 172353Z 11038G47KT 1/4SM BLSN SCT024 OVC029 M08/M11 A2975=
PARY 172356Z AUTO 08020G29KT 1/2SM SN FEW008 OVC012 M13/M16
     A3001=
PASC 172353Z 09009KT 7SM FEW150 M29/M32 A3018=
PASG NIL=
PASI 172353Z 00000KT 4SM -RA BR FEW008 OVC012 04/02 A3059=
PATQ 172356Z AUTO 09016KT 10SM CLR A3001=
PAVD 172356Z 00000KT 8SM -SN BR SCT032 BKN045 OVC055 M02/M04
     A3054=
PAWG 172356Z 21003KT 10SM FEW010 OVC040 01/M01 A3063=
PFYU 172356Z 02004KT 9SM SCT100 M23/M26 A3036=


476 
SAAO33 KWBC 180000
METAR
GBYD 180000Z 02005KT 9000 NSC 22/05 Q1015=
GFLL NIL=
GGOV NIL=
GLRB NIL=
GOGG NIL=
GOGS NIL=
GOOY NIL=
GOSS NIL=
GOTT NIL=
GOTY NIL=
GUCY NIL=
GUFH NIL=
GULB NIL=
GUNZ NIL=
GUOK NIL=
GUXD NIL=


477 
SAAO32 KWBC 180000
NIL=


478 
SAAO31 KWBC 180000
METAR
GCFV 180000Z AUTO 35010KT 9999 OVC041 18/09 Q1025=
GCHI 180000Z AUTO 03010KT 330V100 9999 OVC039 19/11 Q1026=
GCLA 180000Z AUTO 01009KT 330V070 9999 OVC039 18/10 Q1026=
GCLP 180000Z 02015KT 9999 BKN040 18/10 Q1025 NOSIG=
GCRR 180000Z 04010KT 9999 BKN040 18/08 Q1024=
GCTS 180000Z 07007KT 9999 SCT040 17/10 Q1026 NOSIG=
GCXO 180000Z AUTO 31010KT 9999 OVC022 13/07 Q1026=
GEML 180000Z AUTO 33003KT 9999 FEW050 08/07 Q1025=
GMAA NIL=
GMAT 180000Z NIL=
GMFF 180000Z 09003KT 060V120 9999 FEW020 SCT200 05/05 Q1023
     NOSIG=
GMFO 180000Z VRB02KT 9999 FEW033 05/04 Q1025 NOSIG=
GMFO 180000Z NIL=
GMME 180000Z 16003KT 5000 SCT016 05/05 Q1022 NOSIG=
GMMN 180000Z 21005KT 9999 SCT030 08/06 Q1022 NOSIG=
GMMX 180000Z 18006KT 8000 NSC 11/02 Q1022 NOSIG=
GMOY NIL=
GMTA 180000Z VRB02KT 9999 FEW020 08/05 Q1025 NOSIG=
GMTN 180000Z 13004KT 9999 SCT029 11/07 Q1025 NOSIG=
GMTT 180000Z 08006KT CAVOK 11/07 Q1024 NOSIG=
GSAI NIL=


479 
SAAL31 KWBC 180000
NIL=


480 
SAAF36 KWBC 180000
METAR
HAAB 180000Z 31003KT 9999 FEW024 1/02 Q1026 NOSIG=
HAAY NIL=
HADR NIL=
HBBA NIL=
HCMH NIL=
HCMI NIL=
HCMK NIL=
HCMM NIL=
HCMV NIL=
HEMA NIL=
HFFF NIL=
HKJK NIL=
HKMO NIL=
HKNA NIL=
HRYR NIL=
HTDA NIL=
HTKJ NIL=
HTZA NIL=
HUEN NIL=
HUKS NIL=
HUMA NIL=
HUSO NIL=


482 
SAAF35 KWBC 180000
METAR
HDAM NIL=
HEAX NIL=
HEBA NIL=
HEBL NIL=
HECA 180000Z 05006KT CAVOK 14/12 Q1023 NOSIG=
HEGN NIL=
HELX NIL=
HEMM NIL=
HEPS NIL=
HERN NIL=
HESC NIL=
HESN NIL=
HLLB NIL=
HLLS NIL=
HLLT NIL=
HSKA NIL=
HSPN NIL=
HSSJ NIL=
HSSP NIL=
HSSS NIL=


483 
SAAF34 KWBC 180000
METAR
FALA 180000Z AUTO 08002KT //// ///////// 18/16 Q1021=
FBDR NIL=
FBFT NIL=
FBGR NIL=
FBGZ NIL=
FBJW NIL=
FBKE NIL=
FBMN 180000Z 10008KT CAVOK 21/21 Q1016=
FBMP NIL=
FBSK NIL=
FBSP NIL=
FBSW NIL=
FBTE NIL=
FBTS NIL=
FDMS NIL=
FEFF NIL=
FXMM NIL=
FXMU NIL=
FYWB NIL=
FYWH NIL=


484 
SAAF33 KWBC 180000
METAR
FLLI NIL=
FLLS NIL=
FLMF NIL=
FLND NIL=
FNHU NIL=
FNLU 180000Z 12005KT 9000 OVC021 26/23 Q1013=
FQBR 180000Z 30006KT 9999 FEW020 26/21 Q1010=
FQMA 180000Z 23003KT 9999 SCT020 22/19 Q1015 NOSIG=
FVBU NIL=
FVCZ NIL=
FVFA NIL=
FVHA NIL=
FVMV NIL=
FVTL NIL=
FWCL NIL=
FWGL NIL=
FWKI NIL=
FWUU NIL=


485 
SPAU31 KWBC 180006
SPECI
YSSY 180000Z 17027G37KT 8000 VCSH FEW011 SCT015 BKN022 21/20 Q1017=


486 
SPAU31 KWBC 180006
SPECI
YBRM 180000Z AUTO 08011KT 8000 RA FEW006 BKN022 BKN031 25/24 Q1001=


487 
SAAF32 KWBC 180000
NIL=


489 
SAAA31 KWBC 180000
METAR
NZCM 172355Z VRB03KT 9999 CLR 04/M12 A2943 RMK AO2 SLP970
     T00361115 10036 20004 $=
NZIR NIL=
NZPG NIL=
NZSP 172350Z 04015KT 2400 IC BR DRSN FEW000 SCT060 M26/ A2897 RMK
     BR FEW000 CLN AIR 03017KT ALL WNDS GRID SDG/HDF=
NZWD 172355Z 00000KT 9999 SKC M03/M07 A2945 RMK AO2A SLP972 FATA
     MORGANA GRID N-SE SDG/HDG=


490 
SAUS80 KWBC 180000 RRE
METAR
KSOA 172355Z AUTO 00000KT 10SM CLR A2983 RMK AO2=
KD07 172356Z AUTO 35018G26KT M08/M11 A3003 RMK AO1 PK WND
     01037/2301 PRESRR SLP207 T10781111 11028 21078 53037=
KGNG 172355Z AUTO 28025G32KT 10SM CLR 01/M10 A3008 RMK AO2=
KHTH 172355Z AUTO 30008KT 10SM CLR 12/M10 A3010 RMK A01=
KHVC 172355Z AUTO 18006G11KT 10SM FEW070 FEW085 BKN110 12/M01
     A2980 RMK AO2=
KN60 172354Z AUTO 33020G29KT M13/M17 A3010 RMK AO1 PK WND
     33030/2341 SLP226 T11281167 11078 21128 51031=
KO54 172355Z AUTO 00000KT 10SM CLR 12/02 A3017 RMK A01=
KO86 172355Z AUTO 00000KT 10SM CLR 11/01 A3016 RMK A01=
KS39 172355Z AUTO 34005KT 10SM CLR 03/M07 A3028 RMK AO2=
KSVE 172355Z AUTO 22008KT 10SM CLR 13/M05 A3014 RMK A01 P000=
K2WX 172356Z AUTO 33022KT M11/M14 A3005 RMK AO1 PK WND 34031/2337
     SLP219 T11061144 11061 21106 51030=
K2WX 172356Z AUTO 33022KT M11/M14 A3005 RMK AO1 PK WND 34031/2337
     SLP219 T11061144 11061 21106 51030=
KGNA 172356Z AUTO 34013G31KT M02/M09 A2941 RMK AO1 PK WND
     35033/2320 SLP970 T10221094 10039 21022 53060=
KMTP 172354Z AUTO 16003KT M02/M07 A3014 RMK AO1 SLP205 T10171067
     10033 21017 53013=
KNAK 172354Z AUTO 16005KT 10SM CLR 02/M04 A3014 RMK AO2 SLP206
     T00221044 10056 20011 51007=
KNUI 172353Z AUTO 14003KT 10SM CLR 02/M03 A3015 RMK AO2 SLP210
     T00171033 10061 20017 51009=


491 
SAAF31 KWBC 180000
NIL=


492 
SPUS70 KWBC 180006
SPECI
PAAK 180003Z AUTO 08003KT 8SM BKN003 BKN019 OVC024 04/04 A2897 RMK
     AO2 TSNO=
KASX 180002Z AUTO 30017G31KT 10SM OVC029 00/M06 A2947 RMK AO2 PK
     WND 30031/2354 PRESRR T00001056=
KIDA 180002Z 00000KT 3/4SM R21/P6000FT BR OVC075 M07/M08 A3004 RMK
     AO2 T10671078=
KLFT 180002Z 10003KT 10SM OVC029 16/07 A2992 RMK AO2 T01610072=
KSNS 180002Z 31009KT 10SM BKN025 12/07 A3021 RMK AO2 T01220072=
PAAK 180003Z AUTO 08003KT 8SM BKN003 BKN019 OVC024 04/04 A2897 RMK
     AO2 TSNO=
KCYS 180003Z AUTO 01012G20KT 10SM FEW011 BKN036 OVC048 M07/M09
     A2984 RMK AO2 T10671094 PWINO FZRANO $=
KICR 180003Z AUTO 33017G24KT 10SM OVC029 M03/M08 A2997 RMK AO2
     T10281083=
KOTG 180004Z AUTO 34023G36KT 10SM SCT025 M05/M10 A2977 RMK AO2
     FZRANO $=


493 
SAUS70 KWBC 180006
METAR
K1S5 180015Z AUTO 00000KT 10SM CLR 06/M03 A3037 RMK AO2
     T00631031=
KGZN 172340Z AUTO 25019G27KT 1 3/4SM HZ SCT026 19/M02 A2963 RMK
     AO2=
KM54 172335Z AUTO 19007KT 10SM CLR 12/M01 A2988 RMK A01=
KMHV 172340Z AUTO 30020G33KT 10SM CLR 14/M10 A3006 RMK AO2=


494 
SPUS80 KWBC 180006
SPECI
PAYA 180003Z AUTO 09004KT 3SM HZ SCT005 OVC014 02/M01 A3052 RMK
     AO2 T00221006 TSNO $=
KPHP 180003Z AUTO 34016G25KT 9SM -SN FEW022 FEW026 OVC031 M04/M09
     A3003 RMK AO2 P0000 T10441089=


495 
SAXX60 KWBC 180000 RRE
METAR
MUGM 172351Z 05009KT 10SM FEW030 FEW060 27/22 A3006 RMK AO2 SLP178
     T02670222 10300 20267 53012 $=
PASV 172355Z AUTO 12017G26KT 10SM SCT070 SCT080 BKN210 04/M05
     A2985 RMK AO2 PK WND 14032/2314 SLP123 T00421051 10041 20018
     52016=
KNCA 172356Z 13003KT 10SM CLR 03/01 A3018 RMK SLP221 T00330011
     10111 20033 50005=
KNYG 172356Z AUTO 18004KT 10SM CLR 03/ A3014 RMK AO2 SLP207 T0033
     10067 20033 53003 $=
KNUW 172353Z 33010KT 10SM SCT030 SCT050 06/01 A3047 RMK AO2 SLP322
     T00610011 10072 20044 55001 $=
KNIP 172353Z 11005KT 10SM FEW250 11/06 A3011 RMK AO2 SLP193
     T01110056 10178 20111 53004=
KNUW 172353Z 33010KT 10SM SCT030 SCT050 06/01 A3047 RMK AO2 SLP322
     T00610011 10072 20044 55001 $=
MUGM 172351Z 05009KT 10SM FEW030 FEW060 27/22 A3006 RMK AO2 SLP178
     T02670222 10300 20267 53012 $=
KNGP 172356Z 18014G23KT 10SM FEW028 BKN140 OVC250 18/16 A2982 RMK
     AO2 SLP096 T01780156 56019=
KNBC 172356Z AUTO 09003KT 7SM CLR 06/03 A3012 RMK AO2 SLP200
     T00610028 10144 20061 50001=
KNQI 172356Z 16007KT 10SM FEW035 BKN140 BKN190 OVC250 21/17 A2981
     RMK AO2 SLP091 T02110167 10261 20211 55018 $=
KMCC 172355Z AUTO 16007KT 10SM CLR 15/04 A3017 RMK AO2 PWINO=
KNTU 172356Z 16005KT 10SM FEW250 02/M03 A3019 RMK AO2 SLP225
     T00171033 10078 20017 51009=
KNUQ 172355Z AUTO 34009KT 9SM CLR 12/08 A3021 RMK AO2=
KS12 172355Z VRB05KT 8SM OVC008 03/02 A3041 RMK AO2 UPCOMING
     TAXIWY CLOSURES. CHECK NOTAMS=


496 
SAUS70 KWBC 180000 RRX
METAR
KOLY 172355Z AUTO 17008KT 10SM SCT060 BKN070 OVC110 07/M01 A2973
     RMK AO2 T00681014 10073 20059=
KPNE 172354Z 00000KT 10SM CLR 01/M07 A3014 RMK AO2 SLP208
     T00061072 10072 20000 51014=
KPVB 172355Z AUTO 26005KT 10SM CLR 04/M03 A2952 RMK AO1 T00351026
     10101 20032=
KTAZ 172355Z AUTO 17018G21KT 10SM BKN075 OVC110 06/00 A2963 RMK
     AO2 T00581002 10060 20049=
KTIF 172355Z AUTO 35015G23KT 10SM OVC030 M03/M09 A2991 RMK AO2
     T10271087 10030 21027=
KVES 172350Z AUTO 17012KT 10SM CLR 02/M03 A2977 RMK AO2 PNO=
PAPB 172353Z AUTO A2908 RMK AO2 SLPNO 58003 PWINO FZRANO TSNO
     $=
PAPB 172353Z AUTO A2908 RMK AO2 SLPNO 58003 PWINO FZRANO TSNO
     $=


497 
SAUS70 KWBC 180000 RRX
METAR
KHSD 172355Z AUTO 36008KT 10SM CLR 13/03 A2951 RMK A01=
KHZD 172355Z AUTO 19013G20KT 10SM SCT075 BKN095 OVC120 13/M01
     A2981 RMK A01=
KI40 172355Z AUTO 15004KT 10SM CLR 02/M05 A2989 RMK AO2=
KIMM 172355Z AUTO 06007KT 2SM BR A3005 RMK AO2=
KJAU 172350Z AUTO 35003KT 10SM CLR 04/M03 A2997 RMK A01=
KJTC 172355Z AUTO 25013KT 10SM CLR 04/M07 A3003 RMK AO2=
KJVY 172355Z 14005KT 10SM CLR 07/M00 A2979 RMK AO2 RW18/36 PLWD
     80FT WD..3FT BERNS EDGES.. RW14/32 CLSD A1 A5 A7 EXITS
     USABLE=
KK70 172355Z AUTO 10015G23KT 10SM OVC035 22/19 A3000 RMK AO2=
KLLJ 172355Z AUTO 36011KT 10SM BKN065 M04/M15 A3005 RMK AO2 SLP227
     T10391150 10006 21044 53013=
KLMS 172355Z AUTO 15006KT 10SM BKN065 OVC075 11/02 A2993 RMK
     AO2=
KLUG 172355Z AUTO 17007KT 10SM FEW046 SCT085 BKN120 12/M02 A2990
     RMK A01=
KM02 172355Z AUTO 18011KT 10SM FEW055 BKN120 13/M02 A2984 RMK
     A01=
KM04 172355Z AUTO 20012G18KT 10SM OVC070 12/M02 A2982 RMK A01=
KM75 172355Z AUTO 35013KT 10SM OVC030 M09/M13 A3027 RMK A01=
KM91 172355Z AUTO 16008KT 10SM 13/M01 A2983 RMK A01=
KMBT 172355Z AUTO 19009G15KT 10SM CLR 13/M02 A2990 RMK A01=
KMMI 172355Z AUTO 22003KT 10SM CLR 07/M04 A2998 RMK A01=
KMNV 172355Z AUTO 25005KT 10SM CLR 05/M03 A2995 RMK A01=
KMOR 172355Z AUTO 00000KT 10SM CLR 04/M04 A2994 RMK A01=
KMRC 172355Z AUTO 19005KT 10SM FEW055 FEW070 BKN100 13/M03 A2986
     RMK A01=
KMVH 172355Z AUTO 30018G25KT 10SM BKN055 OVC065 M12/M17 A3013 RMK
     AO2=
KO69 172355Z AUTO VRB03KT 10SM FEW020 09/07 A3022 RMK A01=
KOWI 172350Z AUTO 34009KT 10SM CLR 06/01 A2959 RMK AO2=
KP33 172356Z AUTO 29012KT 10SM CLR 12/M08 A3007 RMK AO2=
KPCW 172355Z AUTO 19016KT 10SM CLR 02/M04 A2975 RMK AO2=
KPHT 172355Z AUTO 19013G20KT 10SM BKN110 12/M01 A2981 RMK A01=
KPO1 172355Z AUTO 34013KT 3SM -SN HZ FEW013 SCT018 BKN023 M11/M14
     A3024 RMK AO2 TSNO=
KPVE 172355Z AUTO 19011G16KT 10SM BKN075 OVC100 13'M01 A2986 RMK
     A01=
KRKW 172355Z AUTO 22005KT 10SM CLR 06/M04 A2994 RMK A01=
KRNC 172355Z AUTO VRB06KT 10SM FEW019 FEW024 11/M04 A2992 RMK
     A01=
KRTS 172355Z AUTO 30011G17KT 10SM CLR 10/M11 A3013 RMK AO2=
KRZR 172350Z AUTO 20003KT 10SM CLR 06/M05 A2995 RMK A01=
KSCX 172355Z AUTO 19005KT 10SM CLR 07/M05 A2990 RMK A01=
KSEM 172355Z AUTO 16003KT 10SM BKN027 OVC032 13/02 A2999 RMK
     AO2=
KSNH 172350Z AUTO 19011KT 10SM SCT095 BKN120 13/M01 A2986 RMK
     A01=
KSRB 172355Z AUTO 17008KT 10SM CLR 10/M03 A2991 RMK A01=
KSRE 172355Z AUTO 17008KT 140V200 10SM CLR 12/02 A2955 RMK AO2=
KSYI 172355Z AUTO 16008KT 10SM CLR 11/M02 A2991 RMK A01=
KSZY 172355Z AUTO 17009G17KT 10SM OVC100 13/M01 A2986 RMK A01=
KT89 172355Z AUTO 27009KT 10SM CLR 22/M05 A2984 RMK A01=
KTHA 172355Z AUTO 18010KT 10SM CLR 10/M03 A2993 RMK A01=
KTQV 172350Z AUTO 14009KT 10SM FEW030 SCT040 BKN046 09/M05 A3010
     RMK A01=
KUCY 172355Z AUTO 19012KT 10SM FEW120 12/M01 A2979 RMK A01=
KULS 172355Z AUTO 03020G29KT 10SM CLR 08/M05 A2973 RMK AO2=
KUSE 172355Z AUTO 18013KT 10SM CLR 01/M00 A2970 RMK AO2=
KUWL 172350Z AUTO 16010KT 10SM CLR 04/M01 A2975 RMK A01=
KVCV 180000Z AUTO 25015G21KT 10SM CLR 15/M06 A3010 RMK AO2=
KX21 172355Z AUTO 00000KT 10SM CLR 14/13 A3009 RMK AO2=
KXNX 172355Z AUTO 18006KT 10SM CLR 13/M02 A2991 RMK A01=
KBTN 172355Z AUTO 34016G21KT 10SM BKN020 M10/M14 A2995 RMK AO2=
KDVP 180000Z AUTO 33017G29KT 10SM CLR M05/M11 A2979 RMK AO2=
KEBS 172350Z AUTO 34026G32KT 10SM OVC036 02/M05 A2964 RMK AO2=
KGGP 172355Z AUTO 17007KT 10SM CLR 02/M01 A2969 RMK AO2=
KIJX 172355Z AUTO 16008KT 10SM OVC060 05/M02 A2959 RMK AO2
     T00531017 10073 20053=


498 
SPXX60 KWBC 180006
SPECI
KBLV 180001Z AUTO 18012KT 10SM -RA FEW065 FEW080 OVC100 09/M02
     A2965 RMK AO2 RAB01 SLP047=


499 
SAXX60 KWBC 180000 CCD
METAR
EQYR 172357Z AUTO 05004KT CLR 06/03 A3030 RMK AO2 SLP261 T00610033
     10111 20056 55000 $=
KNPA 172356Z 15009KT 10SM BKN060 BKN150 BKN250 16/09 A3002 RMK AO2
     SLP167 T01560094 10183 20156 58004 $=
KNLC 172356Z 03004KT 9SM CLR 18/01 A3016 RMK AO2 SLP215 RH/30
     T01830011 10189 20100 56013=
KNDZ 172356Z 14006KT 10SM FEW055 SCT140 SCT250 13/06 A3003 RMK AO2
     SLP158 T01330056 10178 20133 58007 $=
EQYR 172357Z AUTO 05004KT CLR 06/03 A3030 RMK AO2 SLP261 T00610033
     10111 20056 55000 $=


500 
SAUS70 KWBC 180000 RRX
METAR
K7BM 172354Z AUTO 26010G16KT 230V290 10SM CLR M02/M14 A2978 RMK
     AO2=
KC99 172349Z AUTO 00000KT 7SM SCT008 BKN017 OVC043 M10/M12 A2977
     RMK AO2=
KGCD 172356Z AUTO 31005KT 10SM BKN050 OVC055 01/M09 A3025 RMK
     AO2=
KHVE 172350Z AUTO 00000KT 10SM CLR 05/M12 A2992 RMK AO2=
KNOW 172350Z AUTO 18005KT 10SM CLR 06/04 A3048 RMK AO2 T00560038
     10062 20049=
KOAR 172355Z AUTO 29006KT 10SM BKN019 10/06 A3021 RMK AO2=
KPNA 172355Z AUTO 28012KT 10SM SCT032 BKN065 OVC075 M06/M09 A2983
     RMK AO2=
KPOY 172355Z AUTO 34010KT 4SM -SN SCT020 SCT030 BKN070 M11/M13
     A3005 RMK AO2=
KPVW 172355Z AUTO 36012KT 10SM CLR 12/M07 A2968 RMK AO2 T01241070
     10173 20124=
KRBO 172355Z AUTO 17009KT 10SM CLR 20/17 A2981 RMK AO2 T02030170
     10239 20203=
KSBS 172355Z AUTO 17005KT 10SM BKN070 OVC080 M03/M09 A2978 RMK AO1
     T10301090 11003 21096=
KW43 172350Z AUTO 34012G17KT 3SM -SN BKN012 OVC020 M07/M10 A3004
     RMK AO2=
KXBP 172350Z AUTO 19010KT 10SM CLR 19/02 A2958 RMK AO2 T01900022
     10199 20137=
K05U 172350Z AUTO 29012G20KT 10SM CLR 05/M07 A3006 RMK A01=
K0A9 172355Z AUTO 08003KT 10SM CLR 02/M04 A2997 RMK AO2=
K0R0 172355Z AUTO 16006KT 10SM OVC037 15/05 A2997 RMK AO2=
K1D1 180000Z AUTO 34025G36KT 5SM UP HZ BKN016 OVC021 M08/M12 A2988
     RMK AO2=
K1D8 172355Z AUTO 36020G26KT 10SM OVC032 M06/M11 A3000 RMK AO2=
K1K8 172355Z AUTO 21011KT 10SM CLR 11/04 A2959 RMK AO2=
K1M5 172355Z AUTO 19014KT 10SM CLR 12/M01 A2985 RMK A01=
K2A0 172355Z AUTO 00000KT 10SM CLR 07/M01 A2994 RMK A01=
K2G2 172355Z AUTO 18006KT 10SM CLR 02/M05 A2989 RMK A01=
K2M2 172355Z AUTO 16008KT 10SM FEW060 BKN075 OVC120 12/M01 A2988
     RMK A01=
K33N 172355Z AUTO 00000KT 10SM M00/M06 A3014 RMK A01=
K3L4 172355Z AUTO 13013KT 10SM SCT045 15/13 A2989 RMK A01=
K3S8 172355Z AUTO 22003KT 10SM CLR 07/03 A3031 RMK AO2=
K46U 172355Z AUTO 32011KT 10SM FEW041 SCT065 BKN080 M05/M08 A2996
     RMK A01=
K54A 172355Z AUTO 08008KT 10SM OVC035 20/14 A3004 RMK AO2=
K5T9 172355Z AUTO 08006KT 10SM CLR 19/08 A2978 RMK A01=
K65S 172355Z AUTO 00000KT 10SM OVC055 M01/M06 A3025 RMK AO2=
K8A3 172355Z AUTO 19009G15KT 10SM CLR 10/M04 A2987 RMK A01=
KAVK 172355Z AUTO 36017G27KT 10SM CLR 07/M00 A2964 RMK AO2=
KBDN 172355Z AUTO VRB03KT 10SM CLR 04/M08 A3026 RMK AO2=
KBFA 172355Z AUTO 19010G16KT 10SM OVC075 05/M03 A2942 RMK AO2=
KBGF 172355Z AUTO VRB06KT 10SM CLR 11/M03 A2995 RMK A01=
KBOW 180000Z AUTO 10006KT 10SM OVC070 18/08 A3009 RMK AO2
     PWINO=
KBTN 172355Z AUTO 34016G21KT 10SM BKN020 M10/M14 A2995 RMK AO2=
KC83 172355Z AUTO 23006KT 10SM CLR 16/06 A3018 RMK AO2=
KCEY 172355Z AUTO 17010KT 10SM OVC110 12/M00 A2980 RMK A01=
KCRX 172355Z AUTO 18011KT 10SM OVC110 12/01 A2988 RMK AO2=
KCXP 172355Z AUTO 30008G13KT 10SM CLR 13/M08 A3012 RMK AO2=
KCXW 172355Z AUTO 17017G23KT 10SM 10/05 A2974 RMK A01=
KDKX 172355Z AUTO 00000KT 10SM CLR 04/M00 A2995 RMK A01=
KEKS 172355Z AUTO 02011KT 10SM FEW044 SCT050 SCT080 M11/M17 A3012
     RMK AO2=
KF45 172350Z AUTO 04003KT 9SM -RA BKN033 OVC065 18/18 A3006 RMK
     AO2=
KFOT 172350Z AUTO 29006KT 10SM OVC013 07/07 A3022 RMK AO1=
KFTN 172355Z AUTO 18004KT 10SM CLR 20/08 A2981 RMK A01=
KFYE 172355Z AUTO 17010G16KT 140V200 10SM FEW070 BKN110 13/M02
     A2982 RMK A01=
KFYM 172355Z AUTO 17008KT 10SM CLR 11/M02 A2994 RMK A01=
KGCY 172355Z AUTO 00000KT 10SM CLR 04/M06 A2995 RMK A01=
KGKT 172355Z AUTO 00000KT 10SM CLR 05/M04 A2995 RMK A01=
KGOO 172355Z AUTO 00000KT 10SM CLR 11/M04 A3017 RMK A01=
KGZS 172355Z AUTO 17008KT 10SM SCT075 BKN100 BKN120 13/M01 A2990
     RMK A01=
KHLB 172355Z AUTO 17010KT 10SM CLR 04/00 A2978 RMK A01=


501 
SAPQ50 KWBC 180000 RRB
METAR
PGUM 172354Z 08012KT 10SM FEW022 29/23 A2990 RMK AO2 SLP117
     T02890228 10289 20256 50013 $=


502 
SPNL31 KWBC 180006
SPECI
EHGR 172356Z AUTO 07004KT 020V120 0700 FZFG VV000 M01/M02 Q1035
RED=


503 
SAAW31 KWBC 180000
METAR
LLBG NIL=
LLBS NIL=
LLET NIL=
LLJR NIL=
LLOV NIL=
LTAC NIL=
LTAF NIL=
LTAI NIL=
LTBA NIL=
LTBJ NIL=
LTBS NIL=
OEPS 172355Z AUTO 33003KT 9999 CLR 11/M01 A3009 RMK AO2 SLP172 WND
     DATA ESTMD T01141006 10157 20114 58002=
OJAI 180000Z 00000KT 4000 BR NSC 03/01 Q1024 NOSIG=
OJAM 180000Z 00000KT CAVOK 08/04 Q1024 NOSIG=
OJJR NIL=
OLBA 180000Z 10004KT CAVOK 14/05 Q1025 NOSIG=
UGEE NIL=
UGGG NIL=


504 
SAAU31 KWBC 180000
METAR
YAYE NIL=
YBAS 180000Z AUTO 08013KT 9999 // NCD 32/01 Q1013=
YBBN NIL=
YBCG NIL=
YBCS NIL=
YBMA 180000Z AUTO 12009KT 9999 // NCD 36/01 Q1009=
YBRK 180000Z AUTO 23005KT 170V270 9999 // NCD 30/22 Q1006=
YBRM 180000Z AUTO 08011KT 8000 RA FEW006 BKN022 BKN031 25/24
     Q1001=
YBTL NIL=
YDDN NIL=
YDTN NIL=
YMHB NIL=
YMML NIL=
YPAD NIL=
YPBR NIL=
YPCC 180000Z AUTO 11007KT 9999 // FEW021 28/24 Q1007=
YPDN NIL=
YPEA NIL=
YPLM 180000Z AUTO 18014KT 9999 // NCD 31/19 Q1002=
YPPD 180000Z AUTO 12017KT 9999 // FEW024 SCT030 29/24 Q0999=
YPPH NIL=
YPTN NIL=
YPXM 180000Z AUTO 26005KT 9999 // NCD 25/23 Q1009=
YSCB NIL=
YSDU 180000Z AUTO 13015G33KT 9999 // NCD 27/14 Q1014=
YSNF 180000Z AUTO 28016KT 9999 // BKN019 OVC025 24/19 Q1006=
YSRI 180000Z AUTO 17019G29KT 9999 // BKN030 BKN035 OVC039 23/18
     Q1017=
YSSY NIL=
YYPY NIL=


505 
SAAW33 KWBC 180000
METAR
OBBI NIL=
OMAA 180000Z 21005KT CAVOK 16/08 Q1014 NOSIG=
OMAL 180000Z 12005KT CAVOK 16/06 Q1015 NOSIG=
OMDB 180000Z 19007KT 9999 FEW025 17/09 Q1014 NOSIG=
OMFJ 180000Z NIL=
OMRK 180000Z NIL=
OMSJ 180000Z NIL=
OOMA NIL=
OOMS NIL=
OOSA NIL=
OOTH NIL=
OPMT 172355Z 00000KT 0010 FG VV/// 10/09 Q1018 NOSIG=
OYAA NIL=
OYAR NIL=
OYHD NIL=
OYJA NIL=
OYMB NIL=
OYSM NIL=
OYSN NIL=
OYTZ NIL=


507 
SAAW32 KWBC 180000
METAR
OEDF 180000Z 31009KT CAVOK 12/01 Q1017 NOSIG=
OEDR 180000Z 32012KT CAVOK 13/03 Q1016=
OEJN 180000Z 31005KT CAVOK 25/20 Q1013 NOSIG=
OEMA 180000Z 01004KT CAVOK 17/M01 Q1020 NOSIG=
OERK 180000Z 30006KT CAVOK 11/00 Q1020 NOSIG=
OIAA 180000Z 30010KT CAVOK 12/07 Q1016=
OIAA 180000Z NIL=
OIAW 180000Z 31004KT 8000 NSC 10/05 Q1014=
OIBB 180000Z 35014KT CAVOK 17/09 Q1014 A2997=
OIBK 180000Z 30008KT 7000 FEW030 19/13 Q1012=
OICC 180000Z 00000KT CAVOK M02/M06 Q1018 A3008=
OICK 180000Z 11006KT CAVOK 02/M03 Q1017 A3004=
OICS 180000Z 00000KT CAVOK M04/M06 Q1019 A3011=
OIFM 180000Z 34006KT CAVOK M01/M09 Q1019 A3009=
OIFP NIL=
OIGG 180000Z NIL=
OIHH 180000Z 12006KT CAVOK M05/M06 Q1018 A3008=
OIII 180000Z 14010KT 9999 FEW035CB BKN090 05/M03 Q1019 A3009
     NOSIG=
OIIM NIL=
OIIP 180000Z VRB02KT 9999 FEW040 M03/M06 Q1017 A3005=
OIIX NIL=
OIKB 180000Z 28006KT 4000 HZ NSC 18/12 Q1012 A2991=
OIKK 180000Z 00000KT 4000 BR FEW030CB SCT035 OVC070 00/00 Q1015
     A3000=
OIMM 180000Z NIL=
OINN 180000Z 19002KT 9999 SCT027 07/05 Q1021=
OINR 180000Z 24002KT 9999 FEW026 08/05 Q1021=
OINZ 180000Z 17004KT CAVOK 04/03 Q1022=
OISM NIL=
OISS 180000Z 28006KT 9999 FEW040 05/M02 Q1014 A2997=
OITL 180000Z 16002KT 1500 PRFG BR BKN005 SCT025 BKN080 M02/M02
     Q1018=
OITR 180000Z 28004KT 9999 FEW040 M04/M06 Q1020 A3012=
OITT 180000Z 08004KT 9999 FEW035 M04/M07 Q1021 A3015=
OIYY 180000Z 30002KT 7000 FEW090 02/00 Q1018=
OIZH 180000Z 29004KT 9999 FEW040 BKN100 05/01 Q1015 A2999=
OKBK NIL=
ORBI 180000Z 29006KT CAVOK 08/04 Q1018 NOSIG=
ORBS NIL=
ORMM 180000Z 28010KT 7000 NSC 10/05 Q1016 NOSIG=
OSAP NIL=
OSDI NIL=
OSLK NIL=
OTBD NIL=
OTBH 172355Z 25009KT 9000 HZ CLR 14/07 A2999 Q1015 RMK AO2A SLP157
     T01380073 10182 20138 55002 FZRANO $=
OTMA NIL=
OTMS NIL=


509 
SAAW42 KWBC 180000
METAR
OBAH NIL=
OBBI NIL=
OBBQ NIL=
OBSC NIL=
OBZI NIL=
OJAQ 180000Z 36010KT 5000 HZ NSC 14/07 Q1023 NOSIG=
OKBC NIL=
OKTK NIL=
OKZK NIL=
OMAD 180000Z 22003KT 180V260 CAVOK 18/12 Q1015 NOSIG=
OMAU NIL=
OMDZ NIL=
OMGK NIL=
OMMA NIL=
OMMS NIL=
OMSA NIL=
OMSQ NIL=
OMSR NIL=
OSAS NIL=
OSGN NIL=


510 
SABO41 KWBC 180000
NIL=


624 
SACN31 KWBC 180000
NIL=


634 
SACI41 KWBC 180000
NIL=


636 
SAAG01 SABM 180000 CCA
METAR COR SADP 180000Z 14012KT CAVOK 26/18 Q1012=


637 
SACA42 KWBC 180000
METAR
TIST 172353Z AUTO 09011KT 6SM -RA BR FEW021 SCT035 OVC045 24/23
     A3009=
TISX 172353Z 06007KT 10SM FEW021 BKN060 OVC075 27/22 A3009=
TJBQ 172350Z 09011G16KT 10SM CLR 25/21 A3010=
TJMZ NIL=
TJNR NIL=
TJPS 172355Z AUTO 10005KT 10SM 28/22 A3007=
TJSJ 172356Z 07011KT 10SM SCT025 SCT041 27/23 A3010=


640 
SACI32 KWBC 180000
METAR
ZBAA 180000Z 36002MPS CAVOK M08/M13 Q1021 NOSIG=
ZBTJ 180000Z VRB01MPS 7000 NSC M05/M12 Q1020 NOSIG=
ZBYN 180000Z VRB01MPS CAVOK M06/M17 Q1021 NOSIG=
ZGGG 180000Z 06002MPS CAVOK 09/03 Q1022 NOSIG=
ZGNN 180000Z 03002MPS 6000 BKN020 10/06 Q1021 NOSIG=
ZGSZ 180000Z 02003MPS 320V050 8000 NSC 13/07 Q1021 NOSIG=
ZHHH 180000Z 08003MPS CAVOK 06/M07 Q1023 NOSIG=
ZKPY NIL=
ZLLL 180000Z 33002MPS 290V350 CAVOK M15/M18 Q1023 NOSIG=
ZMUB 180000Z 00000MPS 6000 NSC M25/M28 Q1016 NOSIG=
ZMUB 180000Z 00000MPS 6000 NSC M25/M28 Q1016 NOSIG RMK QFE654.7 73
     NT=
ZPPP 180000Z 21004MPS CAVOK 06/02 Q1021 NOSIG=
ZSAM 180000Z VRB01MPS CAVOK 12/04 Q1022 NOSIG=
ZSHC 180000Z 24002MPS 8000 NSC 02/M03 Q1026 NOSIG=
ZSNJ 180000Z VRB01MPS 4000 BR NSC M03/M03 Q1025 NOSIG=
ZSOF 180000Z 08001MPS CAVOK M01/M06 Q1024 NOSIG=
ZSPD 180000Z 16002MPS 080V200 5000 BR NSC 02/M00 Q1026 NOSIG=
ZSSS 180000Z 19001MPS 6000 NSC 03/01 Q1026 NOSIG=
ZUBD NIL=
ZUCD NIL=
ZUCK 180000Z VRB01MPS 6000 SCT040 08/06 Q1024 NOSIG=
ZUDF NIL=
ZUDS NIL=
ZUDX NIL=
ZUDZ NIL=
ZUFJ NIL=
ZUFL NIL=
ZUGH NIL=
ZUGY 180000Z 03002MPS 9999 OVC026 07/01 Q1023 NOSIG=
ZULP NIL=
ZULS NIL=
ZULZ NIL=
ZUMY NIL=
ZUNC NIL=
ZUSN NIL=
ZUTR NIL=
ZUUU 180000Z 24002MPS 4500 BR NSC 07/05 Q1025 NOSIG=
ZUWF NIL=
ZUWX NIL=
ZUXC NIL=
ZUXJ NIL=
ZUXY NIL=
ZUYB NIL=
ZUZY NIL=
ZWTN NIL=
ZWWW 180000Z 00000MPS 1600 BR NSC M17/M19 Q1023 NOSIG=
ZYHB 180000Z 18005MPS CAVOK M06/M11 Q1014 NOSIG=
ZYTL 180000Z 20004MPS 180V240 8000 NSC 04/M01 Q1022 NOSIG=
ZYYY NIL=


643 
SACI31 KWBC 180000
NIL=


644 
SACA45 KWBC 180000
METAR
MGFL NIL=
MGGT 180000Z 030008KT 9999 FEW018 21/11 Q1022 A3018=
MGGT 180000Z 03008KT 9999 FEW018 21/11 Q1022 A3018=
MGHT 180000Z 09006KT CAVOK 21/06=
MHAM NIL=
MHCA 180000Z 08003KT 9999 FEW030 28/19 Q1017=
MHCH NIL=
MHLE NIL=
MHNJ NIL=
MHNO NIL=
MHPL NIL=
MHRO 180000Z 02005KT CAVOK 26/21 Q1016 A3000 NOSIG=
MHSR NIL=
MHTE 180000Z 00000KT 9999 FEW020 25/22 Q1015 A2997=
MHYR NIL=
MNMG NIL=
MNPC NIL=
MPSA NIL=
MRCH NIL=
MSAC NIL=


645 
SACA41 KWBC 180000 CCA
METAR
MUGM 172351Z 05009KT 10SM FEW030 FEW060 27/22 A3006 RMK AO2 SLP178
     T02670222 10300 20267 53012 $=


646 
SACA41 KWBC 180000
METAR
MKBK NIL=
MUBA NIL=
MUBY NIL=
MUCA NIL=
MUCL 172350Z 18006KT 150V210 9000 BKN020 25/21 Q1016=
MUCM 172350Z 06006KT 9000 FEW020 23/19 Q1018=
MUCU 172350Z 12009KT 090V150 9000 FEW020 26/22 Q1018=
MUGT NIL=
MUHA 172350Z VRB03KT 9000 BKN025 BKN040 24/20 Q1017=
MUMO NIL=
MUMZ NIL=
MUNG NIL=
MUVR 172350Z 20006KT 150V220 9999 FEW020 BKN030 24/21 Q1016=
MUVT NIL=
MYEF NIL=
TABS NIL=
TAOA NIL=
TBBI NIL=
TDCF NIL=


648 
SACA35 KWBC 180000
METAR
MGGI NIL=
MGPB 180000Z 09004KT CAVOK 25/22 Q1015 A2997=
MGSJ 180000Z 27006KT CAVOK 28/// Q1014 A2994=
MHLC 180000Z 12003KT 9999 FEW040 24/22 Q1016 A3000 NOSIG=
MHLM 180000Z 03006KT 9999 FEW022 27/20 Q1015 A2997 NOSIG=
MHTG 180000Z 05010KT 9999 FEW038 23/12 Q1020 A3012 NOSIG=
MNPC NIL=
MPBO NIL=
MPCH NIL=
MPDA 180000Z VRB01KT 9999 4000N RA SCT015 BKN080 27/24 Q1011
     NOSIG=
MPMG 180000Z 34004KT 9999 SCT017 27/23 Q1012 NOSIG=
MPSA NIL=
MPTO NIL=
MRLB NIL=
MRLM NIL=
MROC 180000Z 10008KT 9999 FEW040 SCT200 23/16 A3003 NOSIG=
MRPV 180000Z 11008KT 9999 FEW040 22/16 A3009 NOSIG=
MSLP 180000Z 23005KT 9999 FEW020 27/22 Q1012 A2991 NOSIG RMK FU
     SW=
MSSS 180000Z 17007KT CAVOK 26/18 Q1016 A3002=
MZBZ 180000Z 14003KT 9999 FEW023 26/24 A2998 Q1015 NOSIG=


649 
SACA33 KWBC 180000
METAR
TBPB 180000Z 06009KT 9999 VCSH SCT016 26/23 Q1016 NOSIG=
TDPD NIL=
TDPR NIL=
TFFF 180000Z AUTO 09007KT CAVOK 26/22 Q1017 NOSIG=
TFFG NIL=
TFFJ NIL=
TFFR 180000Z AUTO 09007KT //// R12///// // FEW037 26/22 Q1017=
TGPY NIL=
TGPZ NIL=
TLPC NIL=
TLPL NIL=
TNCA 180000Z 11007KT 7000 SHRA FEW010TCU SCT030 24/23 Q1015 RERA
     NOSIG=
TNCB 172355Z 07005KT 9999 FEW045 26/24 Q1015=
TNCC NIL=
TNCE 172355Z AUTO 07012KT //// // ///////// 26/22 Q1018 RE//=
TNCM NIL=
TTCP 180000Z 06003KT 9999 VCSH FEW016 25/23 Q1015 NOSIG RMK VCSH
     NE=
TTPP 180000Z 11003KT 9999 FEW017 26/22 Q1015 NOSIG=
TVSM NIL=
TVSU NIL=
TVSV NIL=


650 
SAAK32 KWBC 180000
METAR
PABA NIL=
PABI 172353Z 11019G27KT 10SM FEW060 SCT110 BKN160 OVC200 M12/M16
     A3018=
PACZ 172355Z AUTO 15030G41KT 1/2SM -RA FG VV003 01/01 A2938=
PADK 172356Z AUTO 07004KT 10SM OVC009 04/03 A2897=
PADL 172356Z 12016G25KT 10SM OVC010 04/03 A2972=
PADQ 172353Z 12009KT 3SM BR FEW007 BKN017 OVC024 06/05 A3000=
PAEH 172355Z AUTO 01029G42KT 9SM SCT009 BKN065 05/02 A2946=
PAFB 172355Z AUTO 00000KT 10SM BKN055 M13/M15 A3017=
PAGA 172356Z AUTO 11020G27KT 3/4SM -SN BR BKN020 OVC036 M11/M13
     A2995=
PAIM 172355Z AUTO 13008KT 070V160 1 1/2SM -SN BR OVC015 M14/M15
     A3009=
PALU 172355Z AUTO 00000KT 3/4SM -SN OVC014 M06/M06 A2976=
PASV 172355Z AUTO 12017G26KT 10SM SCT070 SCT080 BKN210 04/M05
     A2985=
PASY 172355Z 34017G23KT 7SM SCT011 BKN030 OVC250 02/01 A2935=
PATC NIL=
PATL 172355Z AUTO 07007KT 030V100 10SM -SHSN OVC050 M08/M10
     A2993=
PBTI NIL=


651 
SACA32 KWBC 180000
METAR
MDLR 180000Z 09012KT 9999 FEW016 24/23 Q1019 NOSIG=
MDPC 180000Z 04012KT 9999 SCT018 26/23 Q1019=
MDPP 180000Z 11008KT 9999 BKN018 24/23 Q1018=
MDSD 180000Z 04005KT 9999 BKN018 25/23 Q1018=
MDST 180000Z 09005KT 050V140 9999 FEW018 24/21 Q1018=
MTCH NIL=
MTPP NIL=
TAPA NIL=
TIST 172353Z AUTO 09011KT 6SM -RA BR FEW021 SCT035 OVC045 24/23
     A3009 RMK AO2 WSHFT 2321 RAB37 SLP191 P0002 60003 T02390228
     10300 20239 53018=
TISX 172353Z 06007KT 10SM FEW021 BKN060 OVC075 27/22 A3009 RMK AO2
     SLP186 60000 T02670222 10289 20261 53014 $=
TJBQ 172350Z 09011G16KT 10SM CLR 25/21 A3010=
TJMZ NIL=
TJNR NIL=
TJPS 172355Z AUTO 10005KT 10SM 28/22 A3007 RMK AO2 PWINO=
TJSJ 172356Z 07011KT 10SM SCT025 SCT041 27/23 A3010 RMK AO2 SLP192
     T02670228 10289 20261 53012 $=
TKPK 180000Z 05010KT 9999 FEW020 25/22 Q1018=
TKPN NIL=
TQPF NIL=
TRPM NIL=
TUPJ 180000Z 03004KT 10SM SCT018 25/23 A3009 RMK Q1019 VIS16KM=
TUPW NIL=


652 
SACA31 KWBC 180000
METAR
MBJT NIL=
MBPV 180000Z 10006KT 9999 SCT012 24/19 Q1019=
MBSC NIL=
MKJP 180000Z 34018KT 9999 FEW022 SCT040 28/22 Q1016=
MKJS NIL=
MUCM 172350Z 06006KT 9000 FEW020 23/19 Q1018=
MUCU 172350Z 12009KT 090V150 9000 FEW020 26/22 Q1018=
MUHA 172350Z VRB03KT 9000 BKN025 BKN040 24/20 Q1017=
MUVR 172350Z 20006KT 150V220 9999 FEW020 BKN030 24/21 Q1016=
MWCB 180000Z 00000KT 9999 BKN016 26/23 Q1017=
MWCR 180000Z 12003KT 9999 FEW018 26/22 Q1016=
MYAM NIL=
MYEG NIL=
MYEH NIL=
MYGF 180000Z 13004KT 9999 VCSH FEW018 BKN040 20/17 A3010=
MYNN 180000Z 12006KT 010V130 9999 SCT022 SCT035 BKN080 23/18 A3012
     PKWND-08KT=


655 
SAEE31 KWBC 180000
METAR
EPGD 180000Z 27011KT CAVOK 01/M01 Q1030=
EPKK 180000Z 22004KT 200V260 6000 NSC M02/M03 Q1036=
EPKT 180000Z 20004KT 150V220 2400 BR NSC M01/M02 Q1036=
EPLB 180000Z 28013KT 8000 NSC 02/01 Q1032=
EPMO 180000Z 23008KT 210V270 2000 BR OVC002 01/01 Q1032=
EPPO 180000Z 21003KT 200V260 5000 BR NSC M00/M00 Q1034=
EPQT NIL=
EPRZ 180000Z 25010KT CAVOK 01/M01 Q1035=
EPSC 180000Z 25004KT 200V280 0750 R31/1100D FZFG OVC001 M01/M01
     Q1035=
EPWA 180000Z 28009KT 5000 BR SCT006 01/01 Q1032 TEMPO 3000=
EYSA NIL=
UKBB NIL=
UKKK NIL=
UKLL NIL=
UKOO NIL=
UMII 180000Z NIL=
UMMM NIL=
UMMS 180000Z 28005MPS 9999 OVC007 03/02 Q1023 NOSIG=
UMRR NIL=


663 
SABZ31 KWBC 180000
METAR
SBBE 180000Z 04009KT 9999 -RA BKN008 BKN011 OVC014 25/24 Q1016=
SBBR 180000Z 31004KT 9999 SCT030 22/20 Q1018=
SBBV 180000Z 09008KT 9999 FEW030 31/17 Q1011=
SBCF 180000Z 05006KT 9999 FEW048 26/16 Q1018=
SBCG 180000Z 01010KT 9999 FEW006 SCT040 FEW050TCU BKN080 24/23
     Q1011=
SBEG 180000Z 06005KT CAVOK 29/22 Q1011=
SBFI 180000Z 29002KT 9999 FEW030 SCT070 27/22 Q1008=
SBFZ 180000Z 05002KT 9999 FEW017 27/24 Q1012=
SBGL 180000Z 09006KT CAVOK 29/23 Q1012=
SBGR 180000Z 20001KT 9999 FEW050TCU BKN070 23/21 Q1017=
SBKP 180000Z 22007KT 9999 VCTS FEW010 FEW050CB SCT100 22/20
     Q1017=
SBNT 180000Z 11008KT 9999 FEW026 28/22 Q1014=
SBPA 180000Z 12007KT 9999 FEW040 SCT100 25/23 Q1008=
SBPS 180000Z 08008KT 9999 FEW025 26/22 Q1016=
SBRF 180000Z 11008KT 070V140 9999 SCT023 SCT050 28/23 Q1014=
SBSG 180000Z 10009KT 9999 SCT023 27/22 Q1014=
SBSL 180000Z 02005KT 9999 SCT012 BKN050 26/24 Q1012=
SBSN 180000Z 13006KT 9999 -RA FEW015 OVC100 24/23 Q1013=
SBSV 180000Z 10008KT 9999 FEW022 27/21 Q1015=
SBTT NIL=


673 
SABZ43 KWBC 180000
METAR
SBAN NIL=
SBAT NIL=
SBBA NIL=
SBBQ NIL=
SBBW NIL=
SBCC NIL=
SBER NIL=
SBES NIL=
SBGA NIL=
SBIZ NIL=
SBJF NIL=
SBJP 180000Z 09006KT 9999 FEW020 27/22 Q1014=
SBKG NIL=
SBLB NIL=
SBLP NIL=
SBMK NIL=
SBMS NIL=
SBMZ NIL=
SBPB NIL=
SBPJ 180000Z 25004KT 9999 FEW020 27/24 Q1013=
SBPL 180000Z 19005KT CAVOK 26/17 Q1014=
SBPN NIL=
SBQV NIL=
SBRP 180000Z 16004KT 9999 SCT025 OVC100 24/23 Q1015=
SBTF NIL=
SBTK NIL=
SBUF NIL=
SBUI NIL=
SBUL NIL=


674 
SABZ42 KWBC 180000
METAR
SBJA NIL=
SBJR NIL=
SBLO 180000Z 08008KT 9999 BKN010 BKN080 24/23 Q1014=
SBMA 180000Z 00000KT CAVOK 26/24 Q1012=
SBME NIL=
SBMN 180000Z 07004KT CAVOK 28/21 Q1011=
SBMO 180000Z 06003KT 9999 SCT019 25/22 Q1015=
SBMQ 180000Z 05008KT 9999 FEW007 25/23 Q1013=
SBMT NIL=
SBPC NIL=
SBPK 180000Z 15004KT 9999 SCT040 26/26 Q1010=
SBPP NIL=
SBPV 180000Z 35002KT 9999 VCTS FEW035 FEW040CB SCT100 27/24
     Q1009=
SBRB 180000Z 34003KT 9999 FEW035TCU BKN100 26/24 Q1010=
SBRJ 180000Z VRB02KT CAVOK 28/23 Q1011=
SBSC NIL=
SBSJ 180000Z 12006KT CAVOK 25/21 Q1016=
SBSM NIL=
SBSP 180000Z 26005KT 200V300 9999 FEW017 SCT066 25/21 Q1018=
SBST NIL=
SBTE 180000Z 36004KT CAVOK 28/26 Q1012=
SBTU NIL=
SBUG NIL=
SBUR NIL=
SBVH NIL=
SBVT 180000Z 02009KT 9999 SCT040 27/24 Q1015=
SBYS NIL=


675 
SABZ41 KWBC 180000
METAR
SBAA NIL=
SBAF NIL=
SBAR 180000Z 12010KT 9999 FEW019 27/23 Q1014=
SBBG 180000Z AUTO 09006KT CAVOK 25/22 Q1010=
SBBH NIL=
SBBI NIL=
SBBU NIL=
SBCJ NIL=
SBCO NIL=
SBCR NIL=
SBCT 180000Z 01006KT 9999 FEW010 SCT050 BKN100 21/20 Q1017=
SBCV NIL=
SBCY 180000Z 16006KT 9999 FEW020 BKN100 26/24 Q1010=
SBCZ 180000Z 00000KT CAVOK 28/24 Q1009=
SBDN NIL=
SBFL 180000Z 36007KT 9999 SCT021 26/24 Q1010=
SBFN 180000Z AUTO 13009KT 100V170 9999 SCT020 27/23 Q1014=
SBGO 180000Z 33003KT 9999 FEW045 SCT080 23/20 Q1017=
SBGW NIL=
SBHT NIL=
SBIH NIL=
SBIL NIL=


676 
SAKO31 KWBC 180000
METAR
RKNY 180000Z 27008KT CAVOK 04/M14 Q1023 NOSIG=
RKPC 180000Z 16005KT 100V180 CAVOK 05/M01 Q1026 NOSIG=
RKPK 180000Z 32002KT CAVOK M01/M06 Q1026=
RKSI 180000Z 05003KT CAVOK M02/M04 Q1027 NOSIG=
RKSS 180000Z 30003KT CAVOK M03/M04 Q1027 NOSIG=
RKTN 180000Z 33001KT CAVOK M04/M08 Q1027=
RKTU 180000Z 09001KT CAVOK M07/M08 Q1027=


680 
SAJP31 KWBC 180000
METAR
RJAA 180000Z VRB02KT 9999 FEW030 03/M06 Q1024 NOSIG=
RJAH 180000Z 00000KT 9999 FEW030 01/M07 Q1024=
RJCC 180000Z VRB01KT 9999 FEW020 M09/M13 Q1022=
RJCH 180000Z 35003KT 310V020 9999 FEW030 M05/M10 Q1022=
RJFK 180000Z 36005KT 9999 FEW030 SCT/// 03/00 Q1024=
RJFT 180000Z 08005KT 9999 FEW035 05/M00 Q1025=
RJFU 180000Z 12003KT 9999 FEW050 SCT/// 05/03 Q1025=
RJNN NIL=
RJOO 180000Z 31004KT 9999 FEW025 BKN040 05/M02 Q1026=
RJSS 180000Z 26004KT 9999 FEW020 BKN070 02/M04 Q1023=
RJTT 180000Z 01013KT 9999 FEW030 SCT060 05/M04 Q1024 NOSIG=
RODN 172355Z 06005KT 10SM CLR 15/09 A3016 RMK AO2A SLP216
     T01520091 10152 20075 52008 FZRANO $=


686 
SAIQ32 KWBC 180000
NIL=


690 
SAIQ31 KWBC 180000
METAR
KQAD NIL=
KQAE NIL=
KQEZ NIL=
KQMG NIL=
KQMH NIL=
KQTO NIL=
KQTU NIL=
KQTW NIL=
KQTX NIL=
KQTZ 172355Z 27004KT 9999 SKC 08/05 A3007 RMK SLP189 56003=
KQVO NIL=
KQXJ NIL=
KQXN NIL=
ORBI 180000Z 29006KT CAVOK 08/04 Q1018 NOSIG=
ORER 180000Z 30005KT 4500 BR NSC 04/03 Q1020=


691 
SAIO31 KWBC 180000
METAR
FIMP 180000Z 32005KT 9999 SCT017 23/21 Q1011=
FIMR NIL=
FJDG NIL=
FMCH NIL=
FMCV NIL=
FMCZ 180000Z AUTO 26009KT 9999 ///CB 28/25 Q1008 BECMG FEW020=
FMEE 180000Z AUTO 18004KT 110V210 CAVOK 22/17 Q1011 NOSIG=
FMMI 180000Z VRB02KT 9999 FEW014 SCT020 VV016 19/19 Q1017
     NOSIG=
FMMT NIL=
FMNN NIL=
FSIA 180000Z 32010KT 280V340 9999 FEW016CB BKN020 26/25 Q1009
     NOSIG=
FSSS NIL=
VRMM 180000Z 08017KT 4000 FEW018 BKN270 28/24 Q1008 NOSIG=
VYMD 180000Z NIL=
VYYY 180000Z 12002KT 6000 NSC 19/16 Q1013 NOSIG=
WBGG NIL=
WBKK NIL=
WBSB NIL=


692 
SAIE31 KWBC 180000
METAR
EICK 180000Z 17010KT 150V210 9999 FEW015 BKN018 08/05 Q1027
     NOSIG=
EIDB NIL=
EIDW 180000Z 13003KT 9999 FEW015 BKN021 06/04 Q1028 NOSIG=
EIKN 180000Z NIL=
EINN 180000Z 16019KT 9999 BKN024 09/05 Q1026 NOSIG=


693 
SAID31 KWBC 180000
METAR
WAAA 180000Z VRB02KT 9999 SCT018 26/25 Q1009 NOSIG=
WABB 180000Z 17003KT 9999 FEW015 31/25 Q1009 NOSIG=
WABP NIL=
WADL NIL=
WAJJ NIL=
WAKK NIL=
WAMM NIL=
WAPP NIL=
WASS NIL=
WIBB NIL=
WIID NIL=
WIIH NIL=
WIII 180000Z 24009KT 5000 -RA SCT020 24/23 Q1009 NOSIG=
WIKB NIL=
WIKN NIL=
WIML NIL=
WIMM 180000Z 23005KT 8000 -RA BKN017 23/23 Q1009 NOSIG=
WIOO NIL=
WIPP NIL=
WIRN NIL=
WRBB NIL=
WRKK NIL=
WRLL NIL=
WRLR NIL=
WRRR NIL=
WRSJ NIL=


694 
SAHA31 KWBC 180000
NIL=


695 
SAFR41 KWBC 180000
METAR
LFAF NIL=
LFBA 180000Z AUTO 00000KT 0500 0450 R29/0900U FZFG VV/// M03/M03
     Q1029=
LFBC 180000Z AUTO 05002KT 9000 NSC M02/M03 Q1030=
LFBL 180000Z AUTO 02006KT CAVOK 01/M01 Q1028 TEMPO 2000 BR=
LFBM 180000Z AUTO 09002KT CAVOK M02/M02 Q1030 TEMPO 0650 FG
     VV///=
LFKF 180000Z AUTO 05013KT CAVOK 10/03 Q1021=
LFLD NIL=
LFLV 180000Z NIL=
LFOE 180000Z AUTO 05006KT 020V080 0800 0600 R22/1000U FZFG VV///
     M01/M01 Q1033 NOSIG=
LFOP 180000Z AUTO 07005KT 050V110 0750 0650 R22/0900N FZFG VV///
     M01/M01 Q1033=
LFPB 180000Z AUTO 04007KT 020V080 7000 OVC005 M01/M01 Q1034=
LFPG 180000Z AUTO 07006KT 4300 BR OVC003 M01/M01 Q1033=
LFPV 180000Z AUTO 07005KT 0700 0650 R27/0750N R09/1000U FZFG VV///
     M01/M01 Q1032 TEMPO 0300 FZFG=
LFQB 180000Z AUTO VRB01KT 6000 OVC011 00/M01 Q1032=
LFQQ 180000Z AUTO VRB03KT 1300 1100 R26/1300D R08/2000N BR VV///
     00/00 Q1034 TEMPO 0200 FZFG=
LFRH 180000Z AUTO 05006KT 0500 R25/0700N R07/0600N FG VV/// 00/00
     Q1032 TEMPO 0500 FZFG=
LFRH 180000Z NIL=
LFRM 180000Z AUTO 05006KT 030V090 6000 OVC007 02/01 Q1032=
LFRM 180000Z NIL=
LFSC NIL=
LFSD 180000Z AUTO 04005KT 7000 OVC014 01/M01 Q1031=
LFSI 180000Z AUTO 07006KT 040V100 9999 OVC012 01/M01 Q1032=
LFSL 180000Z AUTO 00000KT CAVOK M03/M04 Q1028=
LFSO 180000Z AUTO 06010KT 040V100 9000 OVC010 00/M02 Q1031=
LFSX 180000Z AUTO VRB02KT 4600 BR OVC021 M01/M01 Q1031=
LFTH 180000Z AUTO 31007KT CAVOK 06/01 Q1026 NOSIG=


696 
SAPA41 KWBC 180000
METAR
PGSN 172354Z AUTO 09013KT 10SM CLR 29/23 A2990=
PGUA 172355Z AUTO 07012KT 10SM SCT017 28/23 A2990=
PGUM 172354Z 08012KT 10SM FEW022 29/23 A2990=
PJON NIL=
PKMJ NIL=
PKWA 180000Z AUTO 08018G22KT 10SM CLR 30/23 A2984=
PWAK 172355Z AUTO 11010KT 9SM FEW027 30/23 A2998=


697 
SAFR32 KWBC 180000
METAR
LFML 180000Z AUTO 14003KT 9000 NSC 01/M02 Q1026 NOSIG=
LFMN 180000Z 33010KT CAVOK 07/M03 Q1026 NOSIG=
LFMP 180000Z AUTO 28006KT 230V320 CAVOK 07/M03 Q1027=
LFMT 180000Z AUTO 36003KT CAVOK 02/M02 Q1028 NOSIG=
LFOB 180000Z AUTO 08005KT 040V100 2600 BR OVC001 M01/M01 Q1033
     TEMPO 0200 FZFG VV///=
LFOH 180000Z AUTO 09004KT 4600 BR OVC006 01/00 Q1033=
LFOT 180000Z AUTO 04006KT 350V070 1900 BR VV/// M00/M00 Q1032=
LFPB 180000Z AUTO 04007KT 020V080 7000 OVC005 M01/M01 Q1034=
LFPG 180000Z AUTO 07006KT 4300 BR OVC003 M01/M01 Q1033=
LFPN 180000Z AUTO 07006KT 1500 1200 R25R/1600U BR VV/// M01/M01
     Q1033=
LFPO 180000Z AUTO 06006KT 030V090 4100 BR OVC003 M00/M01 Q1033
     TEMPO 0800 FG BKN001=
LFQQ 180000Z AUTO VRB03KT 1300 1100 R26/1300D R08/2000N BR VV///
     00/00 Q1034 TEMPO 0200 FZFG=
LFRB 180000Z AUTO 14005KT 7000 NSC 02/02 Q1031 BECMG 4000 BR=
LFRC 180000Z AUTO 13005KT 100V180 8000 OVC007/// 02/01 Q1033=
LFRC 180000Z NIL=
LFRD 180000Z AUTO 10004KT 4300 BR OVC009 02/02 Q1033 TEMPO 0300
     FZFG VV///=
LFRG 180000Z AUTO 11006KT 4200 BR OVC005 01/00 Q1033=
LFRG 180000Z NIL=
LFRK 180000Z AUTO 13005KT 8000 OVC009/// 02/00 Q1033=
LFRN 180000Z AUTO 36002KT 0650 0400 R28/0750D R10/0900D FZFG NSC
     M02/M02 Q1033 TEMPO 0300 FZFG VV///=
LFRO 180000Z NIL=
LFRQ 180000Z AUTO 06004KT 5000 BR NSC 01/01 Q1032=
LFRQ 180000Z NIL=
LFRS 180000Z AUTO 03003KT 4300 BR NSC M01/M02 Q1032 BECMG 2000 BR
     OVC002=
LFRT 180000Z NIL=
LFRZ 180000Z AUTO VRB02KT 2600 1200 R25/P2000 BR NSC 00/M00 Q1032
     BECMG OVC002=
LFSB 180000Z AUTO 09006KT 050V130 9999 OVC018 01/M02 Q1031 TEMPO
     0400 FZFG VV///=
LFSF NIL=
LFSN 180000Z AUTO 06009KT 8000 OVC013 01/M01 Q1032=
LFSR NIL=
LFST 180000Z AUTO 01005KT 7000 OVC023 01/M00 Q1032 TEMPO 0300 FZFG
     VV///=
LFTW 180000Z AUTO 03006KT CAVOK 04/M02 Q1027=
LFVP 180000Z AUTO 13013KT 9999 BKN021 OVC026 M00/M02 Q1015=


698 
SAFR31 KWBC 180000
METAR
LFAC 180000Z AUTO 12005KT 1500 BR OVC002 01/01 Q1035=
LFAT 180000Z AUTO 12005KT 090V160 3600 BR OVC003 01/00 Q1034=
LFBD 180000Z AUTO 26002KT 4600 0600 R23/P2300 R05/0900U R29/P2300
     BCFG NSC M02/M02 Q1030 TEMPO 1500 MIFG=
LFBH 180000Z AUTO 05004KT 6000 NSC 02/01 Q1031 BECMG 4000 BR
     OVC003=
LFBI 180000Z AUTO 02007KT 0400 R21/0450N FZFG VV/// M01/M01 Q1031
     TEMPO 0300 FZFG=
LFBO 180000Z AUTO 18004KT 5000 BR NSC M01/M01 Q1029 TEMPO 2000
     BR=
LFBP 180000Z AUTO VRB02KT 5000 BR NSC M00/M01 Q1029 NOSIG=
LFBT 180000Z AUTO 18003KT CAVOK M02/M03 Q1029 NOSIG=
LFBT 180000Z NIL=
LFBZ 180000Z AUTO 08005KT CAVOK 02/02 Q1029 TEMPO 0500 FG
     VV///=
LFGJ 180000Z AUTO 13001KT 5000 BR OVC012 00/M00 Q1030=
LFKB 180000Z AUTO 30006KT 280V340 9999 // FEW031 SCT190 08/03
     Q1025=
LFKC 180000Z AUTO VRB04KT CAVOK 09/04 Q1024=
LFKJ 180000Z AUTO 14002KT 9999 FEW088 BKN160 OVC200 10/05 Q1021
     NOSIG=
LFLB 180000Z AUTO VRB02KT 5000 BR FEW006 OVC022 01/M00 Q1031=
LFLC 180000Z AUTO VRB02KT 5000 BR OVC013 01/M01 Q1029 TEMPO
     OVC007=
LFLL 180000Z 34003KT 320V020 1300 R35L/1500D R17R/P2000 R35R/1200D
     R17L/1800U BR OVC001 M02/M02 Q1031 TEMPO VV///=
LFLS 180000Z AUTO VRB02KT 2700 1000 R09/P2400 R27/1200D BR OVC002
     M02/M02 Q1029=
LFLY 180000Z AUTO 32003KT 290V350 2800 BR OVC002 M02/M02 Q1031
     TEMPO 0600 FZFG VV///=
LFMD 180000Z AUTO 36005KT 330V030 CAVOK 02/M01 Q1026=
LFMH 180000Z AUTO 33003KT 5000 BR OVC003 M03/M03 Q1029=


699 
SAEW31 KWBC 180000
METAR
LPAZ 180000Z 14012KT 5000 -RA BR FEW002 BKN004 17/17 Q1019=
LPFR 180000Z 02006KT CAVOK 09/04 Q1025=
LPFU NIL=
LPPD 180000Z 25002KT 5000 -DZ BR SCT003 BKN008 17/16 Q1019=
LPPR 180000Z 11009KT CAVOK 08/01 Q1027=
LPPS 180000Z 31005KT 9999 FEW015 BKN030 16/07 Q1026=
LPPT 180000Z 35005KT CAVOK 07/03 Q1027=
LXGB NIL=


700 
SAEM31 KWBC 180000
METAR
KQLA NIL=
KQLH NIL=
KQLX NIL=
LATI NIL=
LDDU 180000Z VRB12G23KT CAVOK 10/M06 Q1027=
LDDV NIL=
LDKT NIL=
LDOS 180000Z VRB01KT 9999 OVC007 M03/M04 Q1040=
LDPL 180000Z AUTO 36003KT 340V040 CAVOK M00/M05 Q1030=
LDRI 180000Z 03008KT CAVOK 05/M06 Q1032=
LDSP 180000Z AUTO 09001KT CAVOK 06/M04 Q1029=
LDZA 180000Z VRB01KT 9999 OVC021 M01/M04 Q1039 NOSIG=
LDZD 180000Z 09006KT 040V150 CAVOK 06/M06 Q1029=
LJLJ 180000Z VRB01KT 9999 BKN016 M01/M03 Q1037 NOSIG=
LJMB 180000Z AUTO VRB01KT 9999 OVC009/// M01/M03 Q1038=
LJPZ 180000Z AUTO VRB02KT 9999 NCD 01/M04 Q1031=
LKIB NIL=
LKMT 180000Z 23014KT 9999 OVC010 00/M01 Q1037 NOSIG=
LKPR 180000Z 07003KT 020V130 6000 FEW003 OVC004 M00/M01 Q1036
     NOSIG=
LKTB 180000Z 13003KT 030V150 9999 OVC009 01/M02 Q1038 NOSIG=
LKTT NIL=
LOAV NIL=
LOIH NIL=
LOIJ NIL=
LOLW NIL=
LOWG NIL=
LOWH NIL=
LOWI NIL=
LOWK NIL=
LOWL NIL=
LOWS NIL=
LOWW NIL=
LOWZ NIL=
LQSA 180000Z 12001KT 5000 BR SCT012 M04/M06 Q1036=
LWOH NIL=
LWSK NIL=
LYBE 180000Z 01004KT 340V040 9000 OVC008 M03/M04 Q1040 NOSIG=
LYDU NIL=
LYLJ NIL=
LYMB NIL=
LYNI 180000Z 34007KT 8000 OVC013 M02/M03 Q1038 NOSIG=
LYOH NIL=
LYOS NIL=
LYPG 180000Z 02004KT CAVOK 01/M01 Q1030 NOSIG=
LYPL NIL=
LYPR 180000Z NIL=
LYPZ NIL=
LYRI NIL=
LYSA NIL=
LYSK NIL=
LYSP NIL=
LYTI NIL=
LYTV 180000Z AUTO 00000KT CAVOK 03/02 Q1028=
LYZA NIL=
LYZD NIL=
LZIB 180000Z 19006KT 9999 BKN011 OVC014 M01/M03 Q1039 NOSIG=
LZKZ 180000Z 26003KT 8000 OVC007 M00/M01 Q1037 NOSIG=
LZTT 180000Z 31005KT CAVOK M05/M06 Q1034=


701 
SAHW31 KWBC 180000
METAR
PBKH NIL=
PHJR 172353Z 20009KT 10SM FEW060 27/19 A2993=
PHKO 172353Z 23011KT 10SM FEW050 28/19 A2992=
PHLI 172353Z 04013KT 10SM BKN043 26/17 A2995=
PHNL 172353Z 18011KT 10SM FEW023 SCT038 SCT050 26/19 A2992=
PHOG 172354Z 34008KT 10SM FEW020 SCT030 BKN060 23/19 A2992=
PHTO 172353Z 01009KT 8SM CLR 27/21 A2989=
PNGF NIL=


702 
SAEE32 KWBC 180000
METAR
LBBG 180000Z AUTO 23010KT 9000 NCD M01/M02 Q1032 NOSIG=
LBPD 180000Z AUTO 29003KT 250V320 9999 NCD M00/M00 Q1033=
LBSF 180000Z AUTO 27006KT 5000 BR OVC003/// M04/M04 Q1035 REFZDZ
     NOSIG=
LBWN 180000Z AUTO 25005KT 9999 NSC 04/M02 Q1031 NOSIG=
LHBP 180000Z 23006KT 8000 OVC015 M00/M02 Q1039 NOSIG=
LHTA NIL=
LRAR 180000Z AUTO 00000KT 0600 R27/0700N FZFG VV001 M01/M01
     Q1039=
LRBS 180000Z 27006KT 250V310 CAVOK M01/M05 Q1031 NOSIG=
LRCK 180000Z 28015KT CAVOK 01/M02 Q1030 NOSIG=
LROP 180000Z 26005KT 8000 NSC M02/M06 Q1031 NOSIG=
LRTC 180000Z AUTO 30008KT 6000 FEW110/// BKN180/// 04/M02
     Q1030=
LRTM 180000Z AUTO 08002KT 4100 BR SCT011/// OVC014/// M02/M03
     Q1037=
LRTR 180000Z 31005KT 0550 R11/0900U FZFG FEW001 BKN002 OVC010
     M01/M01 Q1039 TEMPO 0800=
LUCC NIL=
LUKK 180000Z 33009KT 290V350 9999 OVC010 02/00 Q1029 NOSIG=
LURN NIL=


703 
SAKN41 KWBC 180000
NIL=


704 
SAJP41 KWBC 180000
METAR
RJAF 180000Z VRB01KT 9999 FEW040 M05/M09 Q1023=
RJAI NIL=
RJAK NIL=
RJAM NIL=
RJAO NIL=
RJAT NIL=
RJAW NIL=
RJBD 180000Z 36006KT CAVOK 05/M02 Q1023=
RJCA NIL=
RJCB 180000Z 33007KT 9999 FEW040 M07/M12 Q1019=
RJCJ NIL=
RJCK 180000Z 34006KT 310V010 9999 FEW030 M04/M11 Q1018=
RJCM 180000Z VRB03KT 9999 -SHSN FEW010 SCT020 BKN030 M05/M08
     Q1020=
RJCN 180000Z 32011KT 280V350 9999 FEW015 M03/M10 Q1016=
RJCO 180000Z 29009KT 9999 FEW030 M03/M09 Q1024=
RJCR NIL=
RJCT NIL=
RJCW 180000Z 32005KT 280V350 9999 -SHSN FEW003 SCT015 BKN025
     M04/M09 Q1020=
RJDB 180000Z AUTO 31003KT 9999 OVC037 05/02 Q1025=
RJDC 180000Z 07005KT 9999 FEW025 BKN045 05/02 Q1025=


705 
SAJP45 KWBC 180000
METAR
RJTJ NIL=
RJTK NIL=
RJTL NIL=
RJTO 180000Z 05018KT 9999 FEW030 BKN060 07/M03 Q1023=
RJTQ NIL=
RJTR NIL=
RJTU NIL=
RJTX NIL=
RJTY 172355Z AUTO 03010KT 10SM CLR 05/M09 A3023 RMK AO2 SLP245
     T00531093 10053 21017 52013 $=


706 
SAPQ31 KWBC 180000
METAR
PGRO 172350Z 11011KT 7SM FEW012 27/23 A2990=
PGSN 172354Z AUTO 09013KT 10SM CLR 29/23 A2990=
PGUM 172354Z 08012KT 10SM FEW022 29/23 A2990=
PGWT 172357Z 08011KT 7SM FEW018 29/23 A2990=
PKMJ NIL=
PKMR 172350Z 07013KT 20SM FEW016 FEW300 30/24 A2980=
PKRO NIL=
PKWA 180000Z AUTO 08018G22KT 10SM CLR 30/23 A2984=
PTKK NIL=
PTKR NIL=
PTPN 172351Z 08007KT 15SM SCT018 BKN300 30/26 A2982=
PTRO 172350Z 07007G15KT 14SM SCT016TCU BKN130 BKN310 29/25
     A2981=
PTSA 172354Z 09011KT 10SM BKN022TCU BKN130 OVC300 30/24 A2978=
PTTP NIL=
PTYA NIL=
PWAK 172355Z AUTO 11010KT 9SM FEW027 30/23 A2998=


707 
SAJP43 KWBC 180000
METAR
RJKI 180000Z AUTO 35005KT 300V030 9999 BKN046 BKN050 17/06
     Q1022=
RJKN NIL=
RJNF NIL=
RJNG NIL=
RJNH NIL=
RJNO NIL=
RJNT 180000Z VRB02KT 9999 FEW020 01/M06 Q1026=
RJNY NIL=
RJOA 180000Z 08005KT 9999 FEW020 03/M03 Q1024=
RJOB 180000Z 01005KT 9999 FEW020 03/M01 Q1025=
RJOC 180000Z 16008KT 9999 PRFG FEW001 03/M00 Q1025=
RJOE NIL=
RJOF NIL=
RJOI 172356Z 28005KT 9999 FEW020 05/M01 A3032 RMK AO2 SLP267
     T00501006 10050 20017 53013=
RJOK 180000Z 34007KT 9999 FEW030 05/M02 Q1024=
RJOM 180000Z 12005KT 9999 FEW025 06/01 Q1025=
RJOP NIL=
RJOR 180000Z 14007KT 9999 FEW030 BKN050 03/00 Q1026=


708 
SAJP42 KWBC 180000
METAR
RJDK NIL=
RJDM NIL=
RJDO NIL=
RJDT 180000Z 00000KT 9999 FEW040 07/01 Q1025=
RJEB 180000Z 26010KT 9999 FEW030 SCT040 M05/M11 Q1020=
RJEC 180000Z 20002KT 9999 FEW004 SCT020 BKN050 M13/M15 Q1020=
RJEO NIL=
RJER NIL=
RJFA NIL=
RJFC NIL=
RJFE 180000Z 02003KT 9999 FEW030 SCT/// 06/03 Q1025=
RJFG 180000Z 32004KT 9999 FEW020 BKN/// 10/05 Q1023=
RJFM 180000Z 30007KT 9999 FEW030 05/01 Q1025=
RJFN NIL=
RJFO 180000Z VRB02KT 9999 FEW030 SCT050 07/04 Q1025=
RJFR 180000Z 36003KT 9999 FEW005 BKN045 06/05 Q1025=
RJFY NIL=
RJFZ NIL=
RJKA 180000Z VRB02KT 9999 FEW030 BKN/// 15/08 Q1022=
RJKB 180000Z AUTO 02008KT 350V050 9999 NCD 17/05 Q1022=


709 
SAKO41 KWBC 180000
NIL=


710 
SAJP44 KWBC 180000
METAR
RJOS 180000Z 27007KT 9999 FEW030 03/M00 Q1026=
RJOT 180000Z 14003KT 080V190 9999 FEW025 03/M01 Q1025=
RJOY 180000Z VRB02KT 9999 FEW015 05/M02 Q1026=
RJOZ NIL=
RJSA 180000Z 20003KT 180V240 9999 -SHSN FEW006 SCT020 BKN030
     M03/M04 Q1022=
RJSC 180000Z 11003KT 2800 -SHSN FEW003 SCT010 BKN020 M01/M01
     Q1024=
RJSD NIL=
RJSH NIL=
RJSI 180000Z VRB02KT 9999 FEW020 SCT050 BKN060 M05/M08 Q1023=
RJSO NIL=
RJST NIL=
RJSU NIL=
RJTA NIL=
RJTC NIL=
RJTE NIL=
RJTF 180000Z 01009KT CAVOK 05/M08 Q1024=
RJTH NIL=
RJTI 180000Z 01008KT 310V070 9999 FEW030 04/M06 Q1024=


711 
SAPH31 KWBC 180000
METAR
RPLB 180000Z 04005KT 010V070 9999 FEW020 27/21 Q1013 NOSIG RMK
     A2991=
RPLC 180000Z 36010KT 9999 FEW020 25/20 Q1013 NOSIG RMK A2991=
RPLL 180000Z VRB02KT 9999 FEW025 BKN100 27/23 Q1012 NOSIG RMK
     A2988=
RPMC NIL=
RPMD 180000Z 02005KT 340V040 9999 FEW016 26/24 Q1011 RMK A2985=
RPMK NIL=
RPML NIL=
RPMM NIL=
RPMT NIL=
RPMZ 180000Z 06005KT 030V100 9999 FEW017 29/24 Q1010 RMK A2983=
RPUW NIL=
RPVM 180000Z 06012KT 9999 FEW020 SCT300 29/21 Q1012 NOSIG RMK
     A2988=
RPWD NIL=


712 
SAPA32 KWBC 180000
METAR
NCRG 180000Z AUTO 35004KT 310V060 9999 BKN033/// BKN065/// 28/23
     Q1010=
NFFN 180000Z 30013KT 9999 FEW025TCU 31/25 Q1008 NOSIG=
NFNA 180000Z 10007KT 9999 BKN020 32/26 Q1007=
NFTF 180000Z 28006KT 9999 FEW016TCU 30/24 Q1009=
NFTV 180000Z 02007KT 9999 FEW016TCU 29/24 Q1009=
NGFU 180000Z 08010KT 9999 FEW016CB SCT020 BKN110 31/25 Q1008=
NSFA 180000Z 31006KT 9999 FEW020 SCT040 31/23 Q1009=
NSTU 172350Z VRB05KT 12SM -SHRA BKN018CB BKN100 29/25 A2979 RMK
     SHRAB47 CB ALQDS SLP088 60000 8/370 T02870254 10305 20257
     57014=
NTAA 180000Z AUTO 36006KT 9999 FEW066/// BKN076/// ///CB 31/25
     Q1011 TEMPO 30015G25KT 2500 TSRA=
NWWW 180000Z AUTO 21005KT 170V250 CAVOK 31/23 Q1007 NOSIG=


713 
SAPA31 KWBC 180000
METAR
AGGG NIL=
AGGH 180000Z NIL=
ANAU NIL=
AYPY 180000Z 34010KT 9999 FEW050 32/22 Q1007=
PGNT NIL=
PGRO 172350Z 11011KT 7SM FEW012 27/23 A2990=
PGSN 172354Z AUTO 09013KT 10SM CLR 29/23 A2990 RMK AO2 SLP145
     T02940233 10300 20256 50007 TSNO $=
PGUA 172355Z AUTO 07012KT 10SM SCT017 28/23 A2990 RMK AO2 SLP115
     60000 T02840233 10285 20257 51010 $=
PGUM 172354Z 08012KT 10SM FEW022 29/23 A2990 RMK AO2 SLP117
     T02890228 10289 20256 50013 $=
PGWT 172357Z 08011KT 7SM FEW018 29/23 A2990=
PHJH NIL=
PHJR 172353Z 20009KT 10SM FEW060 27/19 A2993 RMK AO2 SLP141 60004
     T02720189 10283 20211 56021=
PHMK 172354Z 03008KT 10SM BKN022 BKN075 24/18 A2994 RMK AO2 SLP142
     60000 T02440178 10256 20211 56020=
PJON NIL=
PKMJ NIL=
PKMR 172350Z 07013KT 20SM FEW016 FEW300 30/24 A2980 RMK SLP091
     8/101 T03040239 10304 20281 58007=
PKWA 180000Z AUTO 08018G22KT 10SM CLR 30/23 A2984 RMK AO2
     T03030227=
PLCH NIL=
PMDY 172356Z AUTO 35006KT 10SM OVC020 22/17 A3013 RMK AO2 SLP204
     60001 T02170172 10222 20194 58013=
PTKK NIL=
PTKR NIL=
PTPN 172351Z 08007KT 15SM SCT018 BKN300 30/26 A2982=
PTRO 172350Z 07007G15KT 14SM SCT016TCU BKN130 BKN310 29/25 A2981
     RMK HZ ALQDS TCU ALQDS=
PTSA 172354Z 09011KT 10SM BKN022TCU BKN130 OVC300 30/24 A2978 RMK
     TCU NE-SW=
PTTP NIL=
PTYA NIL=
PWAK 172355Z AUTO 11010KT 9SM FEW027 30/23 A2998 RMK AO2 SLP155
     60000 T03010228 10301 20253 58001=


714 
SANT31 KWBC 180000
METAR
BGBW 172350Z AUTO 24003KT 9999NDV NCD M17/M22 Q1012=
BGCO NIL=
BGGH 172350Z VRB02KT 9999 SCT110 M05/M14 Q1009 LAST OBS=
BGGH 172350Z NIL=
BGJN 172350Z NIL=
BGKK 172350Z AUTO 23006KT 9999NDV NCD M15/M22 Q1014=
BGSF 172350Z AUTO 04012KT 9999NDV FEW065/// SCT090/// BKN170///
     M12/M18 Q1012=
BGTL 172355Z AUTO 11010KT 9999 CLR M31/M36 A3006 RMK AO2 SLP166
     T13071357 11277 21312 52012 TSNO $=
BIAR 180000Z 04005KT 320V090 9999 OVC052 M00/M05 Q1011=
BIEG 180000Z 05016KT 7000 -SN SCT020 OVC030 01/M03 Q1012=
BIKF 180000Z 06015KT 9999 -RASN OVC011 02/00 Q1000=
BIRK 180000Z 07013KT 9999 BKN033 03/M01 Q1000=
GVAC NIL=
GVPR NIL=
LPBJ 180000Z 07004KT CAVOK 06/02 Q1026=
LPLA 180000Z /////KT 9999 FEW020 SCT030 15/14 Q1019=
TXKF 172355Z 32017KT 9999 SCT036 SCT055 BKN070 16/10 Q1020=


715 
SAMM31 KWBC 180000
METAR
LCEN NIL=
LCLK 180000Z 33009KT CAVOK 11/06 Q1024 NOSIG=
LCNC 180000Z NIL=
LCPH 180000Z AUTO 02006KT 010V080 9999 NCD 10/02 Q1024 NOSIG=
LCRA NIL=
LMML NIL=


716 
SAUR31 KWBC 180000
NIL=


717 
SATS31 KWBC 180000
METAR
DTMB NIL=
DTTA NIL=
DTTB NIL=
DTTD NIL=
DTTG 180000Z NIL=
DTTJ NIL=
DTTK NIL=
DTTL NIL=
DTTN NIL=
DTTR NIL=
DTTX 180000Z 20013KT 9999 FEW020 SCT030 12/06 Q1016=
DTTZ 180000Z 21018KT 8000 FEW033 08/M01 Q1016=


718 
SATN41 KWBC 180000
NIL=


719 
SASP31 KWBC 180000
METAR
LEAL 180000Z 01009KT 9999 FEW065 12/05 Q1026 NOSIG=
LEAM 180000Z AUTO 01003KT 320V030 9999 BKN050 BKN060 BKN110 13/04
     Q1026=
LEAO 180000Z NIL=
LEAS 180000Z AUTO 23009KT CAVOK 06/02 Q1028=
LEBB 180000Z AUTO 09006KT CAVOK 03/02 Q1029=
LEBL 180000Z 01007KT 340V050 CAVOK 07/M01 Q1026 NOSIG=
LECO 180000Z 16007KT CAVOK 03/02 Q1028 NOSIG=
LEDA 180000Z AUTO 27003KT CAVOK M01/M03 Q1028=
LEGE 180000Z 00000KT CAVOK 01/M02 Q1026 NOSIG=
LEGR 180000Z AUTO 00000KT CAVOK 01/M01 Q1026=
LEIB 180000Z 02013KT 9999 FEW032 12/06 Q1024 NOSIG=
LEJR 180000Z AUTO 35002KT CAVOK 05/04 Q1026=
LELC 180000Z AUTO 33006KT 9000 NSC 09/08 Q1026=
LELL 180000Z AUTO VRB01KT CAVOK 02/M03 Q1026=
LEMD 180000Z 35003KT 320V060 CAVOK 01/M02 Q1028 NOSIG=
LEMG 180000Z 28008KT 9999 FEW030 07/05 Q1026 NOSIG=
LEMH 180000Z AUTO 02025KT 9999 SCT018/// BKN020/// OVC024/// 11/07
     Q1021=
LEPA 180000Z 04010KT 9999 FEW018 11/05 Q1023 NOSIG=
LEPP 180000Z AUTO 00000KT CAVOK M01/M02 Q1029=
LERS 180000Z AUTO 04003KT 330V060 CAVOK 01/M01 Q1026=
LESO 180000Z AUTO VRB01KT CAVOK 03/02 Q1030=
LEST 180000Z 13004KT CAVOK 06/00 Q1028 NOSIG=
LETO 180000Z VRB02KT CAVOK 00/M02 Q1028 NOSIG=
LEVC 180000Z 28004KT 240V300 CAVOK 05/03 Q1028 NOSIG=
LEVD 180000Z AUTO 09005KT CAVOK M01/M03 Q1028=
LEVS 180000Z AUTO 01003KT 340V060 CAVOK 04/M01 Q1028=
LEVT 180000Z VRB02KT CAVOK M02/M03 Q1029=
LEVX 180000Z AUTO 23006KT CAVOK 06/02 Q1027=
LEXJ 180000Z AUTO VRB02KT CAVOK 04/02 Q1028=
LEZG 180000Z 00000KT CAVOK 01/M01 Q1029 NOSIG=
LEZL 180000Z 02005KT CAVOK 05/02 Q1026 NOSIG=


720 
SAXX70 KAWN 180000 RRB
METAR KQER 180000Z AUTO 00000KT 9999 // CLR M11/M13 A3027 RMK A02 TSNO=
METAR KQEY 180000Z AUTO 02002KT 4800 HZ CLR M06/M08 A3003 RMK A02 TSNO=
METAR KQFW 180000Z AUTO 21001KT 4800 CLR M11/M12 A3017 RMK A02 TSNO=


721 
SASD44 KWBC 180000
METAR
OETB 180000Z 00000KT CAVOK 08/M08 Q1021 NOSIG=
OETD NIL=
OETF 180000Z 22004KT CAVOK 12/M03 Q1021 NOSIG=
OETG NIL=
OETR 180000Z 02010KT CAVOK 05/M01 Q1022 NOSIG=
OETT NIL=
OETX NIL=
OEVA NIL=
OEVT NIL=
OEWD 180000Z 33004KT CAVOK 09/M09 Q1018=
OEWH NIL=
OEWJ 180000Z 35004KT CAVOK 19/10 Q1014 NOSIG=
OEXN NIL=
OEYF NIL=
OEYN 180000Z 29006KT CAVOK 21/13 Q1011 NOSIG=
OEZH NIL=


722 
SAUS17 KAWN 180000 RRA
METAR KBKF 172358Z 04019G23KT 10SM -SN OVC014 M02/M06 A2985 RMK AO2A
      SLP110 P0000 60000 T10241062 10094 21024 52031=
METAR KLUF 172355Z AUTO 21006KT 10SM CLR 18/M04 A3003 RMK AO2 SLP167
      T01821045 10186 20140 55008 $=
METAR KNBG 172355Z 12005KT 10SM 16/11 A2997 RMK AO2 SLP146 T01610111
      10183 20161 56011 $=
METAR KNCA 172356Z 13003KT 10SM CLR 03/01 A3018 RMK SLP221 T00330011
      10111 20033 50005=
METAR KNFW 172352Z 18012KT 10SM FEW250 16/06 A2961 RMK AO2 SLP013 T01610056
      10189 20128 56015 $=


723 
SANA14 KAWN 180000 RRA
METAR KNIP 172353Z 11005KT 10SM FEW250 11/06 A3011 RMK AO2 SLP193 T01110056
      10178 20111 53004=
METAR KNRB 172352Z AUTO 15003KT 10SM CLR 13/08 A3011 RMK AO2 SLP196
      T01280078 10161 20122 55000=
METAR KNSI 172353Z AUTO 32016G23KT SCT009 A3016 RMK AO2 SLPNO 56010
      $=
METAR KNTD 172355Z 25007KT 10SM FEW025 15/09 A3017 RMK AO2 SLP219 T01500094
      10161 20144 56010 VISNO S $=
METAR KNTU 172356Z 16005KT 10SM FEW250 02/M03 A3019 RMK AO2 SLP225
      T00171033 10078 20017 51009=
METAR KNUW 172353Z 33010KT 10SM SCT030 SCT050 06/01 A3047 RMK AO2 SLP322
      T00610011 10072 20044 55001 $=
METAR KNYG 172356Z AUTO 18004KT 10SM CLR 03/ A3014 RMK AO2 SLP207 T0033
      10067 20033 53003 $=
METAR KNYL 172357Z AUTO 25007KT 10SM CLR 19/M03 A3006 RMK AO2 SLP178
      T01941033 10200 20144 55007 $=
METAR KOAR 172355Z AUTO 29006KT 10SM BKN019 10/06 A3021 RMK AO2=
METAR KRND 172355Z AUTO 23003KT 10SM FEW160 15/09 A2978 RMK AO2 SLP083
      T01500094 10159 20125 58010=
METAR KWRI 172355Z AUTO 00000KT 10SM CLR M02/M08 A3012 RMK AO2 SLP201
      T10191082 10064 21020 52016=
METAR MSLP 180000Z 23005KT 9999 FEW020 27/22 Q1012 A2991 NOSIG RMK
      FU SW=
METAR SEGU 180000Z 23008KT 9999 FEW026 SCT100 27/22 Q1011 NOSIG RMK
      A2986=
METAR SKRG 180000Z 05005KT 9999 FEW017 16/14 Q1026 NOSIG=
METAR SKSP 180000Z 05012KT 9999 FEW016 28/24 Q1014=


724 
SASD43 KWBC 180000
METAR
OEMK NIL=
OEML NIL=
OEMU NIL=
OENG 180000Z 00000KT CAVOK 11/M10 Q1021 NOSIG=
OEOA NIL=
OEOF NIL=
OEOH NIL=
OEOS NIL=
OEOT NIL=
OEPA 180000Z 00000KT CAVOK 09/01 Q1019 NOSIG=
OERC NIL=
OERF 180000Z 25003KT CAVOK 07/M01 Q1020 NOSIG=
OERG NIL=
OERL NIL=
OERR 180000Z 33006KT CAVOK 07/00 Q1021 NOSIG=
OERX NIL=
OERY NIL=
OESH 180000Z 06006KT CAVOK 13/M09 Q1019 NOSIG=
OESK 180000Z 34005KT CAVOK 08/M02 Q1024 NOSIG=
OESM NIL=


725 
SASD42 KWBC 180000
METAR
OEGR NIL=
OEGS 180000Z 32002KT CAVOK 08/01 Q1020=
OEGT 180000Z 28004KT CAVOK 07/02 Q1022 NOSIG=
OEGU NIL=
OEGY NIL=
OEHA NIL=
OEHL 180000Z 00000KT CAVOK 07/M02 Q1021=
OEHP NIL=
OEHW NIL=
OEIA NIL=
OEJM NIL=
OEJP NIL=
OEKB NIL=
OEKK 180000Z NIL=
OEKM 180000Z 00000KT CAVOK 08/M09 Q1025 NOSIG=
OEKN NIL=
OELJ NIL=
OEMC NIL=
OEME NIL=
OEMH NIL=


726 
SASD41 KWBC 180000
METAR
OEAB 180000Z 00000KT CAVOK 11/M09 Q1025 NOSIG=
OEAH 180000Z 33010KT CAVOK 12/00 Q1018 NOSIG=
OEAM NIL=
OEAN NIL=
OEBA 180000Z 13003KT CAVOK 13/M09 Q1022 NOSIG=
OEBG NIL=
OEBH 180000Z 00000KT CAVOK 12/M11 Q1019 NOSIG=
OEBP NIL=
OECM NIL=
OEDG NIL=
OEDW NIL=
OEEB NIL=
OEEH NIL=
OEFM NIL=
OEGE NIL=
OEGF NIL=
OEGL NIL=
OEGM NIL=
OEGN 180000Z 02003KT CAVOK 23/19 Q1014 NOSIG=
OEGP NIL=


727 
SASA42 KWBC 180000
METAR
SCAC NIL=
SCHA NIL=
SCSE 180000Z 28007KT CAVOK 17/14 Q1016=
SCTC NIL=
SCTI NIL=
SCVD 180000Z AUTO 23006KT 9999 NCD 18/09 Q1020=
SELT 180000Z 09002KT 9999 SCT030 BKN300 09/08 Q1030=
SUAG NIL=
SUDU NIL=
SUPU NIL=
SUTB NIL=


728 
SASA41 KWBC 180000
METAR
SEMT 180000Z 19011KT 9999 SCT020 BKN100 27/22 Q1010 RMK A2985=
SEPA NIL=
SKBG 180000Z VRB02KT 9999 SCT015 20/20 Q1017=
SKMD 180000Z NIL=
SKPE 180000Z 33004KT 290V020 9999 SCT020 SCT080 23/17 Q1017=
SKSM 180000Z 02014KT 9999 FEW020 29/21 Q1012=
SKVG NIL=
SMJP 180000Z 01006KT 9999 FEW012 26/22 Q1013 NOSIG=


729 
SASA32 KWBC 180000
METAR
SCAR 180000Z 19006KT CAVOK 22/17 Q1016=
SCBA NIL=
SCCF 180000Z 27016KT CAVOK 17/M02 Q1028=
SCCH 180000Z 24007KT 9999 FEW100 SCT200 27/08 Q1016=
SCCI 180000Z 25023KT 9999 SCT045 13/04 Q1005 NOSIG=
SCDA 180000Z 20017KT CAVOK 22/17 Q1015=
SCEL 180000Z 22018KT CAVOK 24/05 Q1016 NOSIG=
SCFA 180000Z 19008KT 9999 FEW017 21/17 Q1016 NOSIG=
SCGE NIL=
SCIE 180000Z 23016KT CAVOK 19/08 Q1017=
SCIP 180000Z 31007KT 260V360 9999 SCT009 BKN012 25/22 Q1016
     NOSIG=
SCTE 180000Z 16007KT CAVOK 15/07 Q1023 NOSIG=
SGAS 180000Z 16007KT 130V200 7000 NSC 34/20 Q1006=
SGES 180000Z 15002KT 9999 FEW030 28/22 Q1008=
SLCB 180000Z 27003KT 9999 FEW027 FEW030CB BKN070 17/11 Q1026=
SLCZ NIL=
SLLP 180000Z 11006KT 9999 FEW015 FEW017CB BKN200 10/04 Q1036=
SLTJ 180000Z 00000KT 9999 FEW030 SCT070 20/14 Q1020=
SLTR NIL=
SLVR 180000Z 04012KT 9999 VCTS SCT020 FEW030CB BKN200 24/21
     Q1010=
SUAA NIL=
SUCA NIL=
SULS 180000Z 14008KT 110V170 9999 BKN010 24/23 Q1012=
SUMU 180000Z 15012KT 9999 SCT007 24/24 Q1013 NOSIG=
SUPE NIL=
SURV NIL=
SUSO NIL=


730 
SASA31 KWBC 180000
METAR
SEGU 180000Z 23008KT 9999 FEW026 SCT100 27/22 Q1011 NOSIG RMK
     A2986=
SEQM 180000Z 32005KT 280V020 9999 BKN030 BKN080 16/12 Q1026 NOSIG
     RMK A3032=
SEQU NIL=
SKBO 180000Z 23007KT 9999 SCT020 SCT070 14/12 Q1027 NOSIG=
SKBQ 180000Z 03009KT 350V050 9999 FEW015 27/23 Q1012 NOSIG=
SKCG 180000Z 01006KT 340V070 CAVOK 27/24 Q1011=
SKCL 180000Z 33009KT 9999 SCT025 SCT120 25/18 Q1014 NOSIG=
SKLT 180000Z VRB02KT 9999 SCT020 27/25 Q1008=
SKRG 180000Z 05005KT 9999 FEW017 16/14 Q1026 NOSIG=
SKSP 180000Z 05012KT 9999 FEW016 28/24 Q1014=
SMNI NIL=
SMZO 180000Z 02003KT 9999 FEW010 26/23 Q1013 NOSIG=
SMZY NIL=
SOCA 180000Z AUTO 08004KT 050V110 9999 FEW023 26/22 Q1014
     NOSIG=
SPJC 180000Z 16013KT CAVOK 24/18 Q1014 NOSIG RMK PP000=
SPQT 180000Z 00000KT 9999 FEW020 26/23 Q1008 NOSIG RMK PP000=
SPQU 180000Z 27008KT 230V300 9999 BKN140 12/03 Q1028 RMK PP000=
SPSO 180000Z 21014KT 9999 SCT070 22/19 Q1014 RMK PP000=
SPTN 180000Z 21009KT 9999 BKN030 21/15 Q1018 RMK PP000=
SPYL 180000Z 19008KT CAVOK 24/18 Q1012 RMK BIRD HAZARD RWY 17/35
     PP000=
SPZO 180000Z 29009KT 9999 FEW046 SCT100 15/05 Q1028 NOSIG RMK BIRD
     HAZARD RWY 10/28 PP000=
SVBC NIL=
SVMC NIL=
SVMG NIL=
SVMI 180000Z 09004KT 9999 SCT016 27/23 Q1015=
SYCJ 180000Z 04004KT 9999 SCT022 24/21 Q1014 NOSIG=
SYTM NIL=


731 
SARS41 KWBC 180000
METAR
UUBP 180000Z NIL=
UUEE 180000Z 26006MPS 9999 OVC004 01/M00 Q1014 R24L/250140
     R24C/250140 NOSIG=
UUEM NIL=
UUOO 180000Z 32004MPS 9999 OVC010 02/02 Q1016 R12/290150 NOSIG RMK
     QFE748=
UUWW 180000Z 28006MPS 9999 OVC004 00/M00 Q1015 R24/250050
     NOSIG=
UUYH NIL=
UUYS NIL=
UUYY 180000Z 21004MPS 4900 BR OVC003 M07/M07 Q1002 R18/390333
     NOSIG RMK QBB100 QFE743/0991=
UWGG 180000Z 29002MPS 9999 OVC008 00/M00 Q1011 R36R/590138
     NOSIG=
UWKD 180000Z 14002MPS 2800 BR OVC006 M05/M06 Q1008 R11/490145
     NOSIG RMK QFE746/0995=
UWKE 180000Z 20002MPS 9999 SCT011 OVC023 M07/M08 Q1008 R21/410260
     NOSIG RMK QFE740/0986=
UWLW 180000Z 00000MPS 4900 BR OVC016 M04/M04 Q1009 R20/850537
     NOSIG RMK QFE751/1002=
UWOO 180000Z 12004MPS 9999 OVC005 M11/M12 Q1012 R08/850250 NOSIG
     RMK QBB170 QFE748/0998=
UWPP NIL=
UWSS NIL=
UWUU 180000Z 16003MPS 9999 OVC012 M10/M13 Q1012 R14R/811050
     NOSIG=
UWWW 180000Z 09003MPS 9999 OVC007 M04/M05 Q1008 R15/450142 NOSIG
     RMK QFE745/0993=


732 
SARS33 KWBC 180000
METAR
USCC 180000Z 00000MPS 9999 BKN040 M16/M17 Q1010 R27/420350 NOSIG
     RMK QFE738=
USDD NIL=
USHF NIL=
USMU NIL=
USNN 180000Z 21001MPS 9000 -SN OVC013 M20/M22 Q1007 R21/490248
     NOSIG RMK QFE750=
USNR NIL=
USPP 180000Z 23005MPS 9999 -SN OVC011 M11/M12 Q1008 REFZDZ
     R21/690343 NOSIG RMK QFE745=
USRK NIL=
USRR 180000Z 24002MPS 6000 BKN011 M16/M18 Q1005 R25/35//42 RMK
     QFE749=
USSS 180000Z 20002MPS CAVOK M17/M18 Q1009 R26L/450145 NOSIG RMK
     QFE736/0982=
USTR 180000Z 23003MPS 9999 -SN BKN017 M19/M21 Q1010 R21/450548
     R30/450548 TEMPO 0500 -SN FZFG VV003=


733 
SARS32 KWBC 180000
METAR
URKA 180000Z 31003MPS 8000 SCT007 BKN020CB 02/02 Q1023 R03/290155
     TEMPO 1000 TSRASN SCT003 BKN015CB RMK QFE764/1018=
URKK 180000Z 28007MPS 5000 -RA BR BKN007 OVC019 04/03 Q1022
     R23L/290060 TEMPO 0200 -TSRA FG BKN002 BKN016CB RMK
     QFE763=
URKM NIL=
URMM 180000Z 28008MPS 9999 -SHRA OVC020CB 04/00 Q1018 R29/290150
     NOSIG RMK MT OBSC QFE735/0980=
URMN 180000Z 01003MPS 9999 OVC081 02/00 Q1017 R24/////// NOSIG RMK
     QFE726=
URMT 180000Z 32012G17MPS 9999 -RA OVC006 02/01 Q1017 R25/190060
     NOSIG RMK QFE724=
URRR NIL=
URSS 180000Z 08003MPS 9999 -SHRA SCT014 OVC030CB 05/04 Q1027
     R06/290060 R02/////// NOSIG RMK R02/06002MPS MT OBSC
     QFE770=
URWA 180000Z 28007MPS 9999 OVC007 01/01 Q1013 R27/290052 TEMPO
     1000 RASN BKN003 OVC020 RMK OBST OBSC QFE762/1016=
URWI 180000Z AUTO 29011MPS 9999 // ///009/// 01/M01 Q1014=
URWW 180000Z 29007MPS 9999 -SHSN BKN003 OVC025CB 01/01 Q1011
     R23/290050 TEMPO 0500 +SHSN FZRA BKN001 BKN020CB OVC030 RMK
     OBST OBSC=


734 
SARS31 KWBC 180000
METAR
UELL NIL=
UEST NIL=
ULLI 180000Z 24005MPS 200V280 9999 BKN011 BKN020 03/01 Q1007
     R28L/290050 NOSIG=
ULMM 180000Z 16002MPS 8000 -SHRA BKN012CB 01/01 Q0982 R13/690140
     NOSIG RMK QFE730=
UMWW NIL=
UOHH NIL=
UOOO 180000Z 11003MPS 9999 -SN OVC039 M19/M22 Q0993 R19/490535
     NOSIG RMK QFE729/0972=
UQKT NIL=
UTAM 180000Z 00000KT 6000 SCT030CB BKN030 OVC100 04/03 Q1024
     R88/CLRD70 NOSIG=
UUDD 180000Z 28005MPS 9999 OVC007 01/00 Q1015 R32L/290042
     NOSIG=
UUEE 180000Z 26006MPS 9999 OVC004 01/M00 Q1014 R24L/250140
     R24C/250140 NOSIG=
UUEM NIL=
UUKT NIL=
UUWW 180000Z 28006MPS 9999 OVC004 00/M00 Q1015 R24/250050
     NOSIG=


735 
SARA31 KWBC 180000
METAR
UAAA 180000Z VRB01MPS 5000 BR SCT100 BKN200 M05/M08 Q1018
     NOSIG=
UACC 180000Z 25004MPS 9999 -SN SCT013 BKN040 M09/M10 Q1015 TEMPO
     -SN DRSN RMK QFE730/0973=
UAFM NIL=
UAFO NIL=
UAFP NIL=
UAON NIL=
UAOO 180000Z 20003MPS 9999 OVC004 M00/M01 Q1019 NOSIG RMK QBB120
     QFE753/1004=
UARR 180000Z 13006MPS 3200 -SN BR BKN010 OVC020 M03/M05 Q1008
     TEMPO -FZDZ RMK QFE752/1003=
UATE 180000Z 30009MPS 9000 -SHRA BKN012CB OVC033 03/01 Q1015 NOSIG
     RMK QFE760/1013=
UATG 180000Z 26005MPS 4000 BR OVC004 00/M00 Q1010 NOSIG RMK QBB130
     QFE759/1012=
UATT 180000Z 13003MPS 9999 OVC010 M12/M14 Q1012 TEMPO 0500 FZFG
     VV002 RMK QFE740/0986=
UBBB 180000Z 29006KT 9999 BKN017 05/04 Q1021 NOSIG=
UBBG 180000Z 28014KT 9999 FEW100 05/M03 Q1021 NOSIG=
UBEE NIL=
UGEE NIL=
UGEL NIL=
UGGG NIL=
UGGN NIL=
UGMM NIL=
UGSS NIL=
UHMD 180000Z NIL=
UHME NIL=
UHML NIL=
UHMO NIL=
UHMP NIL=
UHSN NIL=
UIAA 180000Z 20005MPS 9999 NSC M09/M15 Q1009 R29/410152 NOSIG RMK
     QFE698/0931=
UIBB 180000Z 25003MPS 9000 -SHSN BKN012CB M10/M12 Q1013 R30/450145
     NOSIG RMK MT OBSC QFE717/0956=
UIII 180000Z 08002MPS CAVOK M17/M20 Q1015 R12/810350 NOSIG RMK
     QFE719/0959=
UIUU 180000Z 06002MPS 3600 FU NSC M24/M26 Q1018 R26/821055 NOSIG
     RMK QFE719/0959=
ULAA 180000Z 24004MPS 170V280 3800 -SNRA BR OVC003 01/01 Q0993
     R26/690141 NOSIG RMK QBB100 QFE743/0991=
ULNR NIL=
UMBB 180000Z NIL=
UMGG 180000Z 28006MPS 3500 -DZ BR OVC005 02/02 Q1024 TEMPO 2500
     RMK QBB160=
UMII 180000Z NIL=
UMMG 180000Z NIL=
UMMM NIL=
UMMS 180000Z 28005MPS 9999 OVC007 03/02 Q1023 NOSIG=
UNAA 180000Z 25002MPS 190V270 6000 NSC M08/M09 Q1013 R20/190059
     NOSIG RMK QFE738=
UNBG NIL=
UNNN NIL=
UNNT 180000Z 23006MPS 9999 -SN OVC026 M04/M07 Q1010 R25/490237
     R34/////// NOSIG RMK QFE748/0997=
URMS NIL=
USKK NIL=
USNN 180000Z 21001MPS 9000 -SN OVC013 M20/M22 Q1007 R21/490248
     NOSIG RMK QFE750=
USUU NIL=
UTAA 180000Z 22004KT 8000 FEW050 SCT100 02/02 Q1021 R88/CLRD70
     NOSIG=
UTAK 180000Z 22006KT 9999 SCT016 BKN100 06/03 Q1022 R34L/CLRD70
     NOSIG=
UTAT 180000Z 31006KT 9999 OVC016 01/01 Q1020 R26/19//65 NOSIG=
UTAV 180000Z NIL=
UTAV 180000Z 36002KT 7000 NSC M02/M02 Q1021 R31/CLRD70 NOSIG=
UTDD 180000Z 36002MPS 7000 SCT062CB SCT080 OVC093 05/01 Q1017
     R09/CLRD// NOSIG RMK QFE694/0926=
UTDL 180000Z 23005MPS 0700 0550W R26/2000N FG OVC002 02/01 Q1019
     R26/CLRD70 NOSIG RMK QBB060 QFE726/0968=
UTEE NIL=
UTKA NIL=
UTKF NIL=
UTKK NIL=
UTNK NIL=
UTNN 180000Z 21006KT 9999 OVC040 00/M02 Q1019 R33/290050 NOSIG=
UTNR NIL=
UTNU 180000Z 25008KT 9999 OVC010 04/02 Q1019 R31/19//55 NOSIG=
UTSA 180000Z 28004KT 9999 BKN036 M01/M02 Q1021 R25/CLRD70
     NOSIG=
UTSB 180000Z 33002KT CAVOK M02/M03 Q1021 R01/CLRD70 NOSIG=
UTSD NIL=
UTSK 180000Z 33004KT 4600 BR OVC040CB 01/01 Q1020 R16/290050=
UTSS 180000Z VRB02KT 5000 -SHRA BR OVC005CB 02/01 Q1018 R27/29//50
     NOSIG RMK BASE500=
UTST 180000Z 24010KT 4400 BR BKN066CB 05/02 Q1019 R25/CLRD70
     NOSIG=
UTTA NIL=
UTTR NIL=
UTTT 180000Z 33006KT 3000 -SHRA BR OVC004CB 04/03 Q1019
     R08R/29//50 NOSIG RMK BASE460=
UTTW NIL=
UUBL NIL=
UUEE 180000Z 26006MPS 9999 OVC004 01/M00 Q1014 R24L/250140
     R24C/250140 NOSIG=
UWKB NIL=


736 
SAPO31 KWBC 180000
METAR
LPAZ 180000Z 14012KT 5000 -RA BR FEW002 BKN004 17/17 Q1019=
LPBJ 180000Z 07004KT CAVOK 06/02 Q1026=
LPFL 180000Z NIL=
LPFR 180000Z 02006KT CAVOK 09/04 Q1025=
LPHR 180000Z 31007KT 270V330 9999 SCT015 16/12 Q1019=
LPLA 180000Z /////KT 9999 FEW020 SCT030 15/14 Q1019=
LPMA 180000Z 33006KT 280V010 9999 BKN015 SCT030 17/07 Q1026=
LPMR NIL=
LPMT NIL=
LPOV NIL=
LPPD 180000Z 25002KT 5000 -DZ BR SCT003 BKN008 17/16 Q1019=
LPPR 180000Z 11009KT CAVOK 08/01 Q1027=
LPPS 180000Z 31005KT 9999 FEW015 BKN030 16/07 Q1026=
LPPT 180000Z 35005KT CAVOK 07/03 Q1027=
LPST NIL=
LPTN NIL=


737 
SAXX62 KWBC 180000
METAR
FJDG NIL=
FUDG NIL=
PHBK 172351Z AUTO 36015KT 10SM FEW017 24/17 A2993 RMK AO2 PK WND
     01026/2254 SLP136 T02440167 10250 20206 58016=
PHHI 172355Z AUTO 29011KT 10SM CLR 25/18 A2995 RMK AO2 SLPNO 60008
     T02460178 10247 20186 57019 $=
PHNG 172357Z AUTO 36006KT 10SM SCT030 OVC037 A2990 RMK AO2 SLP122
     60001 56024 $=
PHSF 172355Z AUTO 27012G18KT 10SM FEW013 18/11 A3022 RMK AO2
     SLP136 T01790107 10196 20088 57024 $=
PJON NIL=
PKMJ NIL=
PKWA 180000Z AUTO 08018G22KT 10SM CLR 30/23 A2984 RMK AO2
     T03030227=
PMDY 172356Z AUTO 35006KT 10SM OVC020 22/17 A3013 RMK AO2 SLP204
     60001 T02170172 10222 20194 58013=
PTSA 172354Z 09011KT 10SM BKN022TCU BKN130 OVC300 30/24 A2978 RMK
     TCU NE-SW=
PWAK 172355Z AUTO 11010KT 9SM FEW027 30/23 A2998 RMK AO2 SLP155
     60000 T03010228 10301 20253 58001=
RJOI 172356Z 28005KT 9999 FEW020 05/M01 A3032 RMK AO2 SLP267
     T00501006 10050 20017 53013=
RJTA NIL=
RJTX NIL=
RJTY 172355Z AUTO 03010KT 10SM CLR 05/M09 A3023 RMK AO2 SLP245
     T00531093 10053 21017 52013 $=
RKJJ NIL=
RKJK NIL=
RKNC NIL=
RKPK 180000Z 32002KT CAVOK M01/M06 Q1026=
RKSB NIL=
RKSG 172355Z 16003KT 5SM HZ CLR M04/M07 A3032 RMK SLP272 50004=
RKSK NIL=
RKSM NIL=
RKSO 172355Z AUTO 00000KT 9SM CLR M05/M07 A3035 RMK AO2 SLP282
     T10481074 11048 21084 53010 $=
RKST NIL=
RKSY NIL=
RKTG NIL=
RKTH NIL=
RODN 172355Z 06005KT 10SM CLR 15/09 A3016 RMK AO2A SLP216
     T01520091 10152 20075 52008 FZRANO $=


738 
SAXX61 KWBC 180000
METAR
EDAD NIL=
EDAH 172350Z AUTO 26006KT 1000 R28/1600D // VV/// M01/M01
     Q1034=
EDAR NIL=
EDAS NIL=
EDDS 172350Z AUTO 08005KT 9999 OVC015 00/M02 Q1031=
EDEB NIL=
EDEH NIL=
EDEU NIL=
EDIC NIL=
EDID NIL=
EDIE NIL=
EDIH NIL=
EDIK NIL=
EDMA 172350Z AUTO 10006KT 9999 // OVC011/// 00/M02 Q1032=
EGPK 172350Z 17009KT 9999 BKN016 09/06 Q1028=
EGUA NIL=
EGUL 172355Z AUTO 19006KT 9999 OVC008 03/00 A3053 RMK AO2 SLP342
     T00260002 10049 20025 400670025 55005 $=
EGUN 172355Z AUTO 21004KT 9999 OVC008 03/01 A3053 RMK AO2 SLP342
     T00280009 10044 20027 400600027 55005=
EGVA 172355Z AUTO 22005KT 9999 OVC009 03/01 A3051 RMK AO2 SLP338
     T00270006 10050 20027 400720027 57007 $=
EGVJ NIL=
EGWZ NIL=
ETAD 172355Z AUTO 07009KT 6000 BR OVC001 M00/M01 A3046 RMK AO2 VIS
     2800 RWY22 SLP321 T10031010 10003 21036 56015 FZRANO $=
ETAR 172355Z COR 06010KT 9999 OVC011 01/M01 A3049 RMK AO2A SLP338
     T00111011 10015 20008 57014 $ COR 2359=
ETAR 172355Z 06010KT 9999 OVC011 01/01 A3049 RMK AO2A SLP338
     T00111011 10015 20008 57014 $=
KQHT NIL=
KQIR NIL=
KQJL NIL=
KQUZ NIL=
LEMO 180000Z VRB01KT CAVOK 04/01 Q1026 NOSIG=
LERT 180000Z 03003KT CAVOK 06/04 Q1026 NOSIG=
LICZ NIL=
LIRN 172350Z 07015KT CAVOK 12/04 Q1023 NOSIG=
LIYW NIL=
LPLA 180000Z /////KT 9999 FEW020 SCT030 15/14 Q1019=
LTAC 172350Z 05004KT CAVOK M03/M04 Q1028 NOSIG RMK RWY21L 36003KT
     RWY03L 04004KT RWY21R 36003KT=
LTAC 172350Z 05004KT CAVOK M03/M04 Q1028 NOSIG=
LTAG 172350Z 03011KT CAVOK 11/M02 Q1023 NOSIG RMK SKC=
LTAG 172350Z 03011KT CAVOK 11/M02 Q1023 NOSIG=


739 
SAVN42 KWBC 180000
METAR
SVPC NIL=
SVPM NIL=
SVPR NIL=
SVSA NIL=
SVSE NIL=
SVSO NIL=
SVSP NIL=
SVSR NIL=
SVST NIL=
SVSZ NIL=
SVTM NIL=
SVVA 180000Z /////KT 9999 SCT016 27/20 Q1014=
SVVL NIL=
SVVP NIL=


846 
SACA31 TNCC 180000

METAR TNCC 180000Z 06007KT 9999 SCT016 26/25 Q1015 NOSIG==

857 
SAVN20 SVMR 180003
METAR SVLO 180003Z AUTO NIL=
METAR SVMI 180003Z AUTO 08006KT NCD 26/21 Q1015=
METAR SVMC 180003Z AUTO 04009KT NCD 27/23 Q1013=
METAR SVBC 180003Z AUTO 02005KT NCD 29/22 Q1013=
METAR SVVA 180003Z AUTO 34005KT NCD 26/18 Q1014=
METAR SVMG 180003Z AUTO NIL=
METAR SVBM 180003Z AUTO 06008KT NCD 24/18 Q1016=
METAR SVCS 180003Z AUTO NIL=
METAR SVFM 180003Z AUTO NIL=
METAR SVPA 180003Z AUTO NIL=
METAR SVSR 180003Z AUTO NIL=
METAR SVBS 180003Z AUTO 33003KT NCD 27/17 Q1016=
METAR SVGU 180003Z AUTO ///01KT NCD ///// Q1014=
METAR SVVL 180003Z AUTO NIL=
METAR SVJM 180003Z AUTO 19003KT NCD 27/17 Q1013=
METAR SVGD 180003Z AUTO NIL=
METAR SVBI 180003Z AUTO ///01KT NCD ///// Q////=
METAR SVMT 180003Z AUTO 07004KT NCD 26/24 Q1014=
METAR SVCB 180003Z AUTO NIL=
METAR SVSA 180003Z AUTO 31001KT NCD 26/20 Q1013=
METAR SVCP NIL=
METAR SVPR 180003Z AUTO NIL=


858 
SAAU31 YBBN 180000
METAR YPAD 180000Z 25007KT CAVOK 25/10 Q1017=
METAR YBBN 180000Z 23006KT 180V270 9999 SCT040 27/18 Q1005=
METAR YBCS 180000Z AUTO 35003KT 9999 // NCD 32/24 Q1004=
METAR YSCB 180000Z AUTO 16016KT 9999 // OVC036 19/11 Q1022=
METAR YPDN 180000Z 06007KT 9999 -RA FEW004 OVC130 25/25 Q1008=
METAR YBCG 180000Z AUTO 21009KT 9999 // BKN035 28/20 Q1005=
METAR YMHB 180000Z AUTO 01005KT 350V050 9999 // NCD 18/08 Q1028=
METAR YMML 180000Z 23004KT 170V260 CAVOK 22/11 Q1021=
METAR YPPH 180000Z NIL=
METAR YSSY 180000Z 17027G37KT 8000 VCSH FEW011 SCT015 BKN022 21/20
Q1017=


859 
SAMC35 GMMC 180000 RRA
METAR GMFB 180000Z AUTO 04005KT 9999 FEW071/// OVC090/// 05/01 Q1023
NOSIG=


860 
SAAU36 YBBN 180000
METAR YAMB 180000Z AUTO 18008KT 9999 // BKN040 BKN067 28/19 Q1005=
METAR YPEA 180000Z AUTO 12014KT 9999 // NCD 20/10 Q1014=
METAR YPTN 180000Z AUTO 00000KT 9999 // FEW011 SCT058 27/24 Q1010=
METAR YBTL 180000Z AUTO 12005KT 100V160 9999 // SCT030 33/25 Q1004=
METAR YWLM 180000Z AUTO 14018KT 4700 -RA FEW018 BKN075 OVC094 21/20
Q1014 RERA=


861 
SAIY53 LIIB 180000
METAR LIBA 172355Z 29008KT 9999 OVC050 08/06 Q1028=
METAR LIBC 180000Z NIL=
METAR LIBD 172350Z 26004KT CAVOK 08/07 Q1028=
METAR LIBG 180000Z NIL=
METAR LIBN 172355Z 30002KT CAVOK 09/08 Q1026=
METAR LIBP 172350Z AUTO 22005KT 9999 FEW072/// OVC098/// 07/05
Q1031=
METAR LIBQ 172355Z AUTO /////KT //// ///// Q////=
METAR LIBR 172350Z 08003KT 060V130 CAVOK 12/09 Q1027=
METAR LIBV 172355Z 35006KT 7000 NSC 07/06 Q1027=
METAR LICA 172350Z AUTO 07028G39KT 4200 -RA BR OVC032/// 13/10
Q1019=
METAR LICB 172350Z AUTO 17003KT 140V210 9999 BKN150/// 11/08 Q1019=
METAR LICC 172350Z 19003KT 150V220 4000 BR SCT040 12/10 Q1020=
METAR LICD 172350Z AUTO 21021KT 9999 BKN036/// 14/08 Q1018=
METAR LICG 180000Z NIL=
METAR LICJ 172350Z 15006KT 120V180 9999 FEW025 SCT060 12/08 Q1017=
METAR LICR 172350Z AUTO 17013KT 9999 BKN021/// BKN200/// 15/12
Q1020=
METAR LICT 172355Z 13008KT 9999 SCT018 10/09 Q1016=
METAR LICZ 172355Z /////KT 9999 SCT030 BKN100 12/12 Q1019=


862 
SAIY52 LIIB 180000
METAR LIBF 180000Z NIL=
METAR LIEA 172350Z 05019KT 9999 FEW040 11/05 Q1019=
METAR LIED 172355Z 29008KT 9999 FEW020 SCT035 12/09 Q1014=
METAR LIEO 172350Z 04018KT 8000 -DZ BKN035 12/09 Q1021=
METAR LIMA 180000Z NIL=
METAR LIQN 180000Z NIL=
METAR LIQO 172355Z AUTO 28021KT //// 06/01 Q1022=
METAR LIQW 180000Z NIL=
METAR LIRE 180000Z NIL=
METAR LIRG 180000Z NIL=
METAR LIRH 180000Z NIL=
METAR LIRI 180000Z NIL=
METAR LIRK 172355Z AUTO 12040G55KT //// M02/M05 Q1017=
METAR LIRL 180000Z NIL=
METAR LIRM 172355Z 02023G34KT 9999 SCT030 BKN070 12/02 Q1023=
METAR LIRS 172355Z 01012KT 9999 SCT030 BKN080 09/03 Q1023=
METAR LIRT 180000Z NIL=
METAR LIRU 180000Z NIL=
METAR LIRV 180000Z NIL=
METAR LIRX 180000Z NIL=
METAR LIRY 180000Z NIL=
METAR LIRZ 172350Z AUTO 05017KT 9999 BKN130/// 07/01 Q1027=


863 
SAIY51 LIIB 180000
METAR LIMH 172355Z AUTO 23005KT 200V290 //// M13/M23 Q1025=
METAR LIMT 180000Z NIL=
METAR LIMU 172355Z AUTO 01025KT //// 10/M07 Q1026=
METAR LIMV 172355Z AUTO /////KT //// // ///////// ///// Q////=
METAR LIMY 172355Z AUTO 26004KT //// 02/M05 Q1032=
METAR LIVD 172355Z AUTO VRB02KT //// M09/M11 Q1035=
METAR LIVE 180000Z NIL=
METAR LIVF 172355Z 02005KT 9999 BKN030 01/M02 Q1028=
METAR LIVM 172355Z AUTO /////KT //// ///// Q////=
METAR LIVO 180000Z NIL=
METAR LIVR 172355Z 10002KT CAVOK M03/M24 Q1031=
METAR LIVT 172355Z AUTO /////KT //// 05/M04 Q1031=


864 
SAMC33 GMMC 180000 RRB
METAR GMMB 180000Z AUTO 16005KT 9999 NSC 10/10 Q1022 NOSIG=


865 
SAIY50 LIIB 180000
METAR LIMG 180000Z NIL=
METAR LIMK 172355Z AUTO /////KT //// 02/M03 Q1031=
METAR LIMN 180000Z NIL=
METAR LIMP 180000Z NIL=
METAR LIMS 180000Z NIL=
METAR LIMZ 172350Z AUTO 35005KT 9999 NCD M01/M04 Q1032=
METAR LIPA 180000Z NIL=
METAR LIPB 180000Z NIL=
METAR LIPC 180000Z NIL=
METAR LIPF 180000Z NIL=
METAR LIPH 172350Z AUTO 02002KT 9999 NCD 01/M03 Q1033=
METAR LIPI 172355Z 02009KT CAVOK 02/M03 Q1033=
METAR LIPL 172355Z 35005KT CAVOK M02/M02 Q1033=
METAR LIPO 172350Z AUTO 36003KT 9999 NCD M00/M01 Q1033=
METAR LIPQ 172350Z AUTO VRB02KT 9999 NCD M00/M05 Q1032=
METAR LIPR 172350Z AUTO 29012KT 9999 NCD 04/M01 Q1032=
METAR LIPS 172355Z 01005KT CAVOK M00/M03 Q1032=
METAR LIPU 180000Z NIL=
METAR LIPX 172350Z 34002KT CAVOK M00/M03 Q1033=
METAR LIPY 172350Z AUTO VRB03KT 9999 BKN025/// 04/01 Q1032=
METAR LIVC 172355Z AUTO /////KT //// M06/M07 Q1025=
METAR LIVP 180000Z NIL=


866 
SAIR31 OIII 180000 RRA
METAR OIMM 180000Z 13004KT 3000 BR BKN020 01/00 Q1022 A3012=


867 
SAJM31 MKJS 180000
METAR MKJS 180000Z 10007KT 9999 BKN022 26/22 Q1016=


868 
SATR31 UTAA 180000 RRA
METAR UTAE 180000Z 35008KT 9000 OVC012 02/02 Q1021 R34/CLRD70 NOSIG=


102 
SABC40 FBSK 180000
METAR FBMN 180000Z 10008KT CAVOK 21/21 Q1016=

103 
SAIN90 VEJS 180000
METAR VEJS 180000Z 00000KT 1400 RMID/2000 BR FEW020 14/12 Q1017 =

104 
SAIN90 VEMN 180000
METAR VEMN 180000Z 00000KT 1800 BR SCT100 12/11 Q1016 BECMG 1500 BR=

105 
SAZA31 FAPR 180000
METAR FABL 180000Z AUTO 01004KT //// R02///// // ///////// 17/13
     Q1020=
METAR FACT 180000Z 21011KT 9999 FEW016 19/17 Q1012 NOSIG=
METAR FAGG 180000Z AUTO 34003KT CAVOK 16/13 Q1012=
METAR FALA 180000Z AUTO 08002KT //// ///////// 18/16 Q1021=
METAR FALE 180000Z 01004KT CAVOK 18/17 Q1014 NOSIG=
METAR FALW 180000Z AUTO 22007KT //// // ////// 15/13 Q1011=
METAR COR FAOR 180000Z 36008KT 4000 BR BKN003 16/16 Q1023 TEMPO 2000=
METAR FAPE 180000Z 23003KT 4000 R26/1200U BR BKN004 16/15 Q1011
     NOSIG=
METAR FAPP 180000Z AUTO 07001KT //// // ////// 17/17 Q1023=
METAR FAUP 180000Z 15007KT CAVOK 24/M00 Q1013 NOSIG=

106 
SAIN90 VOKN 180000
METAR VOKN 180000Z 08007KT 3000 BR NSC 23/17 Q1009 NOSIG=

107 
SAMZ40 FQMA 180000
METAR FQNP 180000Z 21004KT 8000 BKN020 24/06 Q1013=

108 
SAIN90 VEAT 180000
METAR VEAT 180000Z 00000KT 2000 BR NSC 13/13 Q1015 NOSIG=

109 
SAIN90 VOGA 180000
METAR VOGA 180000Z 05005KT 3000 HZ NSC 24/18 Q1011 NOSIG=

247 
SAIN32 VIDP 180000
METAR VIJP 180000Z 06004KT 0100 R26/0300 FG VV/// 10/10 Q1019 NOSIG=
METAR VIDP 180000Z 25005KT 0400 R28/2000 R27/2000 R29R/2000 R29L/2000
 FG FEW100 11/10 Q1018 NOSIG=
METAR VILK 180000Z 27006KT 0000 R27/0200 FG VV/// 11/11 Q1018 NOSIG=
METAR VIAR 180000Z 23005KT 0600 R34/1200 R16/1400 MIFG SCT090 07/06
 Q1018 NOSIG=
METAR VEBN 180000Z 22003KT 0700 R27/0650 MIFG NSC 10/10 Q1017 NOSIG=


301 
SAIN90 VEPT 180000
METAR VEPT 180000Z 27004KT 1200 R25/2000 R07/2000 MIFG NSC 14/12
Q1017 NOSIG=

302 
SAIN90 VOBZ 180000
METAR VOBZ 180000Z 09004KT 1800 BR NSC 20/18 Q1013 NOSIG=

303 
SAIN90 VOMD 180000
METAR VOMD 180000Z 02011KT 3000 BR FEW020 24/20 Q1011 NOSIG=

304 
SAIN90 VOTR 180000
METAR VOTR 180000Z 01008KT 2500 BR FEW016 24/22 Q1011 NOSIG=

305 
SAIN90 VOBL 180000
METAR VOBL 180000Z 09008KT 1500 R09R/2000 R09L/2000 BR FEW008 17/15
Q1016 NOSIG=

306 
SAIN90 VOBG 180000
METAR VOBG 180000Z 09008KT 2000 BR SCT008 17/15 Q1016 NOSIG=

307 
SAIN90 VOCL 180000
METAR VOCL 180000Z 09005KT 5000 BR FEW012 22/18 Q1009 NOSIG=

308 
SAIN90 VOGO 180000
METAR VOGO 180000Z 07008KT 4000 HZ NSC 24/17 Q1010 NOSIG=

309 
SAIN90 VISM 180000
METAR VISM 180000Z 00000KT 2000  NSC 06/M00 Q1021=

310 
SATS42 DTTA 180000
METAR DTTB 180000Z 07005KT 040V100 9999 SCT020 08/06 Q1011=
METAR DTTD 180000Z AUTO 21006KT 170V260 NCD 09/02 Q1020=
METAR DTTK 180000Z /////KT 9999 BKN023 SCT030 10/05 Q1013=
METAR DTTL 180000Z AUTO 15008KT 050V220 NCD 13/07 Q1014=
METAR DTTN 180000Z 33002KT 6000 SCT020 SCT030 07/05 Q1010=
METAR DTTR 180000Z NIL=

311 
SAIN90 VAID 180000
METAR VAID 180000Z 09006KT 1500 BR FEW100 12/10 Q1018 NOSIG=

312 
SATS41 DTTA 180000
METAR DTTB 180000Z 07005KT 040V100 9999 SCT020 08/06 Q1011=
METAR DTTD 180000Z AUTO 21006KT 170V260 NCD 09/02 Q1020=
METAR DTTG 180000Z NIL=
METAR DTTK 180000Z /////KT 9999 BKN023 SCT030 10/05 Q1013=
METAR DTTL 180000Z AUTO 15008KT 050V220 NCD 13/07 Q1014=
METAR DTTN 180000Z 33002KT 6000 SCT020 SCT030 07/05 Q1010=

313 
SAIN90 VERC 180000
METAR VERC 180000Z 34002KT 2500 BR NSC 09/04 Q1019 NOSIG=

314 
SAIN90 VOMM 180000
METAR VOMM 180000Z 03005KT 3500 BR FEW020 SCT100 24/20 Q1011 NOSIG=

315 
SAIN90 VOHS 180000
METAR VOHS 180000Z 09004KT 1000 R09R/1600 R27L/1800 MIFG BKN008
SCT015 18/16 Q1016 NOSIG=

316 
SATS40 DTTA 180000
METAR DTKA 180000Z 11007KT 9999 SCT020 BKN030 06/05 Q1010=
METAR DTMB 180000Z 17016KT 9999 FEW033 11/05 Q1014=
METAR DTNH 180000Z 17017KT 9999 -RA BKN020 SCT033 10/06 Q1012=
METAR DTTA 180000Z 11005KT 070V180 9999 SCT023 10/06 Q1012=
METAR DTTF 180000Z 23011KT 8000 FEW026 08/01 Q1015=
METAR DTTJ 180000Z 18013KT CAVOK 10/06 Q1018=
METAR DTTR 180000Z NIL=
METAR DTTX 180000Z 20013KT 9999 FEW020 SCT030 12/06 Q1016=
METAR DTTZ 180000Z 21018KT 8000 FEW033 08/M01 Q1016=

317 
SAIN90 VIJP 180000
METAR VIJP 180000Z 06004KT 0100 R26/0300 FG VV/// 10/10 Q1019 NOSIG=

432 
SAHK31 VHHH 180000
METAR VHHH 180000Z 07004KT 9999 FEW045 14/08 Q1021 NOSIG=
METAR RCTP 180000Z 05012KT 9999 FEW015 SCT090 16/09 Q1021 NOSIG
RMK A3016=
METAR RCKH 180000Z 33005KT 9000 -RA FEW015 SCT035 BKN050 16/11
Q1019 NOSIG RMK A3009=
METAR RCSS 180000Z 12010KT 9999 FEW025 BKN080 15/10 Q1021 NOSIG
RMK A3017=
METAR RCMQ 180000Z 33005KT 9999 FEW012 BKN080 15/11 Q1019 NOSIG 
RMK A3011=
METAR RCNN 180000Z 03005KT 9999 -RA FEW010 SCT025 BKN050 14/09 
Q1020 NOSIG RMK A3012 RA AMT T=
METAR RCFN 180000Z 36003KT 300V040 9999 -RA FEW020 BKN040 15/11
Q1023 NOSIG RMK A3021=
METAR VMMC 180000Z 03007KT 340V060 9999 FEW040 15/10 Q1021 NOSIG=
METAR RPLL 180000Z VRB02KT 9999 FEW025 BKN100 27/23 Q1012 NOSIG RMK
A2988=
METAR RPVM 180000Z 06012KT 9999 FEW020 SCT300 29/21 Q1012 NOSIG RMK
A2988=
METAR RPMD 180000Z 02005KT 340V040 9999 FEW016 26/24 Q1011 RMK A2985=
METAR RPLB 180000Z 04005KT 010V070 9999 FEW020 27/21 Q1013 NOSIG RMK
A2991=
METAR RPLI 180000Z 07003KT 9999 FEW018 24/20 Q1013 NOSIG RMK A2991=
METAR RPMZ 180000Z 06005KT 030V100 9999 FEW017 29/24 Q1010 RMK A2983=
METAR RPLC 180000Z 36010KT 9999 FEW020 25/20 Q1013 NOSIG RMK A2991=
METAR RPVP 180000Z 27004KT 9999 FEW019 BKN240 26/24 Q1011 RMK A2985=


433 
SACN31 CWAO 180000
METAR CYBG 180000Z 10003KT 12SM -SHSN OVC030 M07/M09 A2989 RMK SC8 
DENSITY ALT -2115FT SLP136=


434 
SACN31 CWAO 180000
METAR CYQQ 180000Z 32004KT 20SM SKC 06/01 A3047 RMK DENSITY ALT 
-1494FT SLP318=


436 
SACN31 CWAO 180000
METAR CYTR 180000Z 20008KT 15SM BKN090 02/M02 A2987 RMK AC7 DENSITY 
ALT -1138FT SLP121=


437 
SACN31 CWAO 180000
METAR CYYR 180000Z 17002KT 15SM FEW120 SCT240 M16/M18 A2995 RMK 
AC1CI3 DENSITY ALT -3727FT SLP147=


486 
SAKA31 PTYA 180000
METAR PTYA 172352Z 08010KT 12SM FEW016 BKN300 30/25 A2984 RMK SLP105
8/101 T03030254 10303 20267 52022=


487 
SAIE32 EIDB 180000
METAR EIDL 180000Z NIL=
METAR EIKY 180000Z NIL=
METAR EIME 180000Z 18008KT 150V220 9999 FEW021 SCT024 07/04 Q1028=
METAR EISG 180000Z NIL=
METAR EIWF 180000Z NIL=


499 
SAUS41 EQYR 180006 COR
MTRXXD
METAR EQYR 172357Z AUTO 05004KT CLR 06/03 A3030 RMK AO2 SLP261 
T00610033 10111 20056 55000 $


554 
SPCN48 CWAO 180005
SPECI CYAH 180005Z AUTO 17005KT 9SM OVC024 M14/M17 A2961 RMK SLP057=


995 
SAUS44 KMOB 180006 COR
MTRNDZ
METAR KNDZ 172356Z 14006KT 10SM FEW055 SCT140 SCT250 13/06 A3003 RMK 
AO2 SLP158 T01330056 10178 20133 58007 $


010 
SAUS46 KLOX 180006
MTRFHM
METAR KFHM 180005Z 08002KT 15/08


080 
SAJP32 RJTD 180000 RRA
METAR RJFO 180000Z VRB02KT 9999 FEW030 SCT050 07/04 Q1025=
METAR RJNT 180000Z VRB02KT 9999 FEW020 01/M06 Q1026=


081 
SAJP32 RJTD 180000
METAR RJFF 180000Z VRB05KT 9999 FEW030 BKN035 07/03 Q1025 BECMG
           15007KT=
METAR RJCC 180000Z VRB01KT 9999 FEW020 M09/M13 Q1022=
METAR RJFK 180000Z 36005KT 9999 FEW030 SCT/// 03/00 Q1024=
METAR RJSN 180000Z 36012KT 9999 -SHSN FEW020 SCT030 BKN040 04/M02
           Q1025=
METAR RJFT 180000Z 08005KT 9999 FEW035 05/M00 Q1025=
METAR RJFU 180000Z 12003KT 9999 FEW050 SCT/// 05/03 Q1025=
METAR RJNK 180000Z 15004KT 9999 FEW030 02/M02 Q1026=
METAR RJOA 180000Z 08005KT 9999 FEW020 03/M03 Q1024=
METAR RJOB 180000Z 01005KT 9999 FEW020 03/M01 Q1025=
METAR RJOT 180000Z 14003KT 080V190 9999 FEW025 03/M01 Q1025=


082 
SAJP31 RJTD 180000
METAR RJAA 180000Z VRB02KT 9999 FEW030 03/M06 Q1024 NOSIG=
METAR RJBB 180000Z 02007KT 9999 FEW015 06/M01 Q1026 NOSIG=
METAR RJTT 180000Z 01013KT 9999 FEW030 SCT060 05/M04 Q1024 NOSIG=
METAR RJOO 180000Z 31004KT 9999 FEW025 BKN040 05/M02 Q1026=
METAR ROAH 180000Z 05009KT 9999 FEW035 17/07 Q1022=
METAR RJGG 180000Z 35014KT 9999 FEW030 05/M03 Q1025 NOSIG=
METAR RJCH 180000Z 35003KT 310V020 9999 FEW030 M05/M10 Q1022=
METAR RJSS 180000Z 26004KT 9999 FEW020 BKN070 02/M04 Q1023=


115 
SAXN17 KAWN 180000 RRB
METAR AYPY 180000Z 34010KT 9999 FEW050 32/22 Q1007=
METAR MUGM 172351Z 05009KT 10SM FEW030 FEW060 27/22 A3006 RMK AO2 SLP178
      T02670222 10300 20267 53012 $=
METAR MUHA 172350Z VRB03KT 9000 BKN025 BKN040 24/20 Q1017=
METAR MYNN 180000Z 12006KT 010V130 9999 SCT022 SCT035 BKN080 23/18
      A3012 PKWND-08KT=
METAR NCRG 180000Z AUTO 35004KT 310V060 9999 BKN033/// BKN065/// 28/23
      Q1010=
METAR NGTA 180000Z 07008KT 9999 VCSH SCT019 SCT040 BKN100 28/27 Q1007=
METAR NTAA 180000Z AUTO 36006KT 9999 FEW066/// BKN076/// ///CB 31/25
      Q1011 TEMPO 30015G25KT 2500 TSRA=
METAR RJAA 180000Z VRB02KT 9999 FEW030 03/M06 Q1024 NOSIG RMK 1CU030
      A3024=
METAR RJCC 180000Z VRB01KT 9999 FEW020 M09/M13 Q1022 RMK 1CU020 A3019=
METAR RJFF 180000Z VRB05KT 9999 FEW030 BKN035 07/03 Q1025 BECMG 15007KT
      RMK 1CU030 7CU035 A3028=
METAR RJFK 180000Z 36005KT 9999 FEW030 SCT/// 03/00 Q1024 RMK 1CU030
      A3025=
METAR RJOO 180000Z 31004KT 9999 FEW025 BKN040 05/M02 Q1026 RMK 1CU025
      5CU040 A3030=
METAR RJTT 180000Z 01013KT 9999 FEW030 SCT060 05/M04 Q1024 NOSIG RMK
      1CU030 3SC060 A3025=
METAR RKSS 180000Z 30003KT CAVOK M03/M04 Q1027 NOSIG=
METAR ROAH 180000Z 05009KT 9999 FEW035 17/07 Q1022 RMK 1CU035 A3019=
METAR TKPK 180000Z 05010KT 9999 FEW020 25/22 Q1018=
METAR TNCA 180000Z 11007KT 7000 SHRA FEW010TCU SCT030 24/23 Q1015 RERA
      NOSIG=
METAR TTPP 180000Z 11003KT 9999 FEW017 26/22 Q1015 NOSIG=
METAR VHHH 180000Z 07004KT 9999 FEW045 14/08 Q1021 NOSIG=


180 
SAZZ40 KAWN 180000 RRD
METAR KBKF 172358Z 04019G23KT 10SM -SN OVC014 M02/M06 A2985 RMK AO2A
      SLP110 P0000 60000 T10241062 10094 21024 52031=
METAR KNBG 172355Z 12005KT 10SM 16/11 A2997 RMK AO2 SLP146 T01610111
      10183 20161 56011 $=
METAR KNSI 172353Z AUTO 32016G23KT SCT009 A3016 RMK AO2 SLPNO 56010
      $=
METAR KNTD 172355Z 25007KT 10SM FEW025 15/09 A3017 RMK AO2 SLP219 T01500094
      10161 20144 56010 VISNO S $=
METAR KNTU 172356Z 16005KT 10SM FEW250 02/M03 A3019 RMK AO2 SLP225
      T00171033 10078 20017 51009=
METAR LEMO 180000Z VRB01KT CAVOK 04/01 Q1026 NOSIG=
METAR LQBK 180000Z 02002KT 7000 OVC017 M01/M02 Q1039 NOSIG=
METAR LQTZ 180000Z 10004KT 5000 BR OVC015 M01/M03 Q1038=
METAR LTAE 172350Z 36004KT CAVOK M05/M06 Q1029 NOSIG RMK RWY21 35003KT
      300V020=
METAR OIAW 180000Z 31004KT 8000 NSC 10/05 Q1014=
METAR OIFM 180000Z 34006KT CAVOK M01/M09 Q1019 A3009=
METAR OIKK 180000Z 00000KT 4000 BR FEW030CB SCT035 OVC070 00/00 Q1015
      A3000=
METAR OISS 180000Z 28006KT 9999 FEW040 05/M02 Q1014 A2997=
METAR OITT 180000Z 08004KT 9999 FEW035 M04/M07 Q1021 A3015=
METAR RKJK 172355Z AUTO 11003KT 3SM BR CLR M03/M05 A3028 RMK AO2 SLPNO
      T10281050 11026 21059 53001 $=
METAR RPLC 180000Z 36010KT 9999 FEW020 25/20 Q1013 NOSIG RMK A2991=
METAR RPMZ 180000Z 06005KT 030V100 9999 FEW017 29/24 Q1010 RMK A2983=
METAR TTPP 180000Z 11003KT 9999 FEW017 26/22 Q1015 NOSIG=
METAR UACC 180000Z 25004MPS 9999 -SN SCT013 BKN040 M09/M10 Q1015 TEMPO
      -SN DRSN RMK QFE730/0973=
METAR UUYY 180000Z 21004MPS 4900 BR OVC003 M07/M07 Q1002 R18/390333
      NOSIG RMK QBB100 QFE743/0991=


220 
SPCN43 CWAO 180006
SPECI CZVL 180006Z AUTO 31004KT 3/4SM R26/P6000FT/U -SN BKN016 OVC071 M09/M10 A3036 RMK ICE SLP331=


344 
SAUS14 KAWN 180000 RRI
METAR K05U 172350Z AUTO 29012G20KT 10SM CLR 05/M07 A3006 RMK A01=
METAR K1S5 180015Z AUTO 00000KT 10SM CLR 06/M03 A3037 RMK AO2 T00631031=
METAR K3S8 172355Z AUTO 22003KT 10SM CLR 07/03 A3031 RMK AO2=
METAR K46U 172355Z AUTO 32011KT 10SM FEW041 SCT065 BKN080 M05/M08 A2996
      RMK A01=
METAR K5T9 172355Z AUTO 08006KT 10SM CLR 19/08 A2978 RMK A01=
METAR K65S 172355Z AUTO 00000KT 10SM OVC055 M01/M06 A3025 RMK AO2=
METAR K6S0 172355Z AUTO 13004KT 3SM HZ BKN024 OVC028 M09/M13 A3015
      RMK A01=
METAR K8V7 172355Z AUTO 03017KT 10SM CLR 06/M05 A2976 RMK AO2=
METAR K9S9 172355Z AUTO 36004KT 10SM CLR 05/05 A3038 RMK AO2=
METAR KC83 172355Z AUTO 23006KT 10SM CLR 16/06 A3018 RMK AO2=
METAR KE01 172355Z AUTO 27023G33KT 2SM HZ FEW002 17/M06 A2981 RMK AO2
      VIS 1 3/4V3=
METAR KE77 172355Z AUTO 27009G17KT 10SM CLR 13/M10 A3013 RMK AO2=
METAR KHTH 172355Z AUTO 30008KT 10SM CLR 12/M10 A3010 RMK A01=
METAR KLLJ 172355Z AUTO 36011KT 10SM BKN065 M04/M15 A3005 RMK AO2 SLP227
      T10391150 10006 21044 53013=
METAR KMZJ 172355Z AUTO 29007KT 10SM CLR 17/M09 A3009 RMK AO2=
METAR KNUQ 172355Z AUTO 34009KT 9SM CLR 12/08 A3021 RMK AO2=
METAR KO86 172355Z AUTO 00000KT 10SM CLR 11/01 A3016 RMK A01=
METAR KPWD 172355Z AUTO 34016G23KT 3SM -SN SCT006 BKN021 M15/M18 A3020
      RMK AO2=
METAR KRTS 172355Z AUTO 30011G17KT 10SM CLR 10/M11 A3013 RMK AO2=
METAR KS21 172355Z AUTO 02008KT 10SM CLR 01/M08 A3028 RMK AO2=
METAR KS34 172355Z AUTO 14006KT 10SM OVC049 M01/M10 A3025 RMK AO2=
METAR KS39 172355Z AUTO 34005KT 10SM CLR 03/M07 A3028 RMK AO2=
METAR KSPK 172355Z AUTO 31016KT 10SM OVC070 02/M04 A2995 RMK AO2=
METAR KT89 172355Z AUTO 27009KT 10SM CLR 22/M05 A2984 RMK A01=
METAR KVCV 180000Z AUTO 25015G21KT 10SM CLR 15/M06 A3010 RMK AO2=


345 
SAUS14 KAWN 180000 RRH
METAR KALK 172356Z AUTO 27011KT 10SM CLR 12/M07 A3010 RMK AO2 SLP143
      T01171067 10128 20117 53003 $=
METAR KBKF 172358Z 04019G23KT 10SM -SN OVC014 M02/M06 A2985 RMK AO2A
      SLP110 P0000 60000 T10241062 10094 21024 52031=
METAR KCXP 172355Z AUTO 30008G13KT 10SM CLR 13/M08 A3012 RMK AO2=
METAR KEKS 172355Z AUTO 02011KT 10SM FEW044 SCT050 SCT080 M11/M17 A3012
      RMK AO2=
METAR KFOT 172350Z AUTO 29006KT 10SM OVC013 07/07 A3022 RMK AO1=
METAR KGOO 172355Z AUTO 00000KT 10SM CLR 11/M04 A3017 RMK A01=
METAR KHRF 172355Z AUTO 36008KT 1 3/4SM -SN BR FEW003 SCT026 BKN031
      M04/M05 A3018 RMK AO2=
METAR KLLJ 172355Z AUTO 36011KT 10SM BKN065 M04/M15 A3005 RMK AO2 SLP227
      T10391150 10006 21044 53013=
METAR KM75 172355Z AUTO 35013KT 10SM OVC030 M09/M13 A3027 RMK A01=
METAR KMHS 172356Z AUTO 00000KT 10SM CLR 10/01 A3016 RMK AO2 SLP239
      T01000006 10111 20039 55003 PNO=
METAR KMVH 172355Z AUTO 30018G25KT 10SM BKN055 OVC065 M12/M17 A3013
      RMK AO2=
METAR KNSI 172353Z AUTO 32016G23KT SCT009 A3016 RMK AO2 SLPNO 56010
      $=
METAR KNTD 172355Z 25007KT 10SM FEW025 15/09 A3017 RMK AO2 SLP219 T01500094
      10161 20144 56010 VISNO S $=
METAR KO54 172355Z AUTO 00000KT 10SM CLR 12/02 A3017 RMK A01=
METAR KO69 172355Z AUTO VRB03KT 10SM FEW020 09/07 A3022 RMK A01=
METAR KP33 172356Z AUTO 29012KT 10SM CLR 12/M08 A3007 RMK AO2=
METAR KP52 172355Z AUTO VRB05G10KT 10SM CLR 13/M03 A3001 RMK AO2=
METAR KPO1 172355Z AUTO 34013KT 3SM -SN HZ FEW013 SCT018 BKN023 M11/M14
      A3024 RMK AO2 TSNO=
METAR KS12 172355Z VRB05KT 8SM OVC008 03/02 A3041 RMK AO2 UPCOMING
      TAXIWY CLOSURES. CHECK NOTAMS=


346 
SARS18 KAWN 180000 RRA
METAR UAAA 180000Z VRB01MPS 5000 BR SCT100 BKN200 M05/M08 Q1018 NOSIG=
METAR UACC 180000Z 25004MPS 9999 -SN SCT013 BKN040 M09/M10 Q1015 TEMPO
      -SN DRSN RMK QFE730/0973=
METAR UATE 180000Z 30009MPS 9000 -SHRA BKN012CB OVC033 03/01 Q1015
      NOSIG RMK QFE760/1013=
METAR UATT 180000Z 13003MPS 9999 OVC010 M12/M14 Q1012 TEMPO 0500 FZFG
      VV002 RMK QFE740/0986=
METAR UHHH 180000Z 18002MPS 160V220 9000 NSC M21/M25 Q1022 R88/820255
      NOSIG RMK QFE760/1014=
METAR UHMA 180000Z 36006MPS CAVOK M30/M33 Q1006 R02/////// NOSIG RMK
      MID 36007G10MPS END R02/35007MPS QFE751/1001=
METAR UHPP 180000Z 36004MPS CAVOK M14/M20 Q1007 R34L/CLRD60 NOSIG RMK
      QFE752/1003=
METAR UIBB 180000Z 25003MPS 9000 -SHSN BKN012CB M10/M12 Q1013 R30/450145
      NOSIG RMK MT OBSC QFE717/0956=
METAR ULLI 180000Z 24005MPS 200V280 9999 BKN011 BKN020 03/01 Q1007
      R28L/290050 NOSIG=
METAR UMGG 180000Z 28006MPS 3500 -DZ BR OVC005 02/02 Q1024 TEMPO 2500
      RMK QBB160=
METAR URKA 180000Z 31003MPS 8000 SCT007 BKN020CB 02/02 Q1023 R03/290155
      TEMPO 1000 TSRASN SCT003 BKN015CB RMK QFE764/1018=
METAR URMM 180000Z 28008MPS 9999 -SHRA OVC020CB 04/00 Q1018 R29/290150
      NOSIG RMK MT OBSC QFE735/0980=
METAR UTAA 180000Z 22004KT 8000 FEW050 SCT100 02/02 Q1021 R88/70D NOSIG=
METAR UTDD 180000Z 36002MPS 7000 SCT062CB SCT080 OVC093 05/01 Q1017
      R09/D NOSIG RMK QFE694/0926=
METAR UTSS 180000Z VRB02KT 5000 -SHRA BR OVC005CB 02/01 Q1018 R27/29//50
      NOSIG RMK BASE500=
METAR VTBD 180000Z 03006KT 8000 NSC 20/12 Q1014 NOSIG=


348 
SAAL32 DAAA 180000
METAR DAAS 180000Z 28013KT 7000 -RA FEW010 BKN026 04/03 Q1014=
METAR DABS 180000Z 25019G30KT 6000 SCT013 BKN026 06/01 Q1011=
METAR DAOB 180000Z 27009KT 9999 BKN023 04/04 Q1023=
METAR DAOI 180000Z VRB01KT 5000 -RA FEW023 SCT026 08/08 Q1024=
METAR DAUA 180000Z 03003KT CAVOK 07/M10 Q1022=
METAR DAUB 180000Z 30014KT 9999 SCT040 SCT100 13/03 Q1016=
METAR DAUG 180000Z VRB02KT CAVOK 06/M02 Q1021=


349 
SAJP38 RJTD 180000 RRA
METAR RJCK 180000Z 34006KT 310V010 9999 FEW030 M04/M11 Q1018=
METAR RJCM 180000Z VRB03KT 9999 -SHSN FEW010 SCT020 BKN030 M05/M08
           Q1020=
METAR RJCB 180000Z 33007KT 9999 FEW040 M07/M12 Q1019=
METAR RJOC 180000Z 16008KT 9999 PRFG FEW001 03/M00 Q1025=
METAR RJOH 180000Z 20004KT 160V240 9999 FEW005 03/03 Q1026=
METAR ROIG 180000Z 05012KT 9999 FEW038 BKN050 18/11 Q1020=
METAR RJFS 180000Z VRB02KT 9999 FEW030 BKN040 05/03 Q1025=
METAR RJSI 180000Z VRB02KT 9999 FEW020 SCT050 BKN060 M05/M08 Q1023=


350 
SAJP38 RJTD 180000
METAR RJNS 180000Z VRB01KT 9999 FEW020 BKN040 06/M01 Q1022=
METAR RJSA 180000Z 20003KT 180V240 9999 -SHSN FEW006 SCT020 BKN030
           M03/M04 Q1022=
METAR RJSF 180000Z 33009KT 9999 FEW010 SCT030 01/M06 Q1022=
METAR RJOM 180000Z 12005KT 9999 FEW025 06/01 Q1025=
METAR RJOK 180000Z 34007KT 9999 FEW030 05/M02 Q1024=
METAR RJFM 180000Z 30007KT 9999 FEW030 05/01 Q1025=
METAR RJEC 180000Z 20002KT 9999 FEW004 SCT020 BKN050 M13/M15 Q1020=
METAR RJFR 180000Z 36003KT 9999 FEW005 BKN045 06/05 Q1025=
METAR RJSK 180000Z 30004KT 270V340 5000 -SHSN FEW008 SCT020 BKN040
           M01/M03 Q1023=
METAR RJAH 180000Z 00000KT 9999 FEW030 01/M07 Q1024=


351 
SAAL33 DAAA 180000
METAR DAAE 180000Z 00000KT 4000 -SHRA FEW016TCU BKN033 13/12 Q1015
RERA=
METAR DAAJ 180000Z 05006KT CAVOK 08/02 Q1022=
METAR DAAV 180000Z 33017KT 5000 -RA SCT013 FEW023CB BKN030 13/12
Q1012=
METAR DABT 180000Z 27016KT 7000 BKN020 05/03 Q1013=
METAR DAUZ 180000Z 34002KT CAVOK 04/M07 Q1023=


498 
SANA35 KAWN 180000 RRA
METAR KCOF 172355Z AUTO 04007KT 10SM BKN038 M M RMK AO2 SLPNO RVRNO
      TSNO $=
METAR KNBG 172355Z 12005KT 10SM 16/11 A2997 RMK AO2 SLP146 T01610111
      10183 20161 56011 $=
METAR KNIP 172353Z 11005KT 10SM FEW250 11/06 A3011 RMK AO2 SLP193 T01110056
      10178 20111 53004=
METAR KNTU 172356Z 16005KT 10SM FEW250 02/M03 A3019 RMK AO2 SLP225
      T00171033 10078 20017 51009=
METAR KNTU 172356Z 16005KT 10SM FEW250 02/M03 A3019 RMK AO2 SLP225
      T00171033 10078 20017 51009=
METAR MUGM 172351Z 05009KT 10SM FEW030 FEW060 27/22 A3006 RMK AO2 SLP178
      T02670222 10300 20267 53012 $=
METAR MYNN 180000Z 12006KT 010V130 9999 SCT022 SCT035 BKN080 23/18
      A3012 PKWND-08KT=
METAR TFFF 180000Z AUTO 09007KT CAVOK 26/22 Q1017 NOSIG=
METAR TFFR 180000Z AUTO 09007KT //// R12///// // FEW037 26/22 Q1017=
METAR TTPP 180000Z 11003KT 9999 FEW017 26/22 Q1015 NOSIG=


505 
SPCN48 CWAO 180006
SPECI CYGV 180006Z AUTO 31004KT 9SM -SN OVC034 M06/M09 A2997 RMK SLP153=


506 
SAIY52 LIIB 180000 RRA
METAR LIRE 172355Z 01002KT 9999 BKN070 11/02 Q1022=


508 
SANK31 MNMG 180000
METAR 
MNMG 180000Z 10006KT 9999 FEW023 SCT070 29/20 Q1012 A2990 NOSIG=


509 
SAAL31 DAAA 180000
METAR DAAG 180000Z 35008KT 8000 -RA SCT020TCU FEW023CB BKN040 12/09
Q1021=
METAR DAAT 180000Z 09008KT CAVOK 10/M18 Q1021=
METAR DABB 180000Z 23005KT 9999 FEW020 FEW023CB BKN033 10/09 Q1010=
METAR DABC 180000Z 28014KT 8000 -RA SCT016 BKN026 06/05 Q1012=
METAR DAON 180000Z 18004KT 9999 SCT020 SCT030 08/07 Q1025=
METAR DAOO 180000Z 22006KT 9999 FEW023 SCT030 08/07 Q1024=
METAR DAUH 180000Z 22006KT CAVOK 04/M06 Q1020=


625 
SPCN45 CWAO 180006
SPECI CYTE 180006Z AUTO 02011G20KT 6SM HZ OVC017 M23/M26 A2967 RMK SLP055=


020 
SAUS44 MUGM 180007 COR
RR7XXD
.A MUGM 0118 DH0000/PPH 0.00


159 
SATH31 VTBB 180000
METAR VTCH 180000Z 11002KT 0300 R11/P2000N FG VV002 14/14 Q1016 BECMG
      2000 BR=
METAR VTCL 180000Z 15002KT 5000 BR NSC 13/13 Q1016 BECMG TL0030 2500
      BR=
METAR VTCN 180000Z 03002KT 0300 R02/0400 FG VV002 12/12 Q1016 BECMG
      0600 FG=
METAR VTCP 180000Z 00000KT 4000 BR NSC 13/12 Q1015 NOSIG=
METAR VTPH 180000Z VRB02KT 9999 FEW030 21/14 Q1013 NOSIG=
METAR VTPO 180000Z VRB02KT 9000 NSC 17/17 Q1014 NOSIG=
METAR VTPP 180000Z VRB01KT CAVOK 15/12 Q1014 NOSIG=
METAR VTPB 180000Z VRB01KT CAVOK 10/10 Q1015 NOSIG=
METAR VTPM 180000Z 00000KT 6000 NSC 15/15 Q1015 NOSIG=
METAR VTBO 180000Z 03005KT 4000 HZ NSC 19/14 Q1013=
METAR VTCT 180000Z 35001KT 2000 BR NSC 12/12 Q1017 BECMG 4000 BR=
METAR VTPT 180000Z /////KT 8000 NSC 16/15 Q1015 NOSIG=

160 
SASB31 VCCC 180000
METAR VCCC 180000Z VRB02KT 6000 BKN016
SCT018TCU 25/23 Q1008 A2978
RMK TCU N/SE/SW=

285 
SAUS44 KMOB 180007 COR
MTRNDZ
METAR KNDZ 172356Z 14006KT 10SM FEW055 SCT140 SCT250 13/06 A3003 RMK 
AO2 SLP158 T01330056 10178 20133 58007 $


323 
SAUS41 EQYR 180007 COR
MTRXXD
METAR EQYR 172357Z AUTO 05004KT CLR 06/03 A3030 RMK AO2 SLP261 
T00610033 10111 20056 55000 $


369 
SACN42 CWAO 180000
METAR CYAZ 180000Z 00000KT 15SM SKC 07/M01 A3046 RMK SLP319=
METAR CYBL 180000Z 30003KT 30SM SKC 05/M01 A3046 RMK SLP320=
METAR CYBV NIL=
METAR CYCP 180000Z 00000KT 10SM VCSH SCT050 BKN075 BKN095 M02/M06 A3035 RMK SC4AC2AC1 LAST STFD OBS/NXT 181400Z SLP318=
METAR CYCQ 180000Z 08007KT 10SM -SN SCT023 BKN031 OVC050 M11/M16 A3068 RMK SC3SC2SC3 PCPN HVY DIST S+W LAST STFD OBS/NXT 181400Z SLP444=
METAR CYDB 180000Z AUTO 34003KT 9SM CLR M15/M17 A3028 RMK SLP335=
METAR CYDC 180000Z 00000KT 25SM FEW060 BKN071 M03/M07 A3039 RMK SC2AC4 SLP324=
METAR CYDQ 180000Z AUTO 31008KT 3SM -SN BKN016 BKN033 M13/M16 A3065 RMK SLP441=
METAR CYEV 180000Z 11009KT 15SM FEW250 M24/M27 A3058 RMK CI2 SLP368=
METAR CYFO 180000Z 32011G16KT 15SM FEW020 FEW300 M23/M28 A3020 RMK SC1CC1 SC TR CC TR LAST OBS/NEXT 181200UTC SLP263=
METAR CYHE 180000Z AUTO 00000KT 9SM CLR 01/M00 A3046 RMK SLP319=
METAR CYIV 180000Z AUTO 33015G22KT 9SM BKN021 M23/M26 A2989 RMK SLP151=
METAR CYKY 180000Z 34009KT 15SM FEW065 BKN085 OVC200 M15/M18 A3031 RMK SC2AC4CI2 SLP320=
METAR CYMD NIL=
METAR CYPR 180000Z AUTO 35004KT 330V030 9SM CLR 03/M01 A3057 RMK SLP357=
METAR CYPS NIL=
METAR CYQD 180000Z AUTO 31013G18KT 9SM CLR M21/M26 A3019 RMK SLP253=
METAR CYQZ 180000Z AUTO 33006KT 9SM BKN045 OVC055 M00/M06 A3046 RMK SLP348=
METAR CYRV 180000Z AUTO 36007KT 9SM BKN110 01/M05 A3031 RMK SLP286=
METAR CYSE NIL=
METAR CYUA NIL=
METAR CYVL 180000Z AUTO 06004KT 020V090 9SM CLR M38/M42 A3067 RMK SLP444=
METAR CYXC 180000Z 00000KT 15SM -SN BKN047 BKN060 M03/M11 A3023 RMK SC6SC1 SLP283=
METAR CYXE 180000Z 31008KT 15SM BKN120 M16/M20 A3031 RMK AC7 SLP311=
METAR CYXQ NIL=
METAR CYXS 180000Z AUTO 32004KT 9SM FEW027 SCT055 M03/M08 A3045 RMK SLP362=
METAR CYZP 180000Z AUTO 35011KT 9SM FEW027 BKN033 06/01 A3059 RMK SLP360=
METAR CYZT 180000Z 35005KT 20SM FEW017 05/02 A3051 RMK SC2 SLP334=


376 
SACN44 CWAO 180000
METAR CWIQ NIL=
METAR CWRF NIL=
METAR CWVD NIL=
METAR CYBW 180000Z AUTO 07003KT 9SM BKN050 BKN071 BKN130 M10/M14 A3022 RMK SLP319=
METAR CYCY 180000Z AUTO 26003KT 8SM -SN FEW015 M34/M38 A3006 RMK SLP185=
METAR CYED NIL=
METAR CYEK 180000Z AUTO 35029G34KT 1/8SM +SN BLSN VV004 M32/M35 A3001 RMK PCPN 0.8MM PAST HR SLP167=
METAR CYIO 180000Z 22006KT 15SM FEW130 M35/M38 A3006 RMK AC1 FROIN LAST STFD OBS/NEXT 181900Z SLP194=
METAR CYLJ 180000Z 32008KT 15SM FEW100 SCT170 BKN300 M20/M24 A3039 RMK AC2AC2CS3 LAST STFD OBS/NXT 181200Z SLP343=
METAR CYLT 180000Z 15003KT 3SM -SN SCT013 BKN031 M30/M33 A3045 RMK ST3SC3 DENSITY ALT -6422FT VIS VRB 2-4 CIG PDMTLY TRANSPARENT SLP316=
METAR CYMJ NIL=
METAR CYOD 180000Z 35008KT 15SM FEW020 SCT050 BKN100 M16/M20 A3042 RMK SC2SC2AC3 DENSITY ALT -2556FT SLP353=
METAR CYQV 180000Z AUTO 31014G20KT 9SM BKN120 M18/M22 A3015 RMK SLP256=
METAR CYSF 180000Z AUTO 28010KT 9SM CLR M29/M34 A3048 RMK SLP363=
METAR CYSM 180000Z 34005KT 15SM SKC M28/M31 A3075 RMK FROIN SLP448=
METAR CYTH 180000Z 32011G16KT 15SM DRSN SKC M28/M32 A3008 RMK SLP219=
METAR CYUB 180000Z 16014KT 10SM FEW023 M26/M29 A3061 RMK SC1 SC TR SLP367=
METAR CYUJ NIL=
METAR CYUS NIL=
METAR CYUX 180000Z 34014KT 4SM HZ DRSN FEW240 M37/M41 A2998 RMK CI2 LAST STFD OBS/NXT 181200Z SLP157=
METAR CYVT 180000Z AUTO 33015G21KT 9SM CLR M22/M26 A3043 RMK SLP356=
METAR CYXH 180000Z 34010KT 5SM -SN OVC019 M10/M14 A3033 RMK SC8 SLP318=
METAR CYZU 180000Z 30008KT 10SM -SN DRSN BKN025 BKN055 M09/M11 A3038 RMK SC5SC2 /S01/ SLP346=


377 
SACN45 CWAO 180000
METAR CYBB 180000Z 25012KT 15SM SKC M36/M40 A3014 RMK LAST STFD OBS/NXT 181600Z SLP211=
METAR CYCB 180000Z 32011KT 10SM IC FEW060 SCT080 BKN230 M28/M31 A3046 RMK SC2AC1CI3 SLP321=
METAR CYCO 180000Z 25018KT 15SM FEW150 M24/M29 A3077 RMK AC1 AC TR SLP425=
METAR CYCS NIL=
METAR CYFS 180000Z 26002KT 15SM FEW160 FEW250 M26/M29 A3090 RMK AC1CI1 AC TR SLP490=
METAR CYGH 180000Z 10006KT 25SM FEW140 M31/M35 A3064 RMK AC1 AC TR LAST STFD OBS/NXT 181400UTC SLP395=
METAR CYGT NIL=
METAR CYHI NIL=
METAR CYHK 180000Z 35018KT 1 3/4SM IC DRSN SKC M34/M38 A3018 RMK IC1 FROIN SLP231=
METAR CYHY 180000Z 31008KT 15SM FEW100 M26/M30 A3088 RMK AC1 AC TR SLP484=
METAR CYJF NIL=
METAR CYKD 180000Z 16012G21KT 15SM DRSN FEW230 M26/M28 A3054 RMK CI1 LAST STFD OBS/NXT 181400Z SLP346=
METAR CYLC NIL=
METAR CYLK NIL=
METAR CYOA NIL=
METAR CYPC 180000Z VRB04KT 15SM SKC M22/M29 A3083 RMK LAST STFD OBS/ NEXT 181400 SLP441=
METAR CYRA 180000Z 13002KT 15SM SKC M30/M33 A3083 RMK SLP480=
METAR CYRT 180000Z 36021KT 6SM BLSN FEW150 SCT240 M31/M34 A2998 RMK AC2CI2 SLP160=
METAR CYSY NIL=
METAR CYTE 180000Z AUTO 02013G21KT 5SM HZ OVC017 M23/M26 A2966 RMK SLP055=
METAR CYUT NIL=
METAR CYVM 180000Z AUTO 05006KT 9SM OVC023 M28/M31 A2999 RMK SLP158=
METAR CYWE 180000Z AUTO 24005KT 9SM CLR M33/M36 A3067 RMK SLP456=
METAR CYWJ 180000Z 11007KT 40SM SKC M27/M30 A3078 RMK LAST STFD OBS/NXT 181400 UTC SLP461=
METAR CYWY NIL=
METAR CYXN NIL=
METAR CYXP NIL=
METAR CYZS 180000Z 03030KT 1/4SM BLSN BKN210 M25/M29 A2975 RMK CI5 SLP086=


378 
SACN31 CWAO 180000
METAR CYAW NIL=
METAR CYBG 180000Z 10003KT 12SM -SHSN OVC030 M07/M09 A2989 RMK SC8 DENSITY ALT -2115FT SLP136=
METAR CYEG 180000Z 26004KT 6SM -SN OVC028 M10/M11 A3035 RMK SC8 SLP332=
METAR CYFB 180000Z 00000KT 4SM IC VV026 M19/M22 A2961 RMK IC8 SLP033=
METAR CYFC 180000Z AUTO 21003KT 9SM FEW047 M09/M12 A3005 RMK SLP179=
METAR CYGL 180000Z 12013KT 3SM -SN OVC055 M13/M15 A2949 RMK SC8 SLP006=
METAR CYHZ 180000Z 34002KT 15SM FEW030 SCT260 M09/M11 A3003 RMK SC1CI2 SLP183=
METAR CYJT 180000Z 08006KT 15SM BKN059 M03/M07 A2998 RMK SC7 SLP155=
METAR CYMX 180000Z VRB02KT 15SM SCT042 SCT100 BKN160 M05/M07 A2993 RMK SC3AC1AC2 SLP143=
METAR CYOW 180000Z 16007KT 12SM BKN031 M01/M04 A2987 RMK SC6 SLP124=
METAR CYPE 180000Z AUTO 01010KT 9SM CLR M18/M21 A3064 RMK SLP435=
METAR CYQB 180000Z 00000KT 4SM -SN OVC013 M06/M06 A2998 RMK SC8 SLP158=
METAR CYQG 180000Z AUTO 19016G23KT 9SM FEW140 BKN190 01/M03 A2973 RMK SLP077=
METAR CYQM 180000Z 22006KT 15SM FEW045 FEW230 M09/M13 A3004 RMK SC1CI1 SLP180=
METAR CYQQ 180000Z 32004KT 20SM SKC 06/01 A3047 RMK DENSITY ALT -1494FT SLP318=
METAR CYQX 180000Z 34007KT 10SM OVC023 M05/M07 A2996 RMK SC8 SLP159=
METAR CYQY 180000Z 29007KT 3/4SM R06/P6000FT/N -SHSN BKN004 OVC021 M04/M05 A2997 RMK SC6SC2 /S04/ CVCTV CLD EMBD SLP156=
METAR CYTR 180000Z 20008KT 15SM BKN090 02/M02 A2987 RMK AC7 DENSITY ALT -1138FT SLP121=
METAR CYUL 180000Z 16007KT 15SM BKN045 OVC180 M03/M06 A2994 RMK SC6AC2 SLP142=
METAR CYVR 180000Z 30006KT 20SM SKC 05/03 A3046 RMK SLP318=
METAR CYWG 180000Z 35018G28KT 15SM FEW020 FEW240 M14/M20 A3002 RMK SC1CI1 SC TR CI TR SLP186=
METAR CYXX 180000Z 22005KT 30SM FEW028 05/02 A3046 RMK CU1 CU TR SLP318=
METAR CYYC 180000Z 10005KT 4SM -SN BKN021 OVC250 M10/M12 A3025 RMK SC5CI3 SLP324=
METAR CYYJ 180000Z 17003KT 30SM FEW020 06/01 A3047 RMK SC1 SC TR SLP319=
METAR CYYQ 180000Z 33028G34KT 1/4SM R33/1600V2000FT/N -SN BLSN VV006 M28/M32 A2997 RMK BLSN8 SLP156=
METAR CYYR 180000Z 17002KT 15SM FEW120 SCT240 M16/M18 A2995 RMK AC1CI3 DENSITY ALT -3727FT SLP147=
METAR CYYT 180000Z 31003KT 300V010 15SM OVC030 M03/M04 A2995 RMK SC8 SLP151=
METAR CYYZ 180000Z 17011G16KT 15SM BKN130 BKN170 02/M03 A2978 RMK AC5AC2 SLP093=
METAR CYZF 180000Z 29007KT 15SM SKC M31/M34 A3081 RMK SLP471=
METAR CYZV 180000Z 03003KT 15SM SCT022 M15/M17 A2997 RMK SC4 SLP158=
METAR CYZX 180000Z 05003KT 15SM BKN035 M11/M12 A3008 RMK SC6 DENSITY ALT -3281FT SLP189=


379 
SAJP37 RJTD 180000 RRA
METAR RJFR 180000Z 36003KT 9999 FEW005 BKN045 06/05 Q1025=

380 
SACN43 CWAO 180000
METAR CWLO NIL=
METAR CYAB NIL=
METAR CYBK 180000Z 33028KT 3/8SM BLSN FEW003 M35/M38 A3020 RMK BLSN1SC1 SLP233=
METAR CYBQ 180000Z AUTO 32015G26KT 9SM CLR M32/M37 A3008 RMK ICE SLP234=
METAR CYBR 180000Z 30006KT 15SM FEW250 M17/M21 A3007 RMK CI1 SLP219=
METAR CYBU 180000Z AUTO 30013G18KT 9SM FEW160 M18/M23 A3028 RMK SLP292=
METAR CYDN 180000Z AUTO 31005KT 9SM CLR M19/M24 A3013 RMK SLP232=
METAR CYEN 180000Z AUTO 32014G20KT 9SM SCT150 M16/M19 A3017 RMK SLP265=
METAR CYET 180000Z AUTO 30008G15KT 9SM -SN BKN026 BKN096 M09/M13 A3036 RMK SLP348=
METAR CYGX NIL=
METAR CYKJ 180000Z AUTO 30007KT 9SM CLR M29/M32 A3030 RMK SLP335=
METAR CYLL 180000Z 34007KT 15SM OVC077 M16/M20 A3034 RMK AS8 SLP338=
METAR CYMM 180000Z AUTO 30006KT 8SM FEW014 OVC220 M22/M25 A3059 RMK SLP405=
METAR CYNE 180000Z AUTO 32010G17KT 7SM CLR M23/M26 A3004 RMK SLP200=
METAR CYOJ 180000Z 33003KT 15SM BKN022 OVC080 M21/M24 A3079 RMK SC6AC2 SLP470=
METAR CYPA 180000Z 32008KT 15SM FEW028 SCT100 BKN270 M17/M23 A3030 RMK SC2AC1CI2 SLP305=
METAR CYPG NIL=
METAR CYPY 180000Z AUTO 34008KT 9SM CLR M25/M29 A3068 RMK SLP425=
METAR CYQF 180000Z AUTO 00000KT 3SM -SN OVC034 M10/M13 A3031 RMK SLP333=
METAR CYQL 180000Z 33006KT 15SM -SN BKN021 BKN250 M10/M12 A3029 RMK SC5CI1 VIS SW-W 60 SLP322=
METAR CYQR 180000Z 32014KT 15SM FEW018 SCT140 BKN260 M17/M20 A3023 RMK SC2AC1CI2 SLP289=
METAR CYQW 180000Z AUTO 32010KT 9SM CLR M17/M21 A3037 RMK SLP336=
METAR CYVC 180000Z 29013KT 15SM FEW250 M22/M26 A3034 RMK CI2 SLP319=
METAR CYYL 180000Z AUTO 32016G23KT 9SM CLR M30/M34 A3015 RMK SLP264=
METAR CYYN 180000Z AUTO 32013KT 9SM -SN OVC011 M15/M17 A3021 RMK SLP293=
METAR CYZH 180000Z AUTO 35009G15KT 8SM -SN OVC037 M13/M18 A3052 RMK SLP386=
METAR CZVL 180000Z AUTO 32005KT 3/4SM R26/P6000FT/U -SN VV015 M09/M09 A3036 RMK ICE PAST HR SLP331=


381 
SACN40 CWAO 180000
METAR CYWH 180000Z 09004KT 330V100 15SM FEW030 07/01 A3047 RMK CU1 SLP321=


382 
SACN41 CWAO 180000
METAR CBBC 180000Z AUTO 31004KT 9SM 03/02 A3052 RMK CLD MISG SLP340=
METAR CYBD 180000Z 00000KT 15SM MIFG FEW025 M01/M01 A3055 RMK SC1 MIFG ON RWY W END SLP350=
METAR CYCD 180000Z 01005KT 30SM SKC 06/M01 A3045 RMK SLP316=
METAR CYCG 180000Z 00000KT 15SM BKN050 BKN080 01/M05 A3028 RMK SC6AC1 AC TR SLP279=
METAR CYDA 180000Z 10003KT 050V150 20SM SCT100 OVC210 M25/M27 A3055 RMK AC4CI4 LAST STFD OB/NXT 181500Z SLP405=
METAR CYDL 180000Z AUTO 05004KT 9SM -SN CLR M17/M19 A3052 RMK SLP406=
METAR CYGE 180000Z VRB03KT 20SM VCSH FEW035 BKN055 M02/M08 A3026 RMK SC1SC6 VC PCPN HYR ELEV ALQDS LAST STFD OBS/NXT 181400Z SLP291=
METAR CYIN 180000Z AUTO 32012G18KT 9SM OVC040 M04/M11 A3033 RMK SLP323=
METAR CYKA 180000Z 30008G15KT 40SM BKN065 03/M09 A3043 RMK SC7 SLP322=
METAR CYLW 180000Z AUTO 31006KT 9SM OVC066 03/M08 A3038 RMK SLP310=
METAR CYMA 180000Z 36005KT 20SM FEW060 OVC100 M23/M26 A3057 RMK SC2AS6 CLIMAT -22.9/-28.1/0.0 SOG 29 SLP425=
METAR CYOC NIL=
METAR CYPW 180000Z 27008KT 30SM SKC 05/00 A3045 RMK SLP320=
METAR CYQH 180000Z VRB02KT 30SM OVC025 M18/M21 A3059 RMK SC8 CLIMAT -18.5/-31.7/0.0 SLP441=
METAR CYQU 180000Z 03007KT 12SM -SN BKN034 BKN050 M12/M15 A3061 RMK SC6SC1 SLP423=
METAR CYSD NIL=
METAR CYWL 180000Z 29010KT 15SM FEW012 OVC026 M03/M07 A3038 RMK SF1SC8 SF TR SLP339=
METAR CYXJ 180000Z 33011KT 15SM -SN SCT023 BKN068 M15/M19 A3066 RMK SC4AC3 SLP446=
METAR CYXT 180000Z 35009KT 20SM FEW020 FEW240 00/M01 A3056 RMK CU1CC1 SLP361=
METAR CYXY 180000Z 18016KT 40SM FEW006 SCT110 BKN150 OVC240 M16/M18 A3040 RMK ST1AC3AC4CI1 ST TR VIS LWR SE SLP379=
METAR CYYD 180000Z 29005KT 20SM BKN025 M01/M05 A3051 RMK SC7 SLP360=
METAR CYYE 180000Z 36003KT 10SM FEW080 M18/M21 A3082 RMK AC1 AC TR SLP479=
METAR CYYF 180000Z 34004KT 15SM SCT078 02/M08 A3039 RMK AC4 SLP312=
METAR CYZW 180000Z 07004KT 20SM SCT020 BKN150 BKN230 M20/M22 A3053 RMK SC3AC2CI1 LAST STFD OBS/NXT 181600Z SLP425=
METAR CYZY 180000Z AUTO 06003KT 9SM FEW071 M07/M13 A3052 RMK ICE SLP385=
METAR CZFA NIL=
METAR CZMT 180000Z 31007KT 10SM SCT024 BKN250 05/03 A3060 RMK SC4CI2 SLP363=


383 
SAJP35 RJTD 180000
METAR RJAA 180000Z VRB02KT 9999 FEW030 03/M06 Q1024 NOSIG=
METAR RJBB 180000Z 02007KT 9999 FEW015 06/M01 Q1026 NOSIG=
METAR RJTT 180000Z 01013KT 9999 FEW030 SCT060 05/M04 Q1024 NOSIG=
METAR RJOO 180000Z 31004KT 9999 FEW025 BKN040 05/M02 Q1026=
METAR RJGG 180000Z 35014KT 9999 FEW030 05/M03 Q1025 NOSIG=
METAR RJSN 180000Z 36012KT 9999 -SHSN FEW020 SCT030 BKN040 04/M02
           Q1025=
METAR RJCH 180000Z 35003KT 310V020 9999 FEW030 M05/M10 Q1022=
METAR RJSA 180000Z 20003KT 180V240 9999 -SHSN FEW006 SCT020 BKN030
           M03/M04 Q1022=
METAR RJSF 180000Z 33009KT 9999 FEW010 SCT030 01/M06 Q1022=
METAR RJSI 180000Z VRB02KT 9999 FEW020 SCT050 BKN060 M05/M08 Q1023=

384 
SAJP37 RJTD 180000
METAR RJAA 180000Z VRB02KT 9999 FEW030 03/M06 Q1024 NOSIG=
METAR RJBB 180000Z 02007KT 9999 FEW015 06/M01 Q1026 NOSIG=
METAR RJTT 180000Z 01013KT 9999 FEW030 SCT060 05/M04 Q1024 NOSIG=
METAR RJOO 180000Z 31004KT 9999 FEW025 BKN040 05/M02 Q1026=
METAR RJFF 180000Z VRB05KT 9999 FEW030 BKN035 07/03 Q1025 BECMG
           15007KT=
METAR RJGG 180000Z 35014KT 9999 FEW030 05/M03 Q1025 NOSIG=
METAR RJFK 180000Z 36005KT 9999 FEW030 SCT/// 03/00 Q1024=
METAR RJFU 180000Z 12003KT 9999 FEW050 SCT/// 05/03 Q1025=
METAR RJCH 180000Z 35003KT 310V020 9999 FEW030 M05/M10 Q1022=
METAR RJNS 180000Z VRB01KT 9999 FEW020 BKN040 06/M01 Q1022=

385 
SAKA31 PTKK 180000
METAR PTKK 172351Z 11007G17KT 15SM FEW014 BKN280 30/25 A2980 RMK
SLP094 8/101 T03040254 10304 20280 50007=

SMKA01 PTKK 180000
AAXX 18004
91334 12474 51107 10304 20254 30091 40094 50007 60084 82101 333
20267 562/9 58000 70084 555 91800=


500 
SAZZ40 KAWN 180000 RRE
METAR CYBR 180000Z 30006KT 15SM FEW250 M17/M21 A3007 RMK CI1 SLP219=
METAR KCOF 172355Z AUTO 04007KT 10SM BKN038 M M RMK AO2 SLPNO RVRNO
      TSNO $=
METAR KMCC 172355Z AUTO 16007KT 10SM CLR 15/04 A3017 RMK AO2 PWINO=
METAR KNGP 172356Z 18014G23KT 10SM FEW028 BKN140 OVC250 18/16 A2982
      RMK AO2 SLP096 T01780156 56019=
METAR KNLC 172356Z 03004KT 9SM CLR 18/01 A3016 RMK AO2 SLP215 RH/30
      T01830011 10189 20100 56013=
METAR KNPA 172356Z 15009KT 10SM BKN060 BKN150 BKN250 16/09 A3002 RMK
      AO2 SLP167 T01560094 10183 20156 58004 $=
METAR KNTU 172356Z 16005KT 10SM FEW250 02/M03 A3019 RMK AO2 SLP225
      T00171033 10078 20017 51009=
METAR KNUQ 172355Z AUTO 34009KT 9SM CLR 12/08 A3021 RMK AO2=
METAR KWRB 172355Z AUTO 00000KT 10SM CLR 12/M02 A3006 RMK AO2 SLP183
      T01211018 10176 20121 53006 $=
METAR LPLA 180000Z /////KT 9999 FEW020 SCT030 15/14 Q1019=
METAR MKJS 180000Z 10007KT 9999 BKN022 26/22 Q1016=
METAR TJPS 172355Z AUTO 10005KT 10SM 28/22 A3007 RMK AO2 PWINO=
METAR TTCP 180000Z 06003KT 9999 VCSH FEW016 25/23 Q1015 NOSIG RMK VCSH
      NE=
METAR UATT 180000Z 13003MPS 9999 OVC010 M12/M14 Q1012 TEMPO 0500 FZFG
      VV002 RMK QFE740/0986=
METAR UGKO 180000Z 31006KT 9999 SCT021 OVC038 04/04 Q1028 NOSIG=
METAR UGSB 180000Z 14005KT 9999 -RA BKN026 06/04 Q1030 NOSIG=
METAR ZBHH 180000Z 04002MPS 9000 NSC M18/M21 Q1021 NOSIG=
METAR ZHHH 180000Z 08003MPS CAVOK 06/M07 Q1023 NOSIG=
METAR ZSNJ 180000Z VRB01MPS 4000 BR NSC M03/M03 Q1025 NOSIG=
METAR ZUCK 180000Z VRB01MPS 6000 SCT040 08/06 Q1024 NOSIG=
METAR ZWSH 180000Z 32003MPS 8000 NSC M07/M14 Q1023 NOSIG=


501 
SAUS14 KAWN 180000 RRJ
METAR K00U 172355Z AUTO 35010KT 10SM FEW015 FEW025 OVC070 M08/M10 A3021
      RMK A01=
METAR K10U 180000Z AUTO 32009G15KT 10SM FEW023 SCT028 SCT042 M02/M09
      A3013 RMK AO2=
METAR K1U7 172355Z AUTO 34015KT 4SM BR FEW004 BKN020 OVC031 M05/M05
      A2993 RMK A01=
METAR K3W7 172355Z AUTO 34009G14KT 10SM CLR 04/M08 A3032 RMK AO2=
METAR K63S 172355Z AUTO 32004KT 10SM CLR 01/M09 A3029 RMK A01=
METAR KBDN 172355Z AUTO VRB03KT 10SM CLR 04/M08 A3026 RMK AO2=
METAR KC08 172355Z AUTO 00000KT 10SM BKN090 02/M12 A2978 RMK AO2=
METAR KCCB 172355Z AUTO 00000KT 10SM OVC040 14/03 A3013 RMK AO2=
METAR KDWA 172355Z AUTO 00000KT 10SM CLR 15/06 A3019 RMK AO2=
METAR KFTN 172355Z AUTO 18004KT 10SM CLR 20/08 A2981 RMK A01=
METAR KGNG 172355Z AUTO 28025G32KT 10SM CLR 01/M10 A3008 RMK AO2=
METAR KJTC 172355Z AUTO 25013KT 10SM CLR 04/M07 A3003 RMK AO2=
METAR KKNB 172355Z AUTO 23009KT 10SM CLR 09/M14 A3002 RMK A01=
METAR KMCC 172355Z AUTO 16007KT 10SM CLR 15/04 A3017 RMK AO2 PWINO=
METAR KNLC 172356Z 03004KT 9SM CLR 18/01 A3016 RMK AO2 SLP215 RH/30
      T01830011 10189 20100 56013=
METAR KO05 172355Z AUTO 00000KT 10SM CLR 07/M02 A3016 RMK A01=
METAR KRVF 172355Z AUTO 01017KT 10SM FEW080 SCT090 M09/M14 A3012 RMK
      AO2=
METAR KSBX 172355Z AUTO 32012KT 10SM -SN SCT021 OVC027 M09/M11 A3029
      RMK AO2=
METAR KSUO 172355Z AUTO 34018KT 10SM OVC024 M05/M08 A2994 RMK AO2=
METAR KSVE 172355Z AUTO 22008KT 10SM CLR 13/M05 A3014 RMK A01 P000=
METAR KTCY 172355Z AUTO 31006KT 10SM CLR 16/04 A3018 RMK A01=
METAR KU52 172355Z AUTO 27008KT 10SM CLR 09/M13 A2993 RMK AO2=
METAR KU69 172355Z AUTO 28016G26KT 10SM BKN055 OVC065 03/M09 A2984
      RMK A01=


504 
SACN60 CWAO 180000
CFP7 NIL=
NES NIL=
NTL NIL=
PAC NIL=
PAF NIL=
PAT NIL=
PAV NIL=
PAZ NIL=
PBB NIL=
PBC NIL=
PBD NIL=
PBM NIL=
PBN NIL=
PBU NIL=
PCC NIL=
PCE NIL=
PCF NIL=
PCH NIL=
PCI NIL=
PCK NIL=
PCL NIL=
PCN NIL=
PCS NIL=
PCY SA 0000 AUTO8 M M M 303/-13/-16/0000/M/     SOG 10 5001 02MM=
PDA NIL=
PDB NIL=
PDO NIL=
PDU NIL=
PEL NIL=
PET NIL=
PFA NIL=
PFB NIL=
PFE NIL=
PFF NIL=
PFM NIL=
PFR NIL=
PGB NIL=
PGC NIL=
PGI NIL=
PGT NIL=
PHA NIL=
PHE NIL=
PHJ NIL=
PHR NIL=
PHU NIL=
PHW NIL=
PIA NIL=
PII NIL=
PJT NIL=
PKA NIL=
PKG NIL=
PKI NIL=
PKK NIL=
PKO NIL=
PKR NIL=
PKY NIL=
PLA NIL=
PLC NIL=
PLF NIL=
PLG NIL=
PLY NIL=
PLZ NIL=
PMA NIL=
PMB NIL=
PML NIL=
PMN NIL=
PNB NIL=
PNS NIL=
PNU NIL=
PNX NIL=
PPL NIL=
PPN NIL=
PPT NIL=
PPV NIL=
PRD NIL=
PRF NIL=
PRH NIL=
PRS NIL=
PRV NIL=
PRW NIL=
PSA NIL=
PSH NIL=
PSL NIL=
PSQ NIL=
PSR NIL=
PSW NIL=
PTA NIL=
PTC NIL=
PTE NIL=
PVI NIL=
PVR NIL=
PWT NIL=
PXB NIL=
PXC NIL=
PXH NIL=
PXS NIL=
PXX NIL=
PXZ NIL=
PYT NIL=
PZC NIL=
PZH NIL=
PZK NIL=
PZL NIL=
PZN NIL=
PZW NIL=


505 
SACN70 CWAO 180000
PBO NIL=
PGF NIL=
PGH SA 0000 AUTO8 M M M 179/-17/-21/3420+25/M/     PK WND 3333 2345Z SOG 02 1052 61MM=
PIV NIL=
PJN SA 0000 AUTO8 M M M 209/-24/-28/3413/M/     PK WND 3322 2318Z SOG 41 2030 25MM=
PJP SA 0000 AUTO8 M M M M/-24/-29/3113+24/M/ PK WND 3024 2351Z M 37MM=
PLE SA 0000 AUTO8 M M M 258/-30/-34/3214+20/M/     PK WND 3320 2355Z SOG 43 1017 77MM=
POW NIL=
POY NIL=
PQD NIL=
PSU NIL=
PTG NIL=
PTO NIL=
PYQ NIL=
VHD NIL=
WEX NIL=
WGX NIL=
WJD NIL=
WOO NIL=
WSZ NIL=
WWP NIL=
XMN NIL=
XWG SA 0000 AUTO8 M M M 188/-14/-20/3519+26/M/     PK WND 3530 2302Z PRESRR SOG 06 3054 95MM=


506 
SACN50 CWAO 180000
NCN NIL=
VAS NIL=
VBB NIL=
VBD NIL=
VBR NIL=
VCL SA 0000 AUTO8 M M M M/02/00/MMMM/M/0002 M 73MM=
VCW NIL=
VFJ NIL=
VFN NIL=
VFS NIL=
VGE NIL=
VHD NIL=
VKC NIL=
VLY NIL=
VME NIL=
VMO NIL=
VNB NIL=
VOC NIL=
VOD NIL=
VOI NIL=
VOM NIL=
VOO NIL=
VOP NIL=
VOQ NIL=
VOU NIL=
VPE NIL=
VPX NIL=
VQZ NIL=
VRA NIL=
VSA NIL=
VSJ NIL=
VSL NIL=
VTF NIL=
VTS NIL=
VVR NIL=
VXC NIL=
VXS NIL=
VYD NIL=
VZP NIL=
VZY NIL=
WFG NIL=
WGP NIL=
WHC NIL=
WPN NIL=
WPU NIL=
ZKA NIL=


507 
SACN93 CWAO 180000
GCL NIL=
MJN NIL=
WMU NIL=
WMX NIL=
WMY NIL=
WMZ NIL=
WNC NIL=
WND NIL=
WNE NIL=
WNH NIL=
WNK NIL=
WNM NIL=
WNP NIL=
WNQ NIL=
WNR NIL=
WNT NIL=
WNV NIL=
WNX NIL=
WNZ NIL=
WOC NIL=
WOD SA 0000 AUTO8 M M M 112/-06/-09/1309/M/     SOG 20 8005 11MM=
WOE SA 0000 AUTO8 M M M 301/-12/-14/3212/M/M 3008 02MM=
WOI NIL=
WOJ NIL=
WOK SA 0000 AUTO8 M M M 303/-18/-20/3005/M/     SOG 20 3015 54MM=
WON NIL=
WOQ NIL=
WOV NIL=
WOW NIL=
WPA NIL=
WPD NIL=
WPE NIL=
WPF SA 0000 AUTO8 M M M 315/07/00/0304/M/     5002 85MM=
WPG NIL=
WPL NIL=
WPR NIL=
WPZ NIL=
WQA NIL=
WQB NIL=


508 
SACN91 CWAO 180000
WGR NIL=
WGT NIL=
WGW NIL=
WGY NIL=
WHD NIL=
WHI NIL=
WHL SA 0000 AUTO8 M M M 358/04/00/3308/M/     3003 03MM=
WHQ NIL=
WHT NIL=
WHV NIL=
WID NIL=
WIG NIL=
WII NIL=
WIJ SA 0000 AUTO8 M M M 398/-28/-31/2907/M/     PK WND 3025 2302Z SOG 54 3002 86MM=
WIN NIL=
WIO NIL=
WIP NIL=
WIS NIL=
WIT NIL=
WIW NIL=
WIX NIL=
WIZ NIL=
WJB NIL=
WJC SA 0000 AUTO8 M M M 294/-35/-38/3528/M/     PK WND 3334 2317Z 1029 14MM=
WJH NIL=


509 
SACN66 CWAO 180000
PIF NIL=
PIL NIL=
PJM SA 0000 AUTO8 M M M 263/-16/-19/3315+20/M/     PK WND 3221 2349Z SOG 11 3031 19MM=
PLS SA 0000 AUTO8 M M M 335/-29/-32/3006/M/     SOG 57 3023 11MM=
PMK NIL=
POX NIL=
PPR NIL=
PQW NIL=
PRJ NIL=
PSY NIL=
PUN NIL=
PWX NIL=
PYS NIL=
WBD NIL=
WBU NIL=
WDC NIL=
WEH NIL=
WIK NIL=
WKO NIL=
WOY NIL=
XBK NIL=
ZHB NIL=


510 
SACN85 CWAO 180000
WBK NIL=
WHO NIL=
WPK SA 0000 AUTO8 M M M 101/-08/-10/1806/M/     SOG 27 7008 80MM=
WWE NIL=
YGS NIL=


511 
SACN63 CWAO 180000
NPV NIL=
NVQ NIL=
NYE NIL=
WMT NIL=
XAR NIL=
ZEV NIL=
ZFS NIL=
ZHY NIL=
ZSM NIL=


512 
SACN94 CWAO 180000
WQC NIL=
WQD NIL=
WQE NIL=
WQF NIL=
WQH NIL=
WQK NIL=
WQL NIL=
WQM NIL=
WQO NIL=
WQP NIL=
WQQ NIL=
WQR NIL=
WQS NIL=
WQU NIL=
WQV NIL=
WQW NIL=
WQY SA 0000 AUTO8 M M M 350/-31/M/2803/M/     PK WND 3518 2301Z SOG 17 3011 6MMM=
WQZ NIL=
WRA NIL=
WRD NIL=
WRE NIL=
WRJ NIL=
WRK NIL=
WRM NIL=
WRR NIL=
WRT NIL=
WRU NIL=
WRV NIL=
WRY NIL=
WRZ NIL=
WSB NIL=
WSD NIL=
WSF NIL=
WSG NIL=
WSK NIL=
WSL NIL=
WSN NIL=
WSP NIL=
WSQ SA 0000 AUTO8 M M M 424/-28/-32/3107/M/     SOG 28 1011 47MM=
WSR NIL=
WST NIL=
WSU NIL=
WSV NIL=
WSX NIL=
WSY NIL=


513 
SACN59 CWAO 180000
NLB NIL=
NLD NIL=
NNR NIL=
NPK NIL=
NTK NIL=
PAA NIL=
PAH NIL=
PBA NIL=
PBE NIL=
PBH NIL=
PBL NIL=
PBR NIL=
PBS NIL=
PBT NIL=
PBV NIL=
PCA NIL=
PCM NIL=
PCR NIL=
PEA NIL=
PEH NIL=
PFI NIL=
PFO NIL=
PGE NIL=
PGL NIL=
PIR NIL=
PMR NIL=
PQL NIL=
PQU NIL=
PRA NIL=
PRE NIL=
PRL NIL=
PRO NIL=
PRR NIL=
PRY NIL=
PSD NIL=
PSP NIL=
PST NIL=
PSV NIL=
PTH NIL=
PTR NIL=
PTU NIL=
PVA NIL=
PWB NIL=
PXL NIL=
WCT NIL=
WLB NIL=
XAK NIL=
XDB NIL=
XFM NIL=
XHD NIL=
XHP NIL=
XMG NIL=
XMO NIL=
XOL NIL=
XPL NIL=
XSC NIL=
XSL NIL=
XSP NIL=
XTH NIL=
XVM NIL=
XVW NIL=
ZMU NIL=
ZOL NIL=
ZPS NIL=


514 
SACN82 CWAO 180000
EUQ NIL=
GAH NIL=
GBC NIL=
GCH NIL=
GGA SA 0000 AUTO8 M M M 161/-07/-12/2803/M/     SOG 02 1019 85MM=
GKL NIL=
GKM SA 0000 AUTO8 M M M 092/-14/-16/MM06/M/     SOG 43 1009 86MM=
GMG NIL=
GRQ NIL=
GSA NIL=
GTL NIL=
GVO SA 0000 AUTO8 M M M 041/-07/-08/1518+25/M/0004 PK WND 1525 2353Z SOG 39 8026 24MM=
MAN NIL=
MBE NIL=
MBR NIL=
MCT NIL=
MCW NIL=
MFJ NIL=
MFM NIL=
MFX NIL=
MGB NIL=
MGZ SA 0000 AUTO8 M M M 137/-03/-05/1707/M/     SOG 32 1007 14MM=
MHB NIL=
MHN NIL=
MHW NIL=
MIN NIL=
MJI NIL=
MJK NIL=
MLA NIL=
MLI NIL=
MLT NIL=
MLU NIL=
MMY NIL=
MNT NIL=
MPD NIL=
MPL NIL=
MQK NIL=
MQL NIL=
MQP NIL=
MQQ NIL=
MQU NIL=
MQV NIL=
MRF NIL=
MRI NIL=
MRU NIL=
MRY NIL=
MSB NIL=
MSC NIL=
MSI SA 0000 AUTO8 M M M 150/-05/-08/1505/M/     SOG 14 0003 77MM=
MSR NIL=
MSX NIL=
MTH NIL=
MUS NIL=
MWD NIL=
MYT NIL=
NSQ SA 0000 AUTO8 M M M 008/-12/-15/0804/M/     SOG 16 6010 31MM=
WDM NIL=
WHP NIL=


515 
SACN54 CWAO 180000
CPY NIL=
VXY NIL=
WUM NIL=
XQH NIL=


516 
SACN86 CWAO 180000
WBE NIL=
WNL NIL=
WPO NIL=
WPS NIL=
WSI NIL=
WWX NIL=
WWZ NIL=


517 
SACN90 CWAO 180000
WEA NIL=
WEB SA 0000 AUTO8 M M M 318/06/00/2402/M/     3001 33MM=
WEC NIL=
WEE NIL=
WEF NIL=
WEI NIL=
WEL NIL=
WEO NIL=
WEP NIL=
WER NIL=
WEW SA 0000 AUTO8 M M M 147/-03/-05/1404/M/     SOG 16 8002 34MM=
WEZ SA 0000 AUTO8 M M M 317/06/02/2804/M/     5004 64MM=
WFE NIL=
WFF NIL=
WFJ NIL=
WFO NIL=
WFP NIL=
WFQ NIL=
WFW SA 0000 AUTO8 M M M 147/-06/-08/1704/M/     1008 83MM=
WFX NIL=
WFZ SA 0000 AUTO8 M M M 426/-32/-35/3202/M/M SOG 57 3015 73MM=
WGB NIL=
WGD NIL=
WGF NIL=
WGH NIL=
WGL NIL=
WGM NIL=
WGN NIL=


518 
SACN89 CWAO 180000
WAF NIL=
WAG NIL=
WAQ NIL=
WAS NIL=
WAV NIL=
WAY NIL=
WBA NIL=
WBG NIL=
WBJ NIL=
WBM NIL=
WBO NIL=
WBS NIL=
WBT NIL=
WBY NIL=
WBZ NIL=
WCF NIL=
WCG NIL=
WCH NIL=
WCI NIL=
WCJ NIL=
WCO NIL=
WCQ NIL=
WDB NIL=
WDD NIL=
WDE NIL=
WDF NIL=
WDI NIL=
WDJ NIL=
WDK NIL=
WDN NIL=
WDP NIL=
WDQ NIL=
WDR NIL=
WDT NIL=
WDU NIL=
WDV NIL=
WDW NIL=
WDZ NIL=


519 
SACN52 CWAO 180000
METAR CWEU 180000Z 35013G19KT 15SM IC FEW190 M29/M34 A3032 RMK AC2 SLP285=
METAR CWFD NIL=
METAR CWGZ NIL=
METAR CWKP NIL=
METAR CWRH NIL=
METAR CWSA 180000Z AUTO 31016KT 9SM BKN035 M01/M08 A3002 RMK SLP167=
METAR CWTU NIL=
METAR CWWU NIL=
METAR CWXR NIL=
METAR CWYM NIL=
METAR CYPD 180000Z AUTO 28011KT 9SM FEW025 M07/M12 A3000 RMK SLP168=
METAR CZEM NIL=
METAR CZFM 180000Z 16006KT 15SM FEW010 FEW080 M31/M34 A3060 RMK ST1AC1 AC TR LAST STFD OBS/NXT 201400Z SLP370=
METAR CZFN 180000Z 02009KT 12SM IC SKC M28/M31 A3076 RMK LAST STFD OBS/NEXT 201600Z SLP435=
METAR CZPC 180000Z AUTO 14005KT 9SM SCT100 BKN160 BKN180 M11/M16 A3022 RMK SLP311=
METAR CZUM 180000Z AUTO 13003KT 9SM OVC100 M15/M17 A2975 RMK SLP123=


520 
SACN46 CWAO 180000
METAR CYAT 180000Z AUTO 11010G18KT 3SM -SN OVC017 M08/M10 A2928 RMK SLP917=
METAR CYBC 180000Z AUTO 18006KT 9SM -SN OVC029 M05/M07 A2995 RMK SLP146=
METAR CYCK 180000Z AUTO 18017KT 9SM BKN140 OVC200 02/M02 A2976 RMK SLP086=
METAR CYER 180000Z AUTO 32021G29KT 1SM -SN FEW001 BKN019 M22/M24 A2964 RMK SLP042=
METAR CYFR NIL=
METAR CYGK 180000Z 18013G19KT 15SM BKN038 OVC100 01/M01 A2989 RMK SC6AC2 SLP130=
METAR CYHM 180000Z 18014G19KT 15SM FEW120 BKN170 01/M03 A2978 RMK AC1AC5 SLP095=
METAR CYKF 180000Z AUTO 18014G21KT 9SM SCT140 OVC170 00/M04 A2974 RMK SLP085=
METAR CYKL 180000Z AUTO 16007KT 9SM -SN OVC100 M13/M14 A2963 RMK SLP094=
METAR CYKP 180000Z AUTO 35008G16KT 1 1/4SM -SN OVC015 M08/M08 A2916 RMK SLP893=
METAR CYKZ NIL=
METAR CYLD 180000Z 20011G24KT 6SM -SN DRSN OVC013 M01/M03 A2925 RMK SC8 /S03/ SLP936=
METAR CYLH 180000Z AUTO 35010G21KT 310V020 1 1/2SM -SN FEW034 BKN120 OVC140 M12/M14 A2935 RMK SLP964=
METAR CYOO 180000Z AUTO 19013G20KT 9SM BKN037 OVC100 02/M03 A2981 RMK SLP101=
METAR CYPL 180000Z AUTO 35012G29KT 320V030 1 3/4SM -SN FEW026 OVC039 M15/M18 A2948 RMK SLP017=
METAR CYPO 180000Z AUTO 35004KT 5SM -SN OVC050 M14/M15 A2948 RMK SLP991=
METAR CYQA 180000Z AUTO 16014G20KT 9SM BKN076 OVC097 M01/M04 A2968 RMK SLP067=
METAR CYQK NIL=
METAR CYRB 180000Z 03020KT 15SM IC SKC M33/M37 A3020 RMK SLP243=
METAR CYRQ 180000Z AUTO 20008KT 9SM OVC023 M04/M05 A2995 RMK SLP149=
METAR CYSB 180000Z 19023G30KT 3SM -SN DRSN OVC009 M02/M03 A2949 RMK SC8 SLP011=
METAR CYSC 180000Z AUTO 16002KT 9SM -SN SCT038 BKN055 M05/M08 A2996 RMK SLP164=
METAR CYSN 180000Z 18010G16KT 15SM BKN140 OVC180 02/M03 A2981 RMK AC5CI3 PRESFR SLP102=
METAR CYSP NIL=
METAR CYVO 180000Z 16017G28KT 10SM -SN DRSN SCT014 BKN036 OVC070 M07/M09 A2956 RMK SC3SC3AC2 SLP042=
METAR CYVQ 180000Z 11008KT 30SM DRSN FEW220 M25/M28 A3069 RMK CI1 CI TR SLP406=
METAR CYXL 180000Z 34015G23KT 6SM -SN BLSN BKN027 OVC062 M12/M15 A2959 RMK SC5SC3 PRESRR SLP049=
METAR CYXU 180000Z 18015G21KT 15SM FEW140 BKN170 01/M04 A2975 RMK AC1AC5 SLP088=
METAR CYXZ NIL=
METAR CYYB 180000Z 17015G24KT 15SM DRSN BKN016 OVC060 M03/M05 A2956 RMK SC5SC3 SLP036=
METAR CYYH NIL=
METAR CYYU 180000Z 17011KT 2 1/2SM -SN FEW008 SCT009 BKN010 OVC012 M02/M03 A2921 RMK SC2SC2SC2SC2 /S01/ SLP908=
METAR CYYW 180000Z AUTO 32015G25KT 3SM -SN OVC022 M10/M13 A2935 RMK PRESRR SLP967=
METAR CZMD 180000Z AUTO 32012G20KT 3SM -SN FEW019 SCT066 M22/M25 A2973 RMK SLP098=
METAR CZSJ 180000Z AUTO 32014G23KT 5SM HZ OVC026 M21/M24 A2979 RMK SLP119=


521 
SACN47 CWAO 180000
METAR CYAM 180000Z 19006KT 20SM OVC014 02/01 A2936 RMK SC8 SLP955=
METAR CYFT NIL=
METAR CYGP 180000Z 28003KT 15SM SCT035 M07/M11 A2999 RMK SC4 SLP161=
METAR CYGR 180000Z 19005KT 15SM SCT025 M06/M09 A2999 RMK SC3 SLP157=
METAR CYHD 180000Z AUTO 33012G24KT 290V020 9SM FEW030 OVC045 M11/M16 A2964 RMK PRESRR SLP066=
METAR CYHU 180000Z AUTO 12006KT 9SM FEW047 OVC170 M04/M06 A2994 RMK SLP144=
METAR CYKO NIL=
METAR CYMO 180000Z AUTO 15012KT 2 1/2SM -SN OVC023 M08/M09 A2926 RMK SLP911=
METAR CYNA 180000Z AUTO 21004KT 9SM OVC050 M03/M09 A2996 RMK SLP147=
METAR CYND 180000Z 11005KT 15SM BKN035 BKN120 M02/M05 A2988 RMK SC6AC1 SLP125=
METAR CYPQ 180000Z AUTO 19011KT 9SM OVC081 01/M03 A2980 RMK SLP102=
METAR CYQT 180000Z 31020G37KT 12SM -SHSN OVC026 M04/M10 A2936 RMK SC8 CVCTV CLD EMBD PRESRR SLP954=
METAR CYRJ 180000Z 12005KT 30SM FEW027 BKN140 M07/M09 A2983 RMK SC2AC5 SLP117=
METAR CYRL 180000Z 33011KT 5SM -SN BLSN BKN020 M14/M18 A2972 RMK BLSN1SC6 SLP095=
METAR CYTL 180000Z AUTO 35012G25KT 1 1/2SM -SN SCT031 OVC046 M22/M25 A2963 RMK SLP061=
METAR CYTS 180000Z 18011G20KT 15SM -SN DRSN OVC013 M02/M04 A2930 RMK SC8 SLP944=
METAR CYTZ 180000Z AUTO 18012G18KT 9SM FEW120 BKN150 OVC170 03/M02 A2981 RMK SLP099=
METAR CYVP 180000Z 20009KT 15SM OVC051 M11/M14 A2961 RMK SC8 SLP035=
METAR CYVV 180000Z 18018G30KT 15SM OVC050 01/M03 A2959 RMK SC8 SLP032=
METAR CYWA 180000Z 13010KT 15SM BKN030 BKN100 M02/M05 A2978 RMK SC5AC2 DENSITY ALT -1416FT SLP092=
METAR CYXR 180000Z AUTO 16018G26KT 9SM -SN OVC018 M02/M05 A2944 RMK ICE PRESFR SLP988=
METAR CYYY 180000Z 15008KT 15SM BKN033 M07/M11 A2996 RMK SC7 SLP150=
METAR CYZE 180000Z AUTO 19022G28KT 9SM FEW066 BKN100 03/M01 A2946 RMK SLP988=
METAR CYZR 180000Z AUTO 19016G23KT 9SM SCT130 BKN150 OVC170 01/M03 A2970 RMK SLP068=


649 
SACN49 CWAO 180000
METAR CYAY 180000Z AUTO 26005KT 9SM OVC017 M05/M08 A2995 RMK SLP146=
METAR CYCX NIL=
METAR CYDF 180000Z 01003KT 15SM FEW042 M05/M08 A2999 RMK SC2 SLP159=
METAR CYDP 180000Z 24017KT 15SM FEW080 M14/M19 A2977 RMK AC1 TR AC LAST STAFFED OB/ NEXT 180900 SLP082=
METAR CYGW 180000Z AUTO 11006KT 9SM OVC027 M11/M15 A2957 RMK SLP016=
METAR CYLU NIL=
METAR CYNC NIL=
METAR CYSJ 180000Z 00000KT 15SM SKC M13/M14 A3005 RMK SLP189=
METAR CYTQ NIL=
METAR CYYG 180000Z 26005KT 15SM SCT030 M08/M13 A3003 RMK SC3 SLP174=


650 
SACN88 CWAO 180000
AAB NIL=
AAW NIL=
ABB SA 0000 AUTO8 M M M 190/-06/-10/3203/M/ 3026 95MM=
ABF NIL=
ABH NIL=
ABR SA 0000 AUTO8 M M M 191/-09/-11/2701/M/ 3027 79MM=
ABT NIL=
ACM NIL=
ACP NIL=
ACQ SA 0000 AUTO8 M M M 173/-08/-12/2301/M/     SOG 03 2026 35MM=
ADL NIL=
ADN SA 0000 AUTO8 M M M 170/-10/-13/0000/M/     SOG 04 1025 27MM=
ADS SA 0000 AUTO8 M M M 157/-03/-04/0203/M/     3015 03MM=
AEI NIL=
AFC SA 0000 AUTO8 M M M 178/-06/-12/2305/M/     SOG 02 1023 15MM=
AFL NIL=
AFY NIL=
AGL NIL=
AHD SA 0000 AUTO8 M M M 189/-05/-09/3204/M/ 3025 66MM=
AHK SA 0000 AUTO8 M M M 187/-06/-11/3005/M/ 3026 34MM=
AHR SA 0000 AUTO8 M M M 176/-10/-14/2404/M/     SOG 190 3022 86MM=
AHT NIL=
AHV SA 0000 AUTO8 M M M 151/-18/-20/1601/M/     SOG 07 1011 80MM=
AHW SA 0000 AUTO8 M M M 189/-06/-11/3202/M/ SOG 01 3025 98MM=
AJH NIL=
AJT NIL=
AJW NIL=
AKC NIL=
AMR NIL=
AMS NIL=
ANH NIL=
ANR NIL=
AOH NIL=
AOS SA 0000 AUTO8 M M M 186/-07/-11/3406/M/ 3025 10MM=
APB NIL=
APR NIL=
AQY NIL=
ARP NIL=
ASB NIL=
ASF NIL=
AUU NIL=
AVA NIL=
AWR SA 0000 AUTO8 M M M 152/-03/-08/1108/M/     2016 67MM=
EDA NIL=
EQI NIL=
ERM NIL=
ESB NIL=
EWD NIL=
OSM NIL=
WAR NIL=
WBK NIL=
WBV NIL=
WDA NIL=
WDO NIL=
WHO NIL=
WKB NIL=
WNS NIL=
WRN NIL=
WSS NIL=
WXI NIL=
WXS NIL=
WZF NIL=
WZN NIL=
WZU SA 0000 AUTO8 M M M 191/-05/-10/3503/M/ 3025 16MM=
XGD NIL=
XGM NIL=
XKT NIL=
XNP NIL=
ZCR NIL=
ZDB NIL=
ZSP NIL=


651 
SACN48 CWAO 180000
METAR CYAH 180000Z AUTO 16006KT 9SM OVC026 M14/M17 A2961 RMK SLP057=
METAR CYAS NIL=
METAR CYBX 180000Z 34006KT 15SM FEW220 M09/M12 A2997 RMK CI1 SLP155=
METAR CYGV 180000Z AUTO 31003KT 9SM OVC034 M06/M09 A2996 RMK SLP152=
METAR CYHA NIL=
METAR CYIK NIL=
METAR CYKG NIL=
METAR CYKQ NIL=
METAR CYLA NIL=
METAR CYMH 180000Z AUTO 23004KT 9SM BKN019 M06/M10 A2995 RMK SLP145=
METAR CYML NIL=
METAR CYMT 180000Z AUTO 15009KT 9SM OVC110 M12/M14 A2965 RMK SLP072=
METAR CYMU NIL=
METAR CYNM 180000Z AUTO 15016G23KT 1 1/4SM -SN OVC017 M11/M13 A2947 RMK SLP007=
METAR CYOY NIL=
METAR CYPH 180000Z AUTO 25011KT 9SM -SN OVC025 M10/M14 A2953 RMK SLP005=
METAR CYPX 180000Z AUTO 08007KT 9SM OVC066 M18/M21 A2953 RMK SLP004=
METAR CYQI 180000Z 21007KT 15SM SKC M06/M08 A3009 RMK SLP193=
METAR CYSK NIL=
METAR CYUY 180000Z 16015G27KT 3SM -SHSN FEW011 OVC054 M06/M07 A2945 RMK SC1SC8 SC TR SLP997=
METAR CYWK 180000Z 19005KT 12SM -SN FEW040 OVC095 M13/M15 A2969 RMK SC2AC6 SLP108=
METAR CYZG NIL=


652 
SACN74 CWAO 180000
NBB NIL=
NBI NIL=
NCD NIL=
NCO NIL=
NDT NIL=
NEK SA 0000 AUTO8 M M M 285/-28/-31/0109+15/M/     PK WND 2924 2324Z SOG 07 1021 41MM=
NFR SA 0000 AUTO8 M M M 226/-29/-32/2509/M/     SOG 38 1007 72MM=
NGC NIL=
NGH NIL=
NPL NIL=
NSG NIL=
NZS NIL=
WIC NIL=
XBL NIL=
XCM NIL=
XFB NIL=
XUX NIL=
ZCY NIL=
ZHK NIL=
ZLT NIL=
ZVM NIL=


653 
SACN58 CWAO 180000
ERU NIL=
EWS NIL=
STH NIL=
WDH NIL=
WLT NIL=
WZB NIL=
XWT NIL=
ZHD NIL=
ZQA NIL=
ZXR NIL=


654 
SACN78 CWAO 180000
OBQ NIL=
OCE NIL=
OCP SA 0000 AUTO8 M M M 930/-01/-03/2114+21/M/0009 PK WND 2026 2332Z SOG 16 5016 32MM=
OGE SA 0000 AUTO8 M M M 887/-02/-02/2609+23/M/0016 PCPN 0.9MM PAST HR PK WND 3023 2359Z SOG 27 3022 75MM=
OGI SA 0000 AUTO8 M M M 085/00/-05/1708/M/     PK WND 1718 2346Z SOG 11 7022 26MM=
OGP NIL=
OKN NIL=
OSL NIL=
OTL SA 0000 AUTO8 M M M 061/-22/-25/3314+22/M/0010 PK WND 3226 2344Z SOG 43 1052 94MM=
OTR NIL=
OTU SA 0000 AUTO8 M M M 092/01/-04/1809/M/     SOG 18 8025 87MM=
OWW NIL=
TAE NIL=
TAG NIL=
TAL NIL=
TBF NIL=
TBO NIL=
TBT NIL=
TCK NIL=
TCW NIL=
TGT NIL=
TKG NIL=
TKR NIL=
TLS NIL=
TMS NIL=
TNK NIL=
TPM NIL=
TPQ NIL=
TRA NIL=
TRY NIL=
TSB NIL=
TTR NIL=
TUX NIL=
TWL NIL=
TWN NIL=
TXR NIL=
TZE NIL=
TZN NIL=
TZR NIL=
WAJ NIL=
WBE NIL=
WKK NIL=
WLS NIL=
WNB NIL=
WNL NIL=
WPC SA 0000 AUTO8 M M M M/M/M/MMMM/M/ 8021 MMMM=
WPS NIL=
WWX NIL=
XBI NIL=
XRG SA 0000 AUTO8 M M M 089/02/-03/1816+24/M/     PK WND 1824 2356Z SOG 09 6021 47MM=
XZC NIL=
YLH NIL=
ZEL SA 0000 AUTO8 M M M 080/00/-04/1814+19/M/     PK WND 1820 2349Z SOG 16 7022 -42MM=


655 
SACN92 CWAO 180000
VKU NIL=
WJI NIL=
WJK NIL=
WJL NIL=
WJM NIL=
WJN NIL=
WJO NIL=
WJR NIL=
WJT NIL=
WJU NIL=
WJV NIL=
WJW NIL=
WJX NIL=
WKA NIL=
WKD NIL=
WKF SA 0000 AUTO8 M M M 318/01/-02/MMMM/M/     5001 94MM=
WKG NIL=
WKH NIL=
WKX NIL=
WLC NIL=
WLE NIL=
WLF SA 0000 AUTO8 M M M 965/-12/-14/3511+20/M/0034 PCPN 0.2MM PAST HR PK WND 3524 2311Z SOG 36 1055 22MM=
WLG NIL=
WLJ NIL=
WLK NIL=
WLM NIL=
WLQ NIL=
WLU NIL=
WLV NIL=
WME NIL=
WMF NIL=
WMI NIL=
WMJ NIL=
WMM NIL=
WMQ NIL=


656 
SACN51 CWAO 180000
METAR CBAR NIL=
METAR CFAB NIL=
METAR CFOX NIL=
METAR CLAB NIL=
METAR CPIN NIL=
METAR CWAE 180000Z 00000KT 15SM SKC M01/M08 A3039 RMK LAST OB/NXT 181500Z SLP320=
METAR CWCA NIL=
METAR CWIL NIL=
METAR CWKM 180000Z AUTO 14004KT ////SM ////// ///// A////=
METAR CWKW NIL=
METAR CWLI NIL=
METAR CWLX NIL=
METAR CWLY 180000Z AUTO 00000KT 9SM CLR M00/M02 A3044 RMK SLP322=
METAR CWOB NIL=
METAR CWPX NIL=
METAR CWRX NIL=
METAR CWSW 180000Z 11005KT 090V150 15SM FEW031 BKN051 BKN076 BKN260 M06/M16 A3020 RMK SC2SC3AC1CI1 LAST STFD OBS/NXT 181400Z SLP285=
METAR CWUP NIL=
METAR CWUW NIL=
METAR CWVH 180000Z AUTO 16032G39KT ////SM ////// ///// A////=
METAR CWYK NIL=
METAR CWZZ NIL=
METAR CYCA NIL=
METAR CZBF 180000Z AUTO VRB02KT 9SM CLR M13/M15 A3003 RMK SLP176=
METAR CZCP NIL=
METAR CZST 180000Z 00000KT 15SM FEW030 SCT055 BKN150 M01/M01 A3064 RMK SC1SC2AC2 SLP378=


657 
SACN87 CWAO 180000
WEK NIL=
WEQ NIL=
WJD NIL=
WLP NIL=
WPU NIL=
WRO NIL=
WWL NIL=
WWS NIL=
WZG NIL=


658 
SPAK40 KNKA 180007
SPECI PAMD 180006Z AUTO 13020G25KT 10SM BKN011 BKN023 OVC027 04/03 
    A3036 RMK AO2 CIG 008V014=


718 
SACN96 CWAO 180000
WXL NIL=
WXN NIL=
WXP NIL=
WXW NIL=
WYA NIL=
WYE SA 0000 AUTO8 M M M 311/-16/-19/3106/M/     SOG 29 3013 34MM=
WYF NIL=
WYH NIL=
WYI NIL=
WYJ NIL=
WYL SA 0000 AUTO8 M M M 290/-12/-14/0000/M/M SOG 59 3001 19MM=
WYQ SA 0000 AUTO8 M M M 148/-06/-09/1403/M/     1005 29MM=
WYW NIL=
WYY NIL=
WZA NIL=
WZE SA 0000 AUTO8 M M M 213/-16/-20/3306/M/     SOG 37 1040 38MM=
WZL NIL=
WZO NIL=
WZQ NIL=
WZR NIL=
WZS NIL=
WZT NIL=
WZV NIL=
WZY NIL=
XBD NIL=
XBQ NIL=
XEL NIL=
XFV NIL=
XHM NIL=
XKA NIL=
XKE SA 0000 AUTO8 M M M 126/-01/-04/1804/M/     SOG 04 7012 53MM=
XND NIL=
XOA SA 0000 AUTO8 M M M 121/-01/-05/1607/M/     SOG 05 6011 26MM=
XPS NIL=
XPT SA 0000 AUTO8 M M M 081/01/-03/MMMM/M/     6022 49MM=
XWF NIL=
ZGH NIL=
ZOC NIL=
ZPK NIL=
ZQT NIL=
ZUB NIL=
ZWN NIL=


720 
SACN98 CWAO 180000
XAF NIL=
XAG NIL=
XAJ NIL=
XBA NIL=
XBR NIL=
XBW NIL=
XCD NIL=
XCP NIL=
XCS NIL=
XDK NIL=
XDP NIL=
XFR NIL=
XHR NIL=
XKI NIL=
XKM NIL=
XLB NIL=
XOY NIL=
XPA NIL=
XPC NIL=
XRB NIL=
XRL NIL=
XSE SA 0000 AUTO8 M M M 316/-30/-33/3117/M/M PK WND 3227 2309Z SOG 15 0012 61MM=
XTD NIL=
XTO NIL=
XVN NIL=
XWB NIL=
XWM NIL=
XYH NIL=
XZV SA 0000 AUTO8 M M M 153/-15/-16/3602/M/     SOG 21 1015 53MM=
ZKD NIL=
ZLW NIL=
ZMJ NIL=
ZPR NIL=
ZQZ NIL=
ZRP NIL=
ZTB NIL=
ZZJ NIL=
ZZP NIL=


721 
SACN95 CWAO 180000
WTA NIL=
WTD SA 0000 AUTO8 M M M 314/-31/-35/3116/M/     PK WND 3120 2334Z 1012 59MM=
WTE NIL=
WTG NIL=
WTM NIL=
WTN NIL=
WTQ SA 0000 AUTO8 M M M 140/-03/-05/1507/M/     SOG 07 8007 71MM=
WTR NIL=
WTS NIL=
WTT NIL=
WTX NIL=
WTY NIL=
WUI NIL=
WUK NIL=
WUS NIL=
WUT NIL=
WUX NIL=
WUY SA 0000 AUTO8 M M M 994/-06/-07/1613+22/M/0020 PCPN 0.6MM PAST HR PK WND 1522 2356Z 8044 84MM=
WVC NIL=
WVF NIL=
WVI NIL=
WVN SA 0000 AUTO8 M M M 288/-12/-15/3412/M/     PK WND 3419 2304Z SOG 07 3013 04MM=
WVO NIL=
WVP NIL=
WVQ NIL=
WVT NIL=
WVU NIL=
WVW NIL=
WVZ NIL=
WWA NIL=
WWB NIL=
WWC NIL=
WWE NIL=
WWF NIL=
WWK NIL=
WWN SA 0000 AUTO8 M M M 994/-14/-16/3504/M/0016 PCPN 0.2MM PAST HR SOG 31 3011 66MM=
WWO NIL=
WXA NIL=
WXB NIL=
WXC NIL=
WXG NIL=
WZW NIL=


722 
SACN97 CWAO 180000
XAT NIL=
XBK NIL=
XBO NIL=
XCA NIL=
XCH NIL=
XCK SA 0000 AUTO8 M M M 385/-18/-20/2802/M/     SOG 36 8008 13MM=
XDE NIL=
XDI NIL=
XDW NIL=
XEA NIL=
XEC NIL=
XEG NIL=
XET SA 0000 AUTO8 M M M 072/01/-04/1814+21/M/     PK WND 2021 2355Z SOG 16 6028 73MM=
XFA NIL=
XGH NIL=
XHA NIL=
XHF NIL=
XHI NIL=
XIB NIL=
XLC NIL=
XLL NIL=
XLT NIL=
XMD NIL=
XMI NIL=
XMM NIL=
XMP NIL=
XMW NIL=
XMY NIL=
XNM NIL=
XOX NIL=
XQT NIL=
XRH NIL=
XSH NIL=
XSR NIL=
XTL NIL=
XTN NIL=
XTP NIL=
XTV NIL=
XVG NIL=
XWN NIL=


726 
SAGU31 MGGT 180000
METAR MGMM 180000Z 00000KT CAVOK 27/23 Q1016 A3000=
METAR MGHT 180000Z 09006KT CAVOK 21/06=
METAR MGPB 180000Z 09004KT CAVOK 25/22 Q1015 A2997=
METAR MGGT 180000Z 030008KT 9999 FEW018 21/11 Q1022 A3018 =
METAR MGSJ 180000Z 27006KT CAVOK 28/// Q1014 A2994=
METAR MGRT 180000Z 27006KT CAVOK 30/20 Q1015 A2997 FEW200 VOLC STA MARIA Y
     SATGO EN ACTV=
METAR MGQZ 180000Z 18006KT CAVOK 15/11 QFE774.3 =
METAR MGCB 180000Z 00000KT 9999 SCT018 19/16 QFE873.4 =
METAR MGZA 180000Z 08004KT CAVOK 29/16 QFE989.5 =
METAR MGES 180000Z 03004KT CAVOK 23/15 QFE911.0 =
METAR MGMT 180000Z 00000KTCAVOK 27/25 =
METAR MGTU 180000Z 18004KT CAVOK 29/24 =


890 
SAJD31 OJAI 180000
METAR OJAI 180000Z 00000KT 4000 BR NSC 03/01 Q1024 NOSIG=
METAR  OJAM 180000Z 00000KT CAVOK 08/04 Q1024 NOSIG=
METAR  OJAQ 180000Z 36010KT 5000 HZ NSC 14/07 Q1023 NOSIG=

065 
SAAE33 VTBB 180000 RRA
METAR VLLB 180000Z 36002KT 0500 FG VV/// 11/11 Q1016 NOSIG=
METAR VLLN 180000Z NIL=
METAR VLSK 180000Z 36004KT 5000 BR SCT040 SCT100 14/13 Q1017 NOSIG=
METAR VLPS 180000Z 36002KT 8000 FEW050 16/14 Q1015 NOSIG=


093 
SACA00 KMSC 180007
METAR MYNN 180000Z 12006KT 010V130 9999 SCT022 SCT035 BKN080 23/18
      A3012 PKWND-08KT=


187 
SPCN46 CWAO 180007
SPECI CZSJ 180007Z AUTO 32016G21KT 5SM HZ OVC026 M21/M24 A2980 RMK SLP127=


188 
SAKA31 PTKK 180000
METAR PTKK 172351Z 11007G17KT 15SM FEW014 BKN280 30/25 A2980 RMK
SLP094 8/101 T03040254 10304 20280 50007=


189 
SPCN43 CWAO 180007
SPECI CYET 180007Z AUTO 31008KT 9SM -SN BKN024 M09/M13 A3037 RMK SLP349=


190 
SPCN47 CWAO 180007
SPECI CYTL 180007Z AUTO 35010G22KT 320V020 3SM -SN OVC043 M22/M25 A2964 RMK SLP066=


191 
SPCN42 CWAO 180007
SPECI CYDQ 180007Z AUTO 30006KT 4SM -SN SCT016 BKN033 M13/M16 A3066 RMK SLP443=


415 
SACN94 KWBC 180008
CWND RMK NIL=
CWQH RMK NIL=
CWQK RMK NIL=
CWQO RMK NIL=
CWQP RMK NIL=
CWQR RMK NIL=
CWQV RMK NIL=
CWRJ RMK NIL=
CWRK RMK NIL=
CWRT RMK NIL=
CWRY RMK NIL=
CWRZ RMK NIL=
CWSD RMK NIL=
CWSG RMK NIL=
CWSK RMK NIL=
CWSL RMK NIL=
CWSP RMK NIL=
CWSR RMK NIL=
CWST RMK NIL=


431 
SACN86 KWBC 180008
CWHP RMK NIL=
CWHP RMK NIL=
CWHP RMK NIL=
CWHP RMK NIL=
CWDQ RMK NIL=
CWDV RMK NIL=
CWHP RMK NIL=
CWDV RMK NIL=
CWHP RMK NIL=
CWDV RMK NIL=
CWHP RMK NIL=
CWBE RMK NIL=
CWNL RMK NIL=
CWPO RMK NIL=
CWPS RMK NIL=
CWSI RMK NIL=
CWWX RMK NIL=
CWWZ RMK NIL=
CWDV RMK NIL=
CWHP RMK NIL=
CWNC RMK NIL=
CWNZ RMK NIL=
CWHP RMK NIL=
CWHP RMK NIL=
CTAE RMK NIL=
CTAL RMK NIL=
CTCK RMK NIL=
CTCW RMK NIL=
CTWN RMK NIL=
CWAJ RMK NIL=
CWBE RMK NIL=
CWLS RMK NIL=
CWNB RMK NIL=
CWNL RMK NIL=
METAR CWPC 180000Z AUTO RMK AO1 58021=
CWPS RMK NIL=
CWWX RMK NIL=
CWWB RMK NIL=
CWWB RMK NIL=


447 
SACN92 KWBC 180008
CWJI RMK NIL=
CWJM RMK NIL=
CWJO RMK NIL=
CWJR RMK NIL=
CWJT RMK NIL=
CWJU RMK NIL=
CWJV RMK NIL=
CWJW RMK NIL=
CWJX RMK NIL=
CWKD RMK NIL=
CWKG RMK NIL=
CWKH RMK NIL=
CWKX RMK NIL=
CWLC RMK NIL=
CWLE RMK NIL=
CWLM RMK NIL=
CWLU RMK NIL=
CWMJ RMK NIL=
CWMM RMK NIL=
CWMQ RMK NIL=
CWLM RMK NIL=
CWLU RMK NIL=
CWMJ RMK NIL=
CWMM RMK NIL=
CWMQ RMK NIL=
CWLM RMK NIL=
CWLU RMK NIL=
CWMJ RMK NIL=
CWMM RMK NIL=
CWMQ RMK NIL=
CWLM RMK NIL=
CWLU RMK NIL=
CWMJ RMK NIL=
CWMM RMK NIL=
CWMQ RMK NIL=
CWLM RMK NIL=
CWLU RMK NIL=
CWMJ RMK NIL=
CWMM RMK NIL=
CWMQ RMK NIL=


463 
SACN87 KWBC 180008
CWCT RMK NIL=
CWLB RMK NIL=
CWEK RMK NIL=
CWEQ RMK NIL=
CWJD RMK NIL=
CWLP RMK NIL=
CWPU RMK NIL=
CWRO RMK NIL=
CWWL RMK NIL=
CWWS RMK NIL=
CWZG RMK NIL=
CWME RMK NIL=
CWME RMK NIL=
CWDC RMK NIL=
CWEH RMK NIL=
CWKO RMK NIL=
CWOY RMK NIL=
CWME RMK NIL=
CWDC RMK NIL=
CWEH RMK NIL=
CWKO RMK NIL=
CWOY RMK NIL=
CWME RMK NIL=
CWDC RMK NIL=
CWEH RMK NIL=
CWKO RMK NIL=
CWOY RMK NIL=
CWME RMK NIL=
CWQS RMK NIL=
CWRM RMK NIL=
CWRU RMK NIL=
CWVT RMK NIL=
CWZW RMK NIL=
CWVT RMK NIL=
CWZW RMK NIL=


479 
SACN90 KWBC 180008
METAR CWEB 180000Z AUTO 24002KT 06/M00 RMK AO1 SLP318 T00631003
53001=
CWEE RMK NIL=
CWEL RMK NIL=
METAR CWEW 180000Z AUTO 14004KT M03/M05 RMK AO1 SOG 16 8002 SLP147
T10331054=
METAR CWEZ 180000Z AUTO 28004KT 06/02 RMK AO1 SLP317 T00560024
55004=
CWFF RMK NIL=
CWFJ RMK NIL=
CWFQ RMK NIL=
CWGB RMK NIL=
CWGD RMK NIL=
CWGH RMK NIL=
CWGL RMK NIL=
CWGM RMK NIL=
CWGB RMK NIL=
CWGD RMK NIL=
CWGH RMK NIL=
CWGL RMK NIL=
CWGM RMK NIL=


495 
SACI41 KWBC 180000 RRA
METAR
RCFN 180000Z 36003KT 300V040 9999 -RA FEW020 BKN040 15/11 Q1023
     NOSIG RMK A3021=
RCMQ 180000Z 33005KT 9999 FEW012 BKN080 15/11 Q1019 NOSIG RMK
     A3011=
RCNN 180000Z 03005KT 9999 -RA FEW010 SCT025 BKN050 14/09 Q1020
     NOSIG RMK A3012 RA AMT T=


511 
SACN85 KWBC 180008
CWDM RMK NIL=
CWDM RMK NIL=
CWHO RMK NIL=
METAR CWPK 180000Z AUTO 18006KT M08/M10 RMK AO1 SOG 27 7008 SLP101
T10781100=
CWWE RMK NIL=
CYGS RMK NIL=
CWDM RMK NIL=
CWDM RMK NIL=
CWBY RMK NIL=
CWDM RMK NIL=
CWDM RMK NIL=
CWDM RMK NIL=
CWDM RMK NIL=
CWNH RMK NIL=
CWDM RMK NIL=
CWRA RMK NIL=
CWSF RMK NIL=
CWDM RMK NIL=
CWBV RMK NIL=
CWDO RMK NIL=
CWHO RMK NIL=
CWRN RMK NIL=
CWSS RMK NIL=
CWEF RMK NIL=
CWEP RMK NIL=
CWER RMK NIL=
CWBV RMK NIL=
CWDO RMK NIL=
CWHO RMK NIL=
CWRN RMK NIL=
CWSS RMK NIL=
CWBV RMK NIL=
CWDO RMK NIL=
CWHO RMK NIL=
CWRN RMK NIL=
CWSS RMK NIL=
CWBV RMK NIL=
CWDO RMK NIL=
CWHO RMK NIL=
CWRN RMK NIL=
CWSS RMK NIL=
CWWE RMK NIL=
CWWE RMK NIL=


527 
SPCN31 KWBC 180008
SPECI
CYTL 180007Z AUTO 35010G22KT 320V020 3SM -SN OVC043 M22/M25 A2964
RMK SLP066=


543 
SPCN31 KWBC 180008
SPECI
CYTE 180006Z AUTO 02011G20KT 6SM HZ OVC017 M23/M26 A2967 RMK
SLP055=


559 
SAPA31 KWBC 180000 RRA
METAR
PLCH 180000Z 09011KT 9999 FEW020 SCT040 30/26 Q1009=
PTKK 172351Z 11007G17KT 15SM FEW014 BKN280 30/25 A2980 RMK SLP094
     8/101 T03040254 10304 20280 50007=
PTYA 172352Z 08010KT 12SM FEW016 BKN300 30/25 A2984 RMK SLP105
     8/101 T03030254 10303 20267 52022=


575 
SAMX31 KWBC 180045
METAR
MNMG 180000Z 10006KT 9999 FEW023 SCT070 29/20 Q1012 A2990
     NOSIG=


591 
SAJP31 KWBC 180000 RRA
METAR
RJAA 180000Z VRB02KT 9999 FEW030 03/M06 Q1024 NOSIG RMK 1CU030
     A3024=
RJCC 180000Z VRB01KT 9999 FEW020 M09/M13 Q1022 RMK 1CU020
     A3019=
RJFK 180000Z 36005KT 9999 FEW030 SCT/// 03/00 Q1024 RMK 1CU030
     A3025=
RJOO 180000Z 31004KT 9999 FEW025 BKN040 05/M02 Q1026 RMK 1CU025
     5CU040 A3030=
RJTT 180000Z 01013KT 9999 FEW030 SCT060 05/M04 Q1024 NOSIG RMK
     1CU030 3SC060 A3025=


617 
SACA33 KWBC 180000 RRA
METAR
TNCC 180000Z 06007KT 9999 SCT016 26/25 Q1015 NOSIG=


618 
SACA31 KWBC 180000 RRA
METAR
MKJS 180000Z 10007KT 9999 BKN022 26/22 Q1016=


619 
SAAU31 KWBC 180000 RRA
METAR
YBBN 180000Z 23006KT 180V270 9999 SCT040 27/18 Q1005=
YBCG 180000Z AUTO 21009KT 9999 // BKN035 28/20 Q1005=
YBCS 180000Z AUTO 35003KT 9999 // NCD 32/24 Q1004=
YBTL 180000Z AUTO 12005KT 100V160 9999 // SCT030 33/25 Q1004=
YMHB 180000Z AUTO 01005KT 350V050 9999 // NCD 18/08 Q1028=
YMML 180000Z 23004KT 170V260 CAVOK 22/11 Q1021=
YPAD 180000Z 25007KT CAVOK 25/10 Q1017=
YPDN 180000Z 06007KT 9999 -RA FEW004 OVC130 25/25 Q1008=
YPEA 180000Z AUTO 12014KT 9999 // NCD 20/10 Q1014=
YPPH 180000Z NIL=
YPTN 180000Z AUTO 00000KT 9999 // FEW011 SCT058 27/24 Q1010=
YSCB 180000Z AUTO 16016KT 9999 // OVC036 19/11 Q1022=
YSSY 180000Z 17027G37KT 8000 VCSH FEW011 SCT015 BKN022 21/20
     Q1017=


620 
SAAL31 KWBC 180000 RRA
METAR
DAAG 180000Z 35008KT 8000 -RA SCT020TCU FEW023CB BKN040 12/09
     Q1021=
DAAT 180000Z 09008KT CAVOK 10/M18 Q1021=
DABB 180000Z 23005KT 9999 FEW020 FEW023CB BKN033 10/09 Q1010=
DABC 180000Z 28014KT 8000 -RA SCT016 BKN026 06/05 Q1012=
DABS 180000Z 25019G30KT 6000 SCT013 BKN026 06/01 Q1011=
DAON 180000Z 18004KT 9999 SCT020 SCT030 08/07 Q1025=
DAOO 180000Z 22006KT 9999 FEW023 SCT030 08/07 Q1024=
DAUA 180000Z 03003KT CAVOK 07/M10 Q1022=
DAUG 180000Z VRB02KT CAVOK 06/M02 Q1021=
DAUH 180000Z 22006KT CAVOK 04/M06 Q1020=
DAUZ 180000Z 34002KT CAVOK 04/M07 Q1023=


621 
SAUS70 KWBC 180008
METAR
KBFR 180015Z AUTO 16007KT 10SM CLR 05/M01 A2976 RMK AO2=
KDYA 180015Z AUTO 00000KT 10SM -DZ SCT080 OVC100 12/04 A2997 RMK
     AO2 T01240037=
K1S5 180015Z AUTO 00000KT 10SM CLR 06/M03 A3037 RMK AO2
     T00631031=
K8W2 180015Z AUTO 24003KT 10SM CLR 03/M06 A3004 RMK AO1
     T00271063=
KD50 180015Z AUTO 33015G20KT 10SM FEW006 FEW012 FEW120 M16/M20
     A3019 RMK AO2=
KEZM 180015Z AUTO 00000KT 10SM CLR 10/00 A3011 RMK AO2=
KTGI 180015Z AUTO 13005KT 10SM CLR 02/M04 A3017 RMK AO1
     T00241041=
KW63 180015Z AUTO 11004KT 10SM CLR 03/M03 A3010 RMK AO1=


622 
SAXX60 KWBC 180000 CCE
METAR
EQYR 172357Z AUTO 05004KT CLR 06/03 A3030 RMK AO2 SLP261 T00610033
     10111 20056 55000 $=
KNDZ 172356Z 14006KT 10SM FEW055 SCT140 SCT250 13/06 A3003 RMK AO2
     SLP158 T01330056 10178 20133 58007 $=
EQYR 172357Z AUTO 05004KT CLR 06/03 A3030 RMK AO2 SLP261 T00610033
     10111 20056 55000 $=
KNDZ 172356Z 14006KT 10SM FEW055 SCT140 SCT250 13/06 A3003 RMK AO2
     SLP158 T01330056 10178 20133 58007 $=


623 
SAXX60 KWBC 180000 RRF
METAR
KNIP 172353Z 11005KT 10SM FEW250 11/06 A3011 RMK AO2 SLP193
     T01110056 10178 20111 53004=
KNRB 172352Z AUTO 15003KT 10SM CLR 13/08 A3011 RMK AO2 SLP196
     T01280078 10161 20122 55000=
KNSI 172353Z AUTO 32016G23KT SCT009 A3016 RMK AO2 SLPNO 56010
     $=
KNTD 172355Z 25007KT 10SM FEW025 15/09 A3017 RMK AO2 SLP219
     T01500094 10161 20144 56010 VISNO S $=
KNTU 172356Z 16005KT 10SM FEW250 02/M03 A3019 RMK AO2 SLP225
     T00171033 10078 20017 51009=
KNUW 172353Z 33010KT 10SM SCT030 SCT050 06/01 A3047 RMK AO2 SLP322
     T00610011 10072 20044 55001 $=
KNYG 172356Z AUTO 18004KT 10SM CLR 03/ A3014 RMK AO2 SLP207 T0033
     10067 20033 53003 $=
KNYL 172357Z AUTO 25007KT 10SM CLR 19/M03 A3006 RMK AO2 SLP178
     T01941033 10200 20144 55007 $=
KRND 172355Z AUTO 23003KT 10SM FEW160 15/09 A2978 RMK AO2 SLP083
     T01500094 10159 20125 58010=
KWRI 172355Z AUTO 00000KT 10SM CLR M02/M08 A3012 RMK AO2 SLP201
     T10191082 10064 21020 52016=
KBKF 172358Z 04019G23KT 10SM -SN OVC014 M02/M06 A2985 RMK AO2A
     SLP110 P0000 60000 T10241062 10094 21024 52031=
KLUF 172355Z AUTO 21006KT 10SM CLR 18/M04 A3003 RMK AO2 SLP167
     T01821045 10186 20140 55008 $=
KNBG 172355Z 12005KT 10SM 16/11 A2997 RMK AO2 SLP146 T01610111
     10183 20161 56011 $=
KNCA 172356Z 13003KT 10SM CLR 03/01 A3018 RMK SLP221 T00330011
     10111 20033 50005=
KNFW 172352Z 18012KT 10SM FEW250 16/06 A2961 RMK AO2 SLP013
     T01610056 10189 20128 56015 $=
KLUF 172355Z AUTO 21006KT 10SM CLR 18/M04 A3003 RMK AO2 SLP167
     T01821045 10186 20140 55008 $=
KNBG 172355Z 12005KT 10SM 16/11 A2997 RMK AO2 SLP146 T01610111
     10183 20161 56011 $=
KNCA 172356Z 13003KT 10SM CLR 03/01 A3018 RMK SLP221 T00330011
     10111 20033 50005=
MUGM 172351Z 05009KT 10SM FEW030 FEW060 27/22 A3006 RMK AO2 SLP178
     T02670222 10300 20267 53012 $=
TTPP 180000Z 11003KT 9999 FEW017 26/22 Q1015 NOSIG=
KBKF 172358Z 04019G23KT 10SM -SN OVC014 M02/M06 A2985 RMK AO2A
     SLP110 P0000 60000 T10241062 10094 21024 52031=
KNBG 172355Z 12005KT 10SM 16/11 A2997 RMK AO2 SLP146 T01610111
     10183 20161 56011 $=
KNSI 172353Z AUTO 32016G23KT SCT009 A3016 RMK AO2 SLPNO 56010
     $=
KNTD 172355Z 25007KT 10SM FEW025 15/09 A3017 RMK AO2 SLP219
     T01500094 10161 20144 56010 VISNO S $=
KNTU 172356Z 16005KT 10SM FEW250 02/M03 A3019 RMK AO2 SLP225
     T00171033 10078 20017 51009=
TTPP 180000Z 11003KT 9999 FEW017 26/22 Q1015 NOSIG=
KNFL 172357Z 34012KT 10SM SCT180 SCT220 13/M09 A3009 RMK AO2
     SLP157 T01281094 10139 20067 53000 $=
KNJW 172357Z AUTO 14006KT 10SM BKN120 12/01 A2995 RMK AO2 RAE03
     SLP059 P0000 60000 T01170011 10161 20111 58017 $=
K0J4 172358Z AUTO 19006KT 10SM CLR 14/M01 A3006 RMK AO2 SLP178
     T01391006 10189 20133 56003=
KBKF 172358Z 04019G23KT 10SM -SN OVC014 M02/M06 A2985 RMK AO2A
     SLP110 P0000 60000 T10241062 10094 21024 52031=
KNSI 172353Z AUTO 32016G23KT SCT009 A3016 RMK AO2 SLPNO 56010
     $=
KNTD 172355Z 25007KT 10SM FEW025 15/09 A3017 RMK AO2 SLP219
     T01500094 10161 20144 56010 VISNO S $=
KS12 172355Z VRB05KT 8SM OVC008 03/02 A3041 RMK AO2 UPCOMING
     TAXIWY CLOSURES. CHECK NOTAMS=
KNUQ 172355Z AUTO 34009KT 9SM CLR 12/08 A3021 RMK AO2=
KCOF 172355Z AUTO 04007KT 10SM BKN038 M M RMK AO2 SLPNO RVRNO TSNO
     $=
KNBG 172355Z 12005KT 10SM 16/11 A2997 RMK AO2 SLP146 T01610111
     10183 20161 56011 $=
KNIP 172353Z 11005KT 10SM FEW250 11/06 A3011 RMK AO2 SLP193
     T01110056 10178 20111 53004=
KNTU 172356Z 16005KT 10SM FEW250 02/M03 A3019 RMK AO2 SLP225
     T00171033 10078 20017 51009=


624 
SAPQ50 KWBC 180000 RRC
METAR
PTYA 172352Z 08010KT 12SM FEW016 BKN300 30/25 A2984 RMK SLP105
     8/101 T03030254 10303 20267 52022=
PTKK 172351Z 11007G17KT 15SM FEW014 BKN280 30/25 A2980 RMK SLP094
     8/101 T03040254 10304 20280 50007=
PTKK 172351Z 11007G17KT 15SM FEW014 BKN280 30/25 A2980 RMK SLP094
     8/101 T03040254 10304 20280 50007=


628 
SACN31 KWBC 180000 RRA
METAR
CYBG 180000Z 10003KT 12SM -SHSN OVC030 M07/M09 A2989 RMK SC8
     DENSITY ALT -2115FT SLP136=
CYDQ 180000Z AUTO 31008KT 3SM -SN BKN016 BKN033 M13/M16 A3065 RMK
     SLP441=
CYEG 180000Z 26004KT 6SM -SN OVC028 M10/M11 A3035 RMK SC8
     SLP332=
CYFB 180000Z 00000KT 4SM IC VV026 M19/M22 A2961 RMK IC8 SLP033=
CYFC 180000Z AUTO 21003KT 9SM FEW047 M09/M12 A3005 RMK SLP179=
CYGL 180000Z 12013KT 3SM -SN OVC055 M13/M15 A2949 RMK SC8
     SLP006=
CYHZ 180000Z 34002KT 15SM FEW030 SCT260 M09/M11 A3003 RMK SC1CI2
     SLP183=
CYJT 180000Z 08006KT 15SM BKN059 M03/M07 A2998 RMK SC7 SLP155=
CYKL 180000Z AUTO 16007KT 9SM -SN OVC100 M13/M14 A2963 RMK
     SLP094=
CYMH 180000Z AUTO 23004KT 9SM BKN019 M06/M10 A2995 RMK SLP145=
CYMX 180000Z VRB02KT 15SM SCT042 SCT100 BKN160 M05/M07 A2993 RMK
     SC3AC1AC2 SLP143=
CYOW 180000Z 16007KT 12SM BKN031 M01/M04 A2987 RMK SC6 SLP124=
CYPL 180000Z AUTO 35012G29KT 320V030 1 3/4SM -SN FEW026 OVC039
     M15/M18 A2948 RMK SLP017=
CYQB 180000Z 00000KT 4SM -SN OVC013 M06/M06 A2998 RMK SC8
     SLP158=
CYQG 180000Z AUTO 19016G23KT 9SM FEW140 BKN190 01/M03 A2973 RMK
     SLP077=
CYQM 180000Z 22006KT 15SM FEW045 FEW230 M09/M13 A3004 RMK SC1CI1
     SLP180=
CYQQ 180000Z 32004KT 20SM SKC 06/01 A3047 RMK DENSITY ALT -1494FT
     SLP318=
CYQX 180000Z 34007KT 10SM OVC023 M05/M07 A2996 RMK SC8 SLP159=
CYQY 180000Z 29007KT 3/4SM R06/P6000FT/N -SHSN BKN004 OVC021
     M04/M05 A2997 RMK SC6SC2 /S04/ CVCTV CLD EMBD SLP156=
CYRB 180000Z 03020KT 15SM IC SKC M33/M37 A3020 RMK SLP243=
CYSJ 180000Z 00000KT 15SM SKC M13/M14 A3005 RMK SLP189=
CYTE 180000Z AUTO 02013G21KT 5SM HZ OVC017 M23/M26 A2966 RMK
     SLP055=
CYTL 180000Z AUTO 35012G25KT 1 1/2SM -SN SCT031 OVC046 M22/M25
     A2963 RMK SLP061=
CYTR 180000Z 20008KT 15SM BKN090 02/M02 A2987 RMK AC7 DENSITY ALT
     -1138FT SLP121=
CYUL 180000Z 16007KT 15SM BKN045 OVC180 M03/M06 A2994 RMK SC6AC2
     SLP142=
CYUY 180000Z 16015G27KT 3SM -SHSN FEW011 OVC054 M06/M07 A2945 RMK
     SC1SC8 SC TR SLP997=
CYVP 180000Z 20009KT 15SM OVC051 M11/M14 A2961 RMK SC8 SLP035=
CYVR 180000Z 30006KT 20SM SKC 05/03 A3046 RMK SLP318=
CYWG 180000Z 35018G28KT 15SM FEW020 FEW240 M14/M20 A3002 RMK
     SC1CI1 SC TR CI TR SLP186=
CYWK 180000Z 19005KT 12SM -SN FEW040 OVC095 M13/M15 A2969 RMK
     SC2AC6 SLP108=
CYXU 180000Z 18015G21KT 15SM FEW140 BKN170 01/M04 A2975 RMK AC1AC5
     SLP088=
CYXX 180000Z 22005KT 30SM FEW028 05/02 A3046 RMK CU1 CU TR
     SLP318=
CYXY 180000Z 18016KT 40SM FEW006 SCT110 BKN150 OVC240 M16/M18
     A3040 RMK ST1AC3AC4CI1 ST TR VIS LWR SE SLP379=
CYYC 180000Z 10005KT 4SM -SN BKN021 OVC250 M10/M12 A3025 RMK
     SC5CI3 SLP324=
CYYJ 180000Z 17003KT 30SM FEW020 06/01 A3047 RMK SC1 SC TR
     SLP319=
CYYQ 180000Z 33028G34KT 1/4SM R33/1600V2000FT/N -SN BLSN VV006
     M28/M32 A2997 RMK BLSN8 SLP156=
CYYR 180000Z 17002KT 15SM FEW120 SCT240 M16/M18 A2995 RMK AC1CI3
     DENSITY ALT -3727FT SLP147=
CYYT 180000Z 31003KT 300V010 15SM OVC030 M03/M04 A2995 RMK SC8
     SLP151=
CYYZ 180000Z 17011G16KT 15SM BKN130 BKN170 02/M03 A2978 RMK AC5AC2
     SLP093=
CYZF 180000Z 29007KT 15SM SKC M31/M34 A3081 RMK SLP471=
CYZV 180000Z 03003KT 15SM SCT022 M15/M17 A2997 RMK SC4 SLP158=
CYZX 180000Z 05003KT 15SM BKN035 M11/M12 A3008 RMK SC6 DENSITY ALT
     -3281FT SLP189=
CYZY 180000Z AUTO 06003KT 9SM FEW071 M07/M13 A3052 RMK ICE
     SLP385=
CZBF 180000Z AUTO VRB02KT 9SM CLR M13/M15 A3003 RMK SLP176=


629 
SACN78 KWBC 180008
CTNK RMK NIL=
CTRA RMK NIL=
CWKK RMK NIL=
CXBI RMK NIL=
CXZC RMK NIL=
METAR CZEL 180000Z AUTO 18014G19KT M00/M04 RMK AO1 SOG 16 7022 PK
WND 18020/2349 SLP080 T10041042=


630 
SACN89 KWBC 180008
CWAF RMK NIL=
CWAQ RMK NIL=
CWAV RMK NIL=
CWBA RMK NIL=
CWBG RMK NIL=
CWBO RMK NIL=
CWBS RMK NIL=
CWBT RMK NIL=
CWBZ RMK NIL=
CWCF RMK NIL=
CWCG RMK NIL=
CWCI RMK NIL=
CWCJ RMK NIL=
CWCO RMK NIL=
CWCQ RMK NIL=
CWDD RMK NIL=
CWDF RMK NIL=
CWDJ RMK NIL=
CWDK RMK NIL=
CWDT RMK NIL=
CWDZ RMK NIL=
CWDZ RMK NIL=
CWDZ RMK NIL=
CWDZ RMK NIL=


631 
SACI31 KWBC 180000 RRA
METAR
RCKH 180000Z 33005KT 9000 -RA FEW015 SCT035 BKN050 16/11 Q1019
     NOSIG RMK A3009=
RCSS 180000Z 12010KT 9999 FEW025 BKN080 15/10 Q1021 NOSIG RMK
     A3017=
RCTP 180000Z 05012KT 9999 FEW015 SCT090 16/09 Q1021 NOSIG RMK
     A3016=


632 
SACA45 KWBC 180000 RRA
METAR
MNMG 180000Z 10006KT 9999 FEW023 SCT070 29/20 Q1012 A2990
     NOSIG=


633 
SPCN31 KWBC 180008
SPECI
CYDQ 180007Z AUTO 30006KT 4SM -SN SCT016 BKN033 M13/M16 A3066 RMK
SLP443=


634 
SACN93 KWBC 180008
CWMZ RMK NIL=
CWNE RMK NIL=
CWNK RMK NIL=
CWNM RMK NIL=
CWNP RMK NIL=
CWNQ RMK NIL=
CWNX RMK NIL=
CWOC RMK NIL=
METAR CWOD 180000Z AUTO 13009KT M06/M09 RMK AO1 SOG 20 8005 SLP112
T10611091=
METAR CWOE 180000Z AUTO 32012KT M12/M14 RMK AO1 SLP301 T11201142
53008=
CWOQ RMK NIL=
CWPD RMK NIL=
CWPE RMK NIL=
METAR CWPF 180000Z AUTO 03004KT 07/01 RMK AO1 SLP315 T00680005
55002=
CWPR RMK NIL=
CWPZ RMK NIL=
CWQA RMK NIL=


635 
SACN95 KWBC 180008
CWTA RMK NIL=
CWTG RMK NIL=
CWTN RMK NIL=
CWTT RMK NIL=
CWTY RMK NIL=
CWUS RMK NIL=
CWUX RMK NIL=
CWVF RMK NIL=
CWVI RMK NIL=
METAR CWVN 180000Z AUTO 34012KT M12/M15 RMK AO1 SOG 07 3013 PK WND
34019/2304 SLP288 T11201154=
CWVP RMK NIL=
CWVQ RMK NIL=
CWVU RMK NIL=
CWVZ RMK NIL=
CWWA RMK NIL=
CWWF RMK NIL=
CWWK RMK NIL=
CWXA RMK NIL=
CWXC RMK NIL=
CWVQ RMK NIL=
CWVU RMK NIL=
CWVZ RMK NIL=
CWWA RMK NIL=
CWWF RMK NIL=
CWWK RMK NIL=
CWXA RMK NIL=
CWXC RMK NIL=


636 
SACN82 KWBC 180008
CMBR RMK NIL=
CMCT RMK NIL=
CMCW RMK NIL=
CMFM RMK NIL=
CMGB RMK NIL=
CMHB RMK NIL=
CMHN RMK NIL=
CMHW RMK NIL=
CMLA RMK NIL=
CMLI RMK NIL=
CMPD RMK NIL=
CMPL RMK NIL=
CMRI RMK NIL=
CMRU RMK NIL=
CMRY RMK NIL=
CMSB RMK NIL=
CMSC RMK NIL=
CMSX RMK NIL=
CMWD RMK NIL=
CMYT RMK NIL=
CMBR RMK NIL=
CMCT RMK NIL=
CMCW RMK NIL=
CMFM RMK NIL=
CMGB RMK NIL=
CMHB RMK NIL=
CMHN RMK NIL=
CMHW RMK NIL=
CMLA RMK NIL=
CMLI RMK NIL=
CMPD RMK NIL=
CMPL RMK NIL=
CMRI RMK NIL=
CMRU RMK NIL=
CMRY RMK NIL=
CMSB RMK NIL=
CMSC RMK NIL=
CMSX RMK NIL=
CMWD RMK NIL=
CMYT RMK NIL=
CMBR RMK NIL=
CMCT RMK NIL=
CMCW RMK NIL=
CMFM RMK NIL=
CMGB RMK NIL=
CMHB RMK NIL=
CMHN RMK NIL=
CMHW RMK NIL=
CMLA RMK NIL=
CMLI RMK NIL=
CMPD RMK NIL=
CMPL RMK NIL=
CMRI RMK NIL=
CMRU RMK NIL=
CMRY RMK NIL=
CMSB RMK NIL=
CMSC RMK NIL=
CMSX RMK NIL=
CMWD RMK NIL=
CMYT RMK NIL=
CMLA RMK NIL=
CMLI RMK NIL=
CMPD RMK NIL=
CMPL RMK NIL=
CMRI RMK NIL=
CMRU RMK NIL=
CMRY RMK NIL=
CMSB RMK NIL=
CMSC RMK NIL=
CMSX RMK NIL=
CMWD RMK NIL=
CMYT RMK NIL=
CMLA RMK NIL=
CMLI RMK NIL=
CMPD RMK NIL=
CMPL RMK NIL=
CMRI RMK NIL=
CMRU RMK NIL=
CMRY RMK NIL=
CMSB RMK NIL=
CMSC RMK NIL=
CMSX RMK NIL=
CMWD RMK NIL=
CMYT RMK NIL=
CMLA RMK NIL=
CMLI RMK NIL=
CMPD RMK NIL=
CMPL RMK NIL=
CMRI RMK NIL=
CMRU RMK NIL=
CMRY RMK NIL=
CMSB RMK NIL=
CMSC RMK NIL=
CMSX RMK NIL=
CMWD RMK NIL=
CMYT RMK NIL=
CMLA RMK NIL=
CMLI RMK NIL=
CMPD RMK NIL=
CMPL RMK NIL=
CMRI RMK NIL=
CMRU RMK NIL=
CMRY RMK NIL=
CMSB RMK NIL=
CMSC RMK NIL=
CMSX RMK NIL=
CMWD RMK NIL=
CMYT RMK NIL=
CMLA RMK NIL=
CMLI RMK NIL=
CMPD RMK NIL=
CMPL RMK NIL=
CMRI RMK NIL=
CMRU RMK NIL=
CMRY RMK NIL=
CMSB RMK NIL=
CMSC RMK NIL=
CMSX RMK NIL=
CMWD RMK NIL=
CMYT RMK NIL=
CMRI RMK NIL=
CMRU RMK NIL=
CMRY RMK NIL=
CMSB RMK NIL=
CMSC RMK NIL=
CMSX RMK NIL=
CMWD RMK NIL=
CMYT RMK NIL=
CMRI RMK NIL=
CMRU RMK NIL=
CMRY RMK NIL=
CMSB RMK NIL=
CMSC RMK NIL=
CMSX RMK NIL=
CMWD RMK NIL=
CMYT RMK NIL=


637 
SACN88 KWBC 180008
CWBK RMK NIL=
METAR CAHR 180000Z AUTO 24004KT M10/M14 RMK AO1 SOG 190 3022
SLP176 T10981136=
CERM RMK NIL=
CWAR RMK NIL=
CWBK RMK NIL=
CWDA RMK NIL=
CWXI RMK NIL=
CWZN RMK NIL=
CXNP RMK NIL=
CZCR RMK NIL=
CZDB RMK NIL=
CZSP RMK NIL=
METAR CAHR 180000Z AUTO 24004KT M10/M14 RMK AO1 SOG 190 3022
SLP176 T10981136=
CERM RMK NIL=
CWAR RMK NIL=
CWBK RMK NIL=
CWDA RMK NIL=
CWXI RMK NIL=
CWZN RMK NIL=
CXNP RMK NIL=
CZCR RMK NIL=
CZDB RMK NIL=
CZSP RMK NIL=
METAR CAHR 180000Z AUTO 24004KT M10/M14 RMK AO1 SOG 190 3022
SLP176 T10981136=
CERM RMK NIL=
CWAR RMK NIL=
CWBK RMK NIL=
CWDA RMK NIL=
CWXI RMK NIL=
CWZN RMK NIL=
CXNP RMK NIL=
CZCR RMK NIL=
CZDB RMK NIL=
CZSP RMK NIL=
METAR CAHR 180000Z AUTO 24004KT M10/M14 RMK AO1 SOG 190 3022
SLP176 T10981136=
CERM RMK NIL=
CWAR RMK NIL=
CWBK RMK NIL=
CWDA RMK NIL=
CWXI RMK NIL=
CWZN RMK NIL=
CXNP RMK NIL=
CZCR RMK NIL=
CZDB RMK NIL=
CZSP RMK NIL=


638 
SAAW32 KWBC 180000 RRA
METAR
OIMM 180000Z 13004KT 3000 BR BKN020 01/00 Q1022 A3012=


639 
SPUS70 KWBC 180008
SPECI
KBBW 180004Z AUTO 34022G32KT 10SM BKN027 BKN032 OVC090 M01/M07
     A2986 RMK AO2 PK WND 34032/0001 T10061067=
KCTB 180004Z AUTO 34007KT 10SM FEW021 M11/M14 A3024 RMK AO2
     T11111144=
PFSH 180005Z AUTO 13024G29KT 1 1/2SM -SN BR SCT015 BKN022 OVC028
     M03/M04 A2968 RMK AO2 PK WND 13029/2359 P0000 FZRANO TSNO=
KSJT 172358Z 26021G31KT 3SM BLDU CLR 19/M04 A2974 RMK AO2 PK WND
     26030/2353 T01941039=
PAMD 180006Z AUTO 13020G25KT 10SM BKN011 BKN023 OVC027 04/03 A3036
     RMK AO2 CIG 008V014=
KGFK 180005Z 33023G32KT 5SM -SN BLSN BKN027 OVC034 M09/M15 A2999
     RMK AO2 PK WND 33032/0004 SNB02 P0000 T10941150=
KPUW 180005Z AUTO 28006KT 10SM SCT029 M01/M05 A3028 RMK AO2
     T10111050=


640 
SAUS70 KWBC 180000 RRX
METAR
KOAR 172355Z AUTO 29006KT 10SM BKN019 10/06 A3021 RMK AO2=
K1D1 180000Z AUTO 34025G36KT 5SM UP HZ BKN016 OVC021 M08/M12 A2988
     RMK AO2=
K1D8 172355Z AUTO 36020G26KT 10SM OVC032 M06/M11 A3000 RMK AO2=
K2G2 172355Z AUTO 18006KT 10SM CLR 02/M05 A2989 RMK A01=
K33N 172355Z AUTO 00000KT 10SM M00/M06 A3014 RMK A01=
KBFA 172355Z AUTO 19010G16KT 10SM OVC075 05/M03 A2942 RMK AO2=
KBTN 172355Z AUTO 34016G21KT 10SM BKN020 M10/M14 A2995 RMK AO2=
KHLB 172355Z AUTO 17010KT 10SM CLR 04/00 A2978 RMK A01=
KI40 172355Z AUTO 15004KT 10SM CLR 02/M05 A2989 RMK AO2=
KJVY 172355Z 14005KT 10SM CLR 07/M00 A2979 RMK AO2 RW18/36 PLWD
     80FT WD..3FT BERNS EDGES.. RW14/32 CLSD A1 A5 A7 EXITS
     USABLE=
KPCW 172355Z AUTO 19016KT 10SM CLR 02/M04 A2975 RMK AO2=
KUSE 172355Z AUTO 18013KT 10SM CLR 01/M00 A2970 RMK AO2=
KCXP 172355Z AUTO 30008G13KT 10SM CLR 13/M08 A3012 RMK AO2=
KEKS 172355Z AUTO 02011KT 10SM FEW044 SCT050 SCT080 M11/M17 A3012
     RMK AO2=
KFOT 172350Z AUTO 29006KT 10SM OVC013 07/07 A3022 RMK AO1=
KGOO 172355Z AUTO 00000KT 10SM CLR 11/M04 A3017 RMK A01=
KLLJ 172355Z AUTO 36011KT 10SM BKN065 M04/M15 A3005 RMK AO2 SLP227
     T10391150 10006 21044 53013=
KM75 172355Z AUTO 35013KT 10SM OVC030 M09/M13 A3027 RMK A01=
KMVH 172355Z AUTO 30018G25KT 10SM BKN055 OVC065 M12/M17 A3013 RMK
     AO2=
KO69 172355Z AUTO VRB03KT 10SM FEW020 09/07 A3022 RMK A01=
KP33 172356Z AUTO 29012KT 10SM CLR 12/M08 A3007 RMK AO2=
KPO1 172355Z AUTO 34013KT 3SM -SN HZ FEW013 SCT018 BKN023 M11/M14
     A3024 RMK AO2 TSNO=
K05U 172350Z AUTO 29012G20KT 10SM CLR 05/M07 A3006 RMK A01=
K3S8 172355Z AUTO 22003KT 10SM CLR 07/03 A3031 RMK AO2=
K46U 172355Z AUTO 32011KT 10SM FEW041 SCT065 BKN080 M05/M08 A2996
     RMK A01=
K5T9 172355Z AUTO 08006KT 10SM CLR 19/08 A2978 RMK A01=
K65S 172355Z AUTO 00000KT 10SM OVC055 M01/M06 A3025 RMK AO2=
KC83 172355Z AUTO 23006KT 10SM CLR 16/06 A3018 RMK AO2=
KLLJ 172355Z AUTO 36011KT 10SM BKN065 M04/M15 A3005 RMK AO2 SLP227
     T10391150 10006 21044 53013=
KRTS 172355Z AUTO 30011G17KT 10SM CLR 10/M11 A3013 RMK AO2=
KT89 172355Z AUTO 27009KT 10SM CLR 22/M05 A2984 RMK A01=
KVCV 180000Z AUTO 25015G21KT 10SM CLR 15/M06 A3010 RMK AO2=
KLOM 172350Z AUTO 00000KT 10SM CLR M03/M05 A3012 RMK AO2 T10261052
     10053 21029 400531127=
KBDN 172355Z AUTO VRB03KT 10SM CLR 04/M08 A3026 RMK AO2=
KFTN 172355Z AUTO 18004KT 10SM CLR 20/08 A2981 RMK A01=
KJTC 172355Z AUTO 25013KT 10SM CLR 04/M07 A3003 RMK AO2=
TJPS 172355Z AUTO 10005KT 10SM 28/22 A3007 RMK AO2 PWINO=
KWHP 180000Z 00000KT 10SM SKC 15/05 A3015=


641 
SAUS80 KWBC 180000 RRF
METAR
KBUF 172354Z COR 18012KT 10SM BKN130 OVC170 02/M04 A2985 RMK AO2
     SLP116 4/004 60000 T00171044 10017 20006 58016=
KD07 172356Z AUTO 35018G26KT M08/M11 A3003 RMK AO1 PK WND
     01037/2301 PRESRR SLP207 T10781111 11028 21078 53037=
KGNR 172356Z AUTO 20003KT M08/M12 A2994 RMK AO1 SLP167 T10781122
     11033 21078 53015=
KN60 172354Z AUTO 33020G29KT M13/M17 A3010 RMK AO1 PK WND
     33030/2341 SLP226 T11281167 11078 21128 51031=
KP53 172356Z AUTO 19009KT 02/M03 A2934 RMK AO1 SLP944 T00221028
     10033 20022 53015 $=
KALK 172356Z AUTO 27011KT 10SM CLR 12/M07 A3010 RMK AO2 SLP143
     T01171067 10128 20117 53003 $=
KMHS 172356Z AUTO 00000KT 10SM CLR 10/01 A3016 RMK AO2 SLP239
     T01000006 10111 20039 55003 PNO=
KO54 172355Z AUTO 00000KT 10SM CLR 12/02 A3017 RMK A01=
KHTH 172355Z AUTO 30008KT 10SM CLR 12/M10 A3010 RMK A01=
KO86 172355Z AUTO 00000KT 10SM CLR 11/01 A3016 RMK A01=
KS39 172355Z AUTO 34005KT 10SM CLR 03/M07 A3028 RMK AO2=
KGNG 172355Z AUTO 28025G32KT 10SM CLR 01/M10 A3008 RMK AO2=
KSVE 172355Z AUTO 22008KT 10SM CLR 13/M05 A3014 RMK A01 P000=


642 
SACN63 KWBC 180008
CWMT RMK NIL=
CZEV RMK NIL=
CZFS RMK NIL=
CZHY RMK NIL=
CZSM RMK NIL=
CZSM RMK NIL=


643 
SACN59 KWBC 180008
CPBT RMK NIL=
CPEH RMK NIL=
CPFI RMK NIL=
CPIR RMK NIL=
CPRO RMK NIL=
CPRY RMK NIL=
CPST RMK NIL=
CPSV RMK NIL=
CPXL RMK NIL=
CXAK RMK NIL=
CXDB RMK NIL=
CXFM RMK NIL=
CXHD RMK NIL=
CXHP RMK NIL=
CXMG RMK NIL=
CXMO RMK NIL=
CXOL RMK NIL=
CXPL RMK NIL=
CXSC RMK NIL=
CXSL RMK NIL=
CXSP RMK NIL=
CXTH RMK NIL=
CXVM RMK NIL=
CXVW RMK NIL=
CZMU RMK NIL=
CZOL RMK NIL=
CZPS RMK NIL=


644 
SAXX60 KWBC 180000 RRG
METAR
KNTU 172356Z 16005KT 10SM FEW250 02/M03 A3019 RMK AO2 SLP225
     T00171033 10078 20017 51009=
MUGM 172351Z 05009KT 10SM FEW030 FEW060 27/22 A3006 RMK AO2 SLP178
     T02670222 10300 20267 53012 $=
TTPP 180000Z 11003KT 9999 FEW017 26/22 Q1015 NOSIG=
KNRB 172352Z AUTO 15003KT 10SM CLR 13/08 A3011 RMK AO2 SLP196
     T01280078 10161 20122 55000=
KMCC 172355Z AUTO 16007KT 10SM CLR 15/04 A3017 RMK AO2 PWINO=
KNLC 172356Z 03004KT 9SM CLR 18/01 A3016 RMK AO2 SLP215 RH/30
     T01830011 10189 20100 56013=
KCOF 172355Z AUTO 04007KT 10SM BKN038 M M RMK AO2 SLPNO RVRNO TSNO
     $=
KMCC 172355Z AUTO 16007KT 10SM CLR 15/04 A3017 RMK AO2 PWINO=
KNGP 172356Z 18014G23KT 10SM FEW028 BKN140 OVC250 18/16 A2982 RMK
     AO2 SLP096 T01780156 56019=
KNLC 172356Z 03004KT 9SM CLR 18/01 A3016 RMK AO2 SLP215 RH/30
     T01830011 10189 20100 56013=
KNPA 172356Z 15009KT 10SM BKN060 BKN150 BKN250 16/09 A3002 RMK AO2
     SLP167 T01560094 10183 20156 58004 $=
KNTU 172356Z 16005KT 10SM FEW250 02/M03 A3019 RMK AO2 SLP225
     T00171033 10078 20017 51009=
KNUQ 172355Z AUTO 34009KT 9SM CLR 12/08 A3021 RMK AO2=
KWRB 172355Z AUTO 00000KT 10SM CLR 12/M02 A3006 RMK AO2 SLP183
     T01211018 10176 20121 53006 $=


645 
SACN91 KWBC 180008
CWGR RMK NIL=
CWGT RMK NIL=
CWGW RMK NIL=
CWGY RMK NIL=
CWHD RMK NIL=
CWHI RMK NIL=
METAR CWHL 180000Z AUTO 33008KT 04/M00 RMK AO1 SLP358 T00401003
53003=
CWHQ RMK NIL=
CWHT RMK NIL=
CWHV RMK NIL=
CWID RMK NIL=
CWIG RMK NIL=
CWII RMK NIL=
METAR CWIJ 180000Z AUTO 29007KT M28/M31 RMK AO1 SOG 54 3002 PK WND
30025/2302 SLP398 T12781306=
CWIN RMK NIL=
CWIO RMK NIL=
CWIP RMK NIL=
CWIS RMK NIL=
CWIT RMK NIL=
CWIW RMK NIL=
CWIX RMK NIL=
CWIZ RMK NIL=
CWJB RMK NIL=
METAR CWJC 180000Z AUTO 35028KT M35/M38 RMK AO1 PK WND 33034/2317
SLP294 T13511384 51029=
CWJH RMK NIL=


646 
SACN97 KWBC 180008
CXBK RMK NIL=
CXBK RMK NIL=
CXBK RMK NIL=
CXKT RMK NIL=
CXKT RMK NIL=
CXKT RMK NIL=
CXAT RMK NIL=
CXBK RMK NIL=
CXBO RMK NIL=
CXCA RMK NIL=
CXCH RMK NIL=
METAR CXCK 180000Z AUTO 28002KT M18/M20 RMK AO1 SOG 36 8008 SLP385
T11811203=
CXDE RMK NIL=
CXDI RMK NIL=
CXDW RMK NIL=
CXEA RMK NIL=
CXEC RMK NIL=
CXEG RMK NIL=
METAR CXET 180000Z AUTO 18014G21KT 01/M04 RMK AO1 SOG 16 6028 PK
WND 20021/2355 SLP072 T00071043=
CXGH RMK NIL=
CXHA RMK NIL=
CXHF RMK NIL=
CXIB RMK NIL=
CXLC RMK NIL=
CXLL RMK NIL=
CXMD RMK NIL=
CXMI RMK NIL=
CXMM RMK NIL=
CXMY RMK NIL=
CXNM RMK NIL=
CXOX RMK NIL=
CXQT RMK NIL=
CXRH RMK NIL=
CXSH RMK NIL=
CXSR RMK NIL=
CXTN RMK NIL=
CXTP RMK NIL=
CXTV RMK NIL=
CXWN RMK NIL=
CXKT RMK NIL=


647 
SACN66 KWBC 180008
CWBU RMK NIL=
CWIK RMK NIL=
CWBU RMK NIL=
CWIK RMK NIL=
CWBU RMK NIL=
CWIK RMK NIL=


648 
SACN98 KWBC 180008
CXAF RMK NIL=
CXAG RMK NIL=
CXAJ RMK NIL=
CXBA RMK NIL=
CXBR RMK NIL=
CXBW RMK NIL=
CXCD RMK NIL=
CXCP RMK NIL=
CXCS RMK NIL=
CXDK RMK NIL=
CXDP RMK NIL=
CXFR RMK NIL=
CXHR RMK NIL=
CXKI RMK NIL=
CXKM RMK NIL=
CXLB RMK NIL=
CXOY RMK NIL=
CXPA RMK NIL=
CXPC RMK NIL=
CXRB RMK NIL=
CXRL RMK NIL=
METAR CXSE 180000Z AUTO 31017KT M30/M33 RMK AO1 SOG 15 0012 PK WND
32027/2309 SLP316 T12961331=
CXTD RMK NIL=
CXTO RMK NIL=
CXVN RMK NIL=
CXWB RMK NIL=
CXWM RMK NIL=
CXYH RMK NIL=
METAR CXZV 180000Z AUTO 36002KT M15/M16 RMK AO1 SOG 21 1015 SLP153
T11451163=
CZKD RMK NIL=
CZLW RMK NIL=
CZMJ RMK NIL=
CZQZ RMK NIL=
CZRP RMK NIL=
CZTB RMK NIL=
CZZJ RMK NIL=
CZZP RMK NIL=


649 
SACN96 KWBC 180008
CWXL RMK NIL=
CWYJ RMK NIL=
METAR CWYL 180000Z AUTO 00000KT M12/M14 RMK AO1 SOG 59 3001 SLP290
T11211139=
CWYY RMK NIL=
CWZA RMK NIL=
CWZL RMK NIL=
CWZO RMK NIL=
CWZQ RMK NIL=
CWZS RMK NIL=
CWZV RMK NIL=
CXHM RMK NIL=
CXKA RMK NIL=
METAR CXKE 180000Z AUTO 18004KT M01/M04 RMK AO1 SOG 04 7012 SLP126
T10051043=


650 
SAUY10 SABM 180000
NIL


651 
SACH11 SABM 180000
NIL


652 
SABO10 SABM 180000
NIL


653 
SABO11 SABM 180000
NIL


654 
SAXX62 KWBC 180000 RRA
METAR
RKJK 172355Z AUTO 11003KT 3SM BR CLR M03/M05 A3028 RMK AO2 SLPNO
     T10281050 11026 21059 53001 $=


655 
SAXX61 KWBC 180000 RRA
METAR
LICZ 172355Z /////KT 9999 SCT030 BKN100 12/12 Q1019=


656 
SAVN42 KWBC 180000 RRA
METAR
SVPR 180003Z AUTO NIL=
SVSA 180003Z AUTO 31001KT NCD 26/20 Q1013=
SVSR 180003Z AUTO NIL=
SVVA 180003Z AUTO 34005KT NCD 26/18 Q1014=
SVVL 180003Z AUTO NIL=


657 
SATS31 KWBC 180000 RRA
METAR
DTMB 180000Z 17016KT 9999 FEW033 11/05 Q1014=
DTTA 180000Z 11005KT 070V180 9999 SCT023 10/06 Q1012=
DTTB 180000Z 07005KT 040V100 9999 SCT020 08/06 Q1011=
DTTD 180000Z AUTO 21006KT 170V260 NCD 09/02 Q1020=
DTTJ 180000Z 18013KT CAVOK 10/06 Q1018=
DTTK 180000Z /////KT 9999 BKN023 SCT030 10/05 Q1013=
DTTL 180000Z AUTO 15008KT 050V220 NCD 13/07 Q1014=
DTTN 180000Z 33002KT 6000 SCT020 SCT030 07/05 Q1010=
DTTR 180000Z NIL=


658 
SASA31 KWBC 180000 RRA
METAR
SVBC 180003Z AUTO 02005KT NCD 29/22 Q1013=
SVMC 180003Z AUTO 04009KT NCD 27/23 Q1013=
SVMG 180003Z AUTO NIL=
SVMI 180003Z AUTO 08006KT NCD 26/21 Q1015=


060 
SAXX70 KAWN 180000 RRC
METAR KQD3 172355Z AUTO VRB03KT 9999 CLR 21/15 A3001 RMK AO2 SLP147
      WND DATA ESTMD T02080153 10242 20208 57010=
METAR KQEP 180010Z AUTO 04001KT 4800 CLR M06/M08 A3036 RMK A02 TSNO=
METAR KQEQ 180010Z AUTO 00000KT 6000 HZ CLR M07/M10 A3038 RMK A02 TSNO=
METAR KQEW 180010Z AUTO 02002KT 9999 // CLR M03/M09 A3031 RMK A02 TSNO=
METAR KQFU 180010Z AUTO 15001KT 6000 HZ CLR M07/M10 A3036 RMK A02 TSNO=
METAR KQFV 180010Z AUTO 09001KT 6000 HZ CLR M11/M14 A3032 RMK A02 TSNO=
METAR KQFX 180010Z AUTO 08001KT 1200 BR BKN001 M08/M09 A3033 RMK A02
      TSNO=


076 
SPUS17 KAWN 180008
SPECI KBLV 180001Z AUTO 18012KT 10SM -RA FEW065 FEW080 OVC100 09/M02
      A2965 RMK AO2 RAB01 SLP047=


221 
SAMS38 WMKK 180000
METAR WBGB 180000Z 00000KT 9999 FEW008 25/25 Q1008=
METAR WBGR 180000Z 12007KT 9999 SCT016 27/25 Q1008=
METAR WBGS 180000Z VRB02KT 9999 FEW006 SCT016 25/25 Q1008=
METAR WBKL 180000Z VRB03KT 9999 FEW016 28/24 Q1008=
METAR WBKS 180000Z 05005KT 9999 FEW016 28/26 Q1010=
METAR WBKW 180000Z VRB02KT 9999 FEW017 27/25 Q1009=
METAR WMKD 180000Z 34003KT 310V040 6000 -RA FEW007 SCT024 23/23 Q1010
NOSIG=
METAR WMKL 180000Z 06006KT 340V110 9999 FEW020 27/20 Q1010=
METAR WMKM 180000Z 06003KT 020V080 9999 FEW027 25/23 Q1010=
METAR WMKJ 180000Z VRB01KT 7000 -RA FEW008 SCT020 25/24 Q1009=


237 
SAMS31 WMKK 180000
METAR WBGG 180000Z 25003KT 210V320 9999 FEW006 FEW015CB 25/24 Q1009 NOSIG=
METAR WBKK 180000Z 10003KT 060V140 9999 FEW014 26/23 Q1008 NOSIG=
METAR WBSB 180000Z 19002KT 9999 FEW014 FEW015CB BKN300 27/25 Q1009 NOSIG=
METAR WMKK 180000Z VRB01KT 9999 FEW030 25/23 Q1010 NOSIG=
METAR WMKP 180000Z 04010G22KT 010V070 9000 FEW020 27/19 Q1009 NOSIG=
METAR WSSL 180000Z 36004KT 330V050 9999 FEW016 BKN160 25/24 Q1009=
METAR WSSS 180000Z 33008KT 7000 FEW015 BKN150 25/24 Q1009 NOSIG=
METAR WSAP 180000Z 34005KT 9999
FEW016 BKN150
26/23 Q1010=


269 
SAMS34 WMKK 180000
METAR WBGB 180000Z 00000KT 9999 FEW008 25/25 Q1008=
METAR WBGR 180000Z 12007KT 9999 SCT016 27/25 Q1008=
METAR WBGS 180000Z VRB02KT 9999 FEW006 SCT016 25/25 Q1008=
METAR WBGY 180000Z 00000KT 6000 FEW001 25/25 Q1009=
METAR WBKL 180000Z VRB03KT 9999 FEW016 28/24 Q1008=
METAR WBKS 180000Z 05005KT 9999 FEW016 28/26 Q1010=
METAR WBKT 180000Z VRB04KT 9999 FEW014 28/27 Q1009=
METAR WBKW 180000Z VRB02KT 9999 FEW017 27/25 Q1009=


285 
SAMS33 WMKK 180000
METAR WMAU 180000Z VRB13KT 7000 -RA FEW002 SCT025 26/24 Q1009=
METAR WMBA 180000Z VRB02KT 9999 FEW017CB 24/22 Q1009=
METAR WMKA 180000Z VRB04KT 9999 FEW030 25/21 Q1010=
METAR WMKB 180000Z 01004KT 340V040 9000 FEW020 SCT024 25/20 Q1009 NOSIG=
METAR WMKC 180000Z 07010KT 9999 FEW012 26/22 Q1011=
METAR WMKD 180000Z 34003KT 310V040 6000 -RA FEW007 SCT024 23/23 Q1010 NOSIG=
METAR WMKE 180000Z VRB09KT 8000 -RA FEW008 SCT020 26/22 Q1010=
METAR WMKI 180000Z 03008KT 360V070 9999 FEW027 25/22 Q1010=
METAR WMKL 180000Z 06006KT 340V110 9999 FEW020 27/20 Q1010=
METAR WMKM 180000Z 06003KT 020V080 9999 FEW027 25/23 Q1010=
METAR WMKN 180000Z 04010KT 360V070 9999 SCT020 26/23 Q1011=


301 
SAMS32 WMKK 180000
METAR WBGG 180000Z 25003KT 210V320 9999 FEW006 FEW015CB 25/24 Q1009 NOSIG=
METAR WBKK 180000Z 10003KT 060V140 9999 FEW014 26/23 Q1008 NOSIG=
METAR WMKJ 180000Z VRB01KT 7000 -RA FEW008 SCT020 25/24 Q1009=
METAR WMKK 180000Z VRB01KT 9999 FEW030 25/23 Q1010 NOSIG=
METAR WMKP 180000Z 04010G22KT 010V070 9000 FEW020 27/19 Q1009 NOSIG=
METAR WMSA 180000Z VRB01KT 9999 FEW017CB 25/24 Q1010=


317 
SAMS38 WMKK 180000
METAR WBGB 180000Z 00000KT 9999 FEW008 25/25 Q1008=
METAR WBGR 180000Z 12007KT 9999 SCT016 27/25 Q1008=
METAR WBGS 180000Z VRB02KT 9999 FEW006 SCT016 25/25 Q1008=
METAR WBKL 180000Z VRB03KT 9999 FEW016 28/24 Q1008=
METAR WBKS 180000Z 05005KT 9999 FEW016 28/26 Q1010=
METAR WBKW 180000Z VRB02KT 9999 FEW017 27/25 Q1009=
METAR WMKD 180000Z 34003KT 310V040 6000 -RA FEW007 SCT024 23/23 
Q1010
NOSIG=
METAR WMKL 180000Z 06006KT 340V110 9999 FEW020 27/20 Q1010=
METAR WMKM 180000Z 06003KT 020V080 9999 FEW027 25/23 Q1010=
METAR WMKJ 180000Z VRB01KT 7000 -RA FEW008 SCT020 25/24 Q1009=


333 
SAMS31 WMKK 180000
METAR WBGG 180000Z 25003KT 210V320 9999 FEW006 FEW015CB 25/24 Q1009
NOSIG=
METAR WBKK 180000Z 10003KT 060V140 9999 FEW014 26/23 Q1008 NOSIG=
METAR WBSB 180000Z 19002KT 9999 FEW014 FEW015CB BKN300 27/25 Q1009 
NOSIG=
METAR WMKK 180000Z VRB01KT 9999 FEW030 25/23 Q1010 NOSIG=
METAR WMKP 180000Z 04010G22KT 010V070 9000 FEW020 27/19 Q1009 NOSIG=
METAR WSSL 180000Z 36004KT 330V050 9999 FEW016 BKN160 25/24 Q1009=
METAR WSSS 180000Z 33008KT 7000 FEW015 BKN150 25/24 Q1009 NOSIG=
METAR WSAP 180000Z 34005KT 9999
FEW016 BKN150
26/23 Q1010=


349 
SAAG05 SABM 180000
METAR SAAR 180000Z 17012KT CAVOK 28/20 Q1010=
METAR SABE 180000Z 13016KT CAVOK 26/18 Q1013 NOSIG=
METAR SACO 180000Z 12004KT 9999 SCT045 25/18 Q1013 NOSIG=
METAR SADF 180000Z 13013KT CAVOK 28/18 Q1012=
METAR COR SADP 180000Z 14012KT CAVOK 26/18 Q1012=
METAR SAEZ 180000Z 12012KT 9999 FEW039 SCT200 26/18 Q1013 NOSIG=
METAR SAME 180000Z  09005KT 9999  FEW040 FEW045CB
30/13 Q1010=
METAR SANT 180000Z 25003KT 220V290 8000 SCT110 29/19 Q1008=
METAR SARC 180000Z 14007KT 7000 NSC 33/17 Q1006=
METAR SARE 180000Z 10005KT CAVOK 33/15 Q1006=
METAR SARF 180000Z NIL=
METAR SARI 180000Z 17003KT 140V210 CAVOK 26/22 Q1009=
METAR SARL 180000Z 14007KT 7000 NSC 32/18 Q1008=
METAR SARP 180000Z 05003KT CAVOK 29/23 Q1008=
METAR SASA 180000Z 25003KT 9999 SCT045 23/17 Q1015=
METAR SASJ 180000Z 32006KT 9999 FEW100 SCT190 28/14 Q1013=
METAR SAVC 180000Z 30006KT CAVOK 24/M01 Q1014=
METAR SAVT 180000Z 06011KT CAVOK 23/07 Q1014=
METAR SAWC 180000Z 24020KT 9999 FEW040 17/03 Q1011=
METAR SAWE 180000Z 27022KT 9999 FEW045 13/02 Q1001=
METAR SAWG 180000Z 23022KT 9999 FEW035 SCT200 17/04 Q1008=
METAR SAWH 180000Z 24026G36KT 9999 SCT040 10/03 Q0997=
METAR SAZM 180000Z 14008KT CAVOK 19/14 Q1017=
METAR SAZN 180000Z 00000KT CAVOK 28/09 Q1012=
METAR SAZS 180000Z 29017KT CAVOK 15/04 Q1019=


477 
SASV01 FDMS 180000
NIL

493 
SABC40 FBSK 180000 RRA
METAR FBPM 180000Z 11007KT 9999 BKN015 SCT065 18/18 Q1019=

509 
SAIN90 VEGT 180000
METAR VEGT 180000Z 13002KT 2000 BR FEW018 SCT100 15/15 Q1015 NOSIG=

525 
SAHO31 MHTG 180000
METAR MHTR 180000Z 00000KT 9999 FEW025 25/23=
METAR MHPL 180000Z 05010KT 9999 FEW018 27/23=
METAR MHNO 180000Z 35004KT 9999 FEW040 25/16=
METAR MHLE 180000Z 02004KT CAVOK 17/11=
METAR MHCH 180000Z 01007KT 9999 FEW034 32/19=


925 
SAMF20 TFFJ 180000
METAR TFFJ 180000Z AUTO 06017KT 9999 FEW025 26/22 Q1018=


045 
SAMS32 WMKK 180000
METAR WBGG 180000Z 25003KT 210V320 9999 FEW006 FEW015CB 25/24 Q1009
NOSIG=
METAR WBKK 180000Z 10003KT 060V140 9999 FEW014 26/23 Q1008 NOSIG=
METAR WMKJ 180000Z VRB01KT 7000 -RA FEW008 SCT020 25/24 Q1009=
METAR WMKK 180000Z VRB01KT 9999 FEW030 25/23 Q1010 NOSIG=
METAR WMKP 180000Z 04010G22KT 010V070 9000 FEW020 27/19 Q1009 NOSIG=
METAR WMSA 180000Z VRB01KT 9999 FEW017CB 25/24 Q1010=



046 
SACA31 TNCC 180000
METAR TNCC 180000Z 06007KT 9999 SCT016 26/25 Q1015 NOSIG=


049 
SPZA46 FACT 180000
SPECI FACT 180001Z 21011KT 9999 FEW016 19/17 Q1012=


084 
SPAK40 KNKA 180008
SPECI PARY 180007Z AUTO 08020G26KT 1/2SM -SN FZFG OVC009 M13/M16 
    A3001 RMK AO2 PK WND 08026/0002 CIG 004V013 P0000 FZRANO TSNO=
SPECI PFCL 180007Z AUTO 13023G28KT 10SM BKN007 04/04 A2970 RMK AO2 
    PK WND 13028/0007=


085 
SAHW30 KMSC 180008
METAR PHMK 172354Z COR 03008KT 10SM SCT022 BKN039 24/18 A2994 RMK 
    AO2 SLP142 60000 T02440178 10256 20211 56020=


114 
SAIN32 VOMM 180000
METAR VOMM 180000Z 03005KT 3500 BR FEW020 SCT100 24/20 Q1011 NOSIG=

115 
SAIN31 VOMM 180000
METAR VOMM 180000Z 03005KT 3500 BR FEW020 SCT100 24/20 Q1011 NOSIG=
METAR VOTR 180000Z 01008KT 2500 BR FEW016 24/22 Q1011 NOSIG=

116 
SAIN33 VOMM 180000
METAR VOMM 180000Z 03005KT 3500 BR FEW020 SCT100 24/20 Q1011 NOSIG=

131 
SACS31 MROC 180000
METAR
MRLM 180000Z 20002KT 9999 VCSH FEW015TCU BKN100 25/23 A2994=


193 
SAIY43 LIIB 180000
METAR LIBA 172355Z 29008KT 9999 OVC050 08/06 Q1028 RMK OVC VIS MIN
      9999 WIND THR11 29008KT WIND THR29/////KT BLU=
METAR LIBC 180000Z NIL=
METAR LIBD 172350Z 26004KT CAVOK 08/07 Q1028=
METAR LIBG 180000Z NIL=
METAR LIBN 172355Z 30002KT CAVOK 09/08 Q1026 RMK SCT SCT090 VIS MIN
      9999 WIND THR14 30002KT WIND THR32 31001KT BLU=
METAR LIBP 172350Z AUTO 22005KT 9999 FEW072/// OVC098/// 07/05
Q1031=
METAR LIBQ 172355Z AUTO /////KT //// ///// Q////=
METAR LIBR 172350Z 08003KT 060V130 CAVOK 12/09 Q1027=
METAR LIBV 172355Z 35006KT 7000 NSC 07/06 Q1027 RMK BKN SCT130 BKN190
      VIS MIN 7000 WIND THR32 01007KT WIND THR14 34006KT WHT=
METAR LICA 172350Z AUTO 07028G39KT 4200 -RA BR OVC032/// 13/10
Q1019=
METAR LICB 172350Z AUTO 17003KT 140V210 9999 BKN150/// 11/08 Q1019=
METAR LICC 172350Z 19003KT 150V220 4000 BR SCT040 12/10 Q1020=
METAR LICD 172350Z AUTO 21021KT 9999 BKN036/// 14/08 Q1018=
METAR LICG 180000Z NIL=
METAR LICJ 172350Z 15006KT 120V180 9999 FEW025 SCT060 12/08 Q1017=
METAR LICR 172350Z AUTO 17013KT 9999 BKN021/// BKN200/// 15/12
Q1020=
METAR LICT 172355Z 13008KT 9999 SCT018 10/09 Q1016 RMK BKN BKN070 VIS
      MIN 9999 WIND THR13 14009KT BLU=
METAR LICZ 172355Z /////KT 9999 SCT030 BKN100 12/12 Q1019 RMK BKN VIS
      MIN 9999 WIND THR28 14003KT WIND THR10 20002KT A3011 BLU=


194 
SAIY40 LIIB 180000
METAR LIMG 180000Z NIL=
METAR LIMK 172355Z AUTO /////KT //// 02/M03 Q1031=
METAR LIMN 180000Z NIL=
METAR LIMP 180000Z NIL=
METAR LIMS 180000Z NIL=
METAR LIMZ 172350Z AUTO 35005KT 9999 NCD M01/M04 Q1032=
METAR LIPA 180000Z NIL=
METAR LIPB 180000Z NIL=
METAR LIPC 180000Z NIL=
METAR LIPF 180000Z NIL=
METAR LIPH 172350Z AUTO 02002KT 9999 NCD 01/M03 Q1033=
METAR LIPI 172355Z 02009KT CAVOK 02/M03 Q1033 RMK SKC VIS MIN 9999
      WIND THR06 04010KT WIND THR24 05010KT BLU=
METAR LIPL 172355Z 35005KT CAVOK M02/M02 Q1033 RMK SKC VIS MIN 9999
      WIND THR31 33004KT WIND THR13 35004KT BLU=
METAR LIPO 172350Z AUTO 36003KT 9999 NCD M00/M01 Q1033=
METAR LIPQ 172350Z AUTO VRB02KT 9999 NCD M00/M05 Q1032=
METAR LIPR 172350Z AUTO 29012KT 9999 NCD 04/M01 Q1032=
METAR LIPS 172355Z 01005KT CAVOK M00/M03 Q1032 RMK SKC VIS MIN 9999
      WIND THR26 01005KT WIND THR08 01005KT BLU=
METAR LIPU 180000Z NIL=
METAR LIPX 172350Z 34002KT CAVOK M00/M03 Q1033=
METAR LIPY 172350Z AUTO VRB03KT 9999 BKN025/// 04/01 Q1032=
METAR LIVC 172355Z AUTO /////KT //// M06/M07 Q1025=
METAR LIVP 180000Z NIL=


197 
SAID31 WIII 180000
METAR
WAAA 180000Z VRB02KT 9999 SCT018 26/25 Q1009 NOSIG=
METAR WABB 180000Z 17003KT 9999 FEW015 31/25 Q1009 NOSIG=
METAR WADD 180000Z 28010KT 9999 FEW017 29/26 Q1006 NOSIG=
METAR WARR 180000Z 27009KT 5000 HZ FEW020 26/25 Q1007 NOSIG=
METAR WIDD 180000Z 02008KT 9000 BKN014 26/24 Q1010 NOSIG=
METAR WIHH 180000Z 24011KT 6000 -RA BKN018 25/23 Q1009 NOSIG=
METAR WIII 180000Z 24009KT 5000 -RA SCT020 24/23 Q1009 NOSIG=
METAR WIMM 180000Z 23005KT 8000 -RA BKN017 23/23 Q1009 NOSIG=


228 
SPAK31 KWBC 180009
SPECI
PARY 180007Z AUTO 08020G26KT 1/2SM -SN FZFG OVC009 M13/M16 A3001=


234 
SPZA31 KWBC 180009
SPECI
FACT 180001Z 21011KT 9999 FEW016 19/17 Q1012=


237 
SAPQ31 KWBC 180000 RRA
METAR
PTKK 172351Z 11007G17KT 15SM FEW014 BKN280 30/25 A2980=
PTYA 172352Z 08010KT 12SM FEW016 BKN300 30/25 A2984=


240 
SPAK40 KNKA 180008
SPECI PALP 180008Z 07018KT 2SM BR FEW002 SCT150 M25/M28 A3015 =
SPECI PANI 180008Z AUTO 14010KT 10SM OVC030 04/00 A2971 RMK AO2 $=
SPECI PASA 180008Z AUTO 04008KT 5SM -SN BR OVC008 M03/M04 A2935 RMK 
    AO2 P0000 FZRANO=
SPECI PAVA 180008Z AUTO 14020KT 3SM -RA BR OVC002 01/01 A2947 RMK 
    AO2 UPE2357RAB2357 P0000 FZRANO=


243 
SAXX60 KAWN 180000 RRA
METAR PGUM 172354Z 08012KT 10SM FEW022 29/23 A2990 RMK AO2 SLP117 T02890228
      10289 20256 50013 $=
METAR PHNG 172357Z AUTO 36006KT 10SM SCT030 OVC037 A2990 RMK AO2 SLP122
      60001 56024 $=
METAR PTKK 172351Z 11007G17KT 15SM FEW014 BKN280 30/25 A2980 RMK SLP094
      8/101 T03040254 10304 20280 50007=
METAR RJOO 180000Z 31004KT 9999 FEW025 BKN040 05/M02 Q1026 RMK 1CU025
      5CU040 A3030=
METAR RJTT 180000Z 01013KT 9999 FEW030 SCT060 05/M04 Q1024 NOSIG RMK
      1CU030 3SC060 A3025=


244 
SAEW KAWN 180000 RRD
METAR ETEB 172355Z AUTO 08008KT M M M M00/M02 A3048 RMK AO2 SLP354
      T10021018 11002 21009 57013 RVRNO CHINO RWY08 $=
METAR LFBT 180000Z AUTO 18003KT CAVOK M02/M03 Q1029 NOSIG=
METAR LFBX 180000Z AUTO 00000KT 6000 NSC M03/M04 Q1030=
METAR LFKS 180000Z AUTO 33004KT 9999 BKN070 OVC084 09/04 Q1024=
METAR LFLW 180000Z AUTO 12003KT CAVOK M04/M05 Q1027=
METAR LFMC 180000Z AUTO 30002KT 9999 ////// M02/M03 Q1027=
METAR LFMI 180000Z AUTO 02008KT CAVOK 02/M02 Q1027 NOSIG=
METAR LFMY 180000Z AUTO 00000KT CAVOK M04/M05 Q1027=
METAR LFOA 180000Z AUTO 08006KT 5000 BR OVC004 M01/M01 Q1031=
METAR LFOJ 180000Z AUTO 07008KT 1500 BR VV/// M01/M01 Q1032 BECMG 0400
      FZFG=
METAR LFQB 180000Z AUTO VRB01KT 6000 OVC011 00/M01 Q1032=
METAR LFRC 180000Z AUTO 13005KT 100V180 8000 OVC007/// 02/01 Q1033=
METAR LFRH 180000Z AUTO 05006KT 0500 R25/0700N R07/0600N FG VV/// 00/00
      Q1032 TEMPO 0500 FZFG=
METAR LFRI 180000Z AUTO 05006KT 5000 BR NSC M02/M02 Q1031=
METAR LFRJ 180000Z AUTO 13004KT 6000 NSC 02/01 Q1031=
METAR LFRM 180000Z AUTO 05006KT 030V090 6000 OVC007 02/01 Q1032=
METAR LFRQ 180000Z AUTO 06004KT 5000 BR NSC 01/01 Q1032=
METAR LFRZ 180000Z AUTO VRB02KT 2600 1200 R25/P2000 BR NSC 00/M00 Q1032
      BECMG OVC002=


252 
SAUS46 KSGX 180009 COR
MTRNXP
METAR KNXP 172356Z AUTO 30014G22KT 10SM CLR 18/M07 A3010 RMK AO2 
SLP173 T01831072 10194 20139 55004


819 
SAZZ40 KAWN 180000 RRF
METAR DAAP 180000Z 10003KT CAVOK 08/M04 Q1023=
METAR DAAY 180000Z 33006KT 8000 SCT026 SCT030 01/M00 Q1025=
METAR DAOF 180000Z 27009KT CAVOK 10/04 Q1019=
METAR DAOR 180000Z 06004KT 9999 FEW033 BKN100 07/M01 Q1023=
METAR DAUE 180000Z VRB02KT CAVOK 04/M05 Q1023=
METAR DAUI 180000Z 32004KT CAVOK 06/M07 Q1022=
METAR DAUK 180000Z 25006KT CAVOK 07/M01 Q1018=
METAR DAUO 180000Z 23008KT CAVOK 07/M01 Q1017=
METAR DAUT 180000Z 20004KT CAVOK 05/M10 Q1022=
METAR DAUU 180000Z 28004KT 250V330 CAVOK 09/M05 Q1020=
METAR KNBC 172356Z AUTO 09003KT 7SM CLR 06/03 A3012 RMK AO2 SLP200
      T00610028 10144 20061 50001=
METAR KNFL 172357Z 34012KT 10SM SCT180 SCT220 13/M09 A3009 RMK AO2
      SLP157 T01281094 10139 20067 53000 $=
METAR KNLC 172356Z 03004KT 9SM CLR 18/01 A3016 RMK AO2 SLP215 RH/30
      T01830011 10189 20100 56013=
METAR KNPA 172356Z 15009KT 10SM BKN060 BKN150 BKN250 16/09 A3002 RMK
      AO2 SLP167 T01560094 10183 20156 58004 $=
METAR KNQI 172356Z 16007KT 10SM FEW035 BKN140 BKN190 OVC250 21/17 A2981
      RMK AO2 SLP091 T02110167 10261 20211 55018 $=
METAR KNYG 172356Z AUTO 18004KT 10SM CLR 03/ A3014 RMK AO2 SLP207 T0033
      10067 20033 53003 $=
METAR MHLE 180000Z 02004KT CAVOK 17/11=
METAR MHPL 180000Z 05010KT 9999 FEW018 27/23=
METAR MNMG 180000Z 10006KT 9999 FEW023 SCT070 29/20 Q1012 A2990 NOSIG=
METAR OIMM 180000Z 13004KT 3000 BR BKN020 01/00 Q1022 A3012=
METAR PHNG 172357Z AUTO 36006KT 10SM SCT030 OVC037 A2990 RMK AO2 SLP122
      60001 56024 $=
METAR TNCC 180000Z 06007KT 9999 SCT016 26/25 Q1015 NOSIG=


820 
SAFI77 MBGT 180000
METAR
MBGT 180000Z 07010KT 9999 SCT020 24/20 Q1018=


054 
SANV20 NVVV 180000 RRA
METAR NVSC 180000Z 10004KT 9999 SCT020 33/28 Q1008=
METAR NVSG 180000Z 12009KT 9999 FEW020 31/26 Q1008=
METAR NVVW 180000Z VRB02KT 9999 FEW020 SCT300 31/24
Q1008=
METAR NVVA 180000Z 27008KT 9999 FEW025 30/24 Q1008=


055 
SAKA31 PTTP 180000
METAR PTTP 172352Z 09009KT 15SM SCT018 BKN300 31/25 A2985 RMK SLP108
8/101
T03100250 10310 20279 58009=


147 
SAMS33 WMKK 180000
METAR WMAU 180000Z VRB13KT 7000 -RA FEW002 SCT025 26/24 Q1009=
METAR WMBA 180000Z VRB02KT 9999 FEW017CB 24/22 Q1009=
METAR WMKA 180000Z VRB04KT 9999 FEW030 25/21 Q1010=
METAR WMKB 180000Z 01004KT 340V040 9000 FEW020 SCT024 25/20 Q1009
NOSIG=
METAR WMKC 180000Z 07010KT 9999 FEW012 26/22 Q1011=
METAR WMKD 180000Z 34003KT 310V040 6000 -RA FEW007 SCT024 23/23 Q1010
NOSIG=
METAR WMKE 180000Z VRB09KT 8000 -RA FEW008 SCT020 26/22 Q1010=
METAR WMKI 180000Z 03008KT 360V070 9999 FEW027 25/22 Q1010=
METAR WMKL 180000Z 06006KT 340V110 9999 FEW020 27/20 Q1010=
METAR WMKM 180000Z 06003KT 020V080 9999 FEW027 25/23 Q1010=
METAR WMKN 180000Z 04010KT 360V070 9999 SCT020 26/23 Q1011=

383 
SADL43 EDZW 180000
METAR ETAD 172355Z AUTO 07009KT 6000 BR OVC001 M00/M01 A3046 RMK AO2
      VIS 2800 RWY22 SLP321 T10031010 10003 21036 56015 FZRANO=
METAR ETAR 172355Z 06010KT 9999 OVC011 01/01 A3049 RMK AO2A SLP338
      T00111011 10015 20008 57014=
METAR ETIH 180000Z NIL=
METAR ETIK 180000Z NIL=
METAR ETOR 180000Z NIL=
METAR ETOU 172355Z AUTO 08006KT 9999 OVC007 00/M02 A3056 RMK AO2
SLP357
      T00021019 10012 20001 57011 FZRANO=


800 
SPCN43 CWAO 180009
SPECI CYQF 180009Z AUTO 00000KT 2 1/2SM -SN OVC032 M10/M13 A3031 RMK SLP335=


123 
SAXX60 KWBC 180000 RRH
METAR
KWRB 172355Z AUTO 00000KT 10SM CLR 12/M02 A3006 RMK AO2 SLP183
     T01211018 10176 20121 53006 $=
PHNG 172357Z AUTO 36006KT 10SM SCT030 OVC037 A2990 RMK AO2 SLP122
     60001 56024 $=
KNBC 172356Z AUTO 09003KT 7SM CLR 06/03 A3012 RMK AO2 SLP200
     T00610028 10144 20061 50001=
KNFL 172357Z 34012KT 10SM SCT180 SCT220 13/M09 A3009 RMK AO2
     SLP157 T01281094 10139 20067 53000 $=
KNLC 172356Z 03004KT 9SM CLR 18/01 A3016 RMK AO2 SLP215 RH/30
     T01830011 10189 20100 56013=
KNPA 172356Z 15009KT 10SM BKN060 BKN150 BKN250 16/09 A3002 RMK AO2
     SLP167 T01560094 10183 20156 58004 $=
KNQI 172356Z 16007KT 10SM FEW035 BKN140 BKN190 OVC250 21/17 A2981
     RMK AO2 SLP091 T02110167 10261 20211 55018 $=
KNYG 172356Z AUTO 18004KT 10SM CLR 03/ A3014 RMK AO2 SLP207 T0033
     10067 20033 53003 $=
PHNG 172357Z AUTO 36006KT 10SM SCT030 OVC037 A2990 RMK AO2 SLP122
     60001 56024 $=


124 
SAUS80 KWBC 180000 RRG
METAR
PHMK 172354Z COR 03008KT 10SM SCT022 BKN039 24/18 A2994 RMK AO2
     SLP142 60000 T02440178 10256 20211 56020=


125 
SPUS80 KWBC 180010
SPECI
KRIW 180006Z AUTO 01017G27KT 3SM -SN OVC027 M09/M12 A2998 RMK AO2
     PK WND 01027/2357 P0000 T10941122=


126 
SAUS70 KWBC 180000 RRX
METAR
KBGR 172353Z COR 00000KT 10SM CLR M09/M13 A3006 RMK AO2 SLP186
     4/001 T10941133 11011 21106 51017=
KITH 172356Z 19008KT 10SM OVC034 M01/M04 A2995=
KMER 172355Z 00000KT 7 HZSM CLR 15/03 A3016=


127 
SAXX60 KWBC 180000 CCF
METAR
KNXP 172356Z AUTO 30014G22KT 10SM CLR 18/M07 A3010 RMK AO2 SLP173
     T01831072 10194 20139 55004=


128 
SAPQ50 KWBC 180000 RRD
METAR
PTKK 172351Z 11007G17KT 15SM FEW014 BKN280 30/25 A2980 RMK SLP094
     8/101 T03040254 10304 20280 50007=
PGUM 172354Z 08012KT 10SM FEW022 29/23 A2990 RMK AO2 SLP117
     T02890228 10289 20256 50013 $=
PTKK 172351Z 11007G17KT 15SM FEW014 BKN280 30/25 A2980 RMK SLP094
     8/101 T03040254 10304 20280 50007=
PTTP 172352Z 09009KT 15SM SCT018 BKN300 31/25 A2985 RMK SLP108
     8/101 T03100250 10310 20279 58009=


144 
SPCN46 CWAO 180009
SPECI CYYW 180009Z AUTO 33017G29KT 2 1/2SM -SN OVC022 M11/M14 A2935 RMK VIS VRB 1 1/4-3 PRESRR SLP974=


145 
SAUS70 KWBC 180010
METAR
K08D 180015Z AUTO 33016KT 10SM -SN OVC018 M13/M16 A3011 RMK
     AO2=
KCPF 180015Z AUTO 15003KT 10SM CLR 07/M08 A2991 RMK AO2=
KDUB 180003Z AUTO 00000KT 4SM -SN SCT025 BKN030 OVC037 M11/M13
     A2987 RMK AO2=
KEMV 180015Z AUTO 00000KT 10SM CLR M01/M04 A3017 RMK AO2
     T10061044=
KL18 180015Z AUTO 22005KT 10SM CLR 13/07 A3016 RMK AO2=
KLDJ 180015Z AUTO 00000KT 10SM SCT050 03/M05 A3013 RMK AO2
     T00251055=
KPMH 180005Z AUTO 00000KT 10SM CLR 02/M03 A2990 RMK AO2=


147 
SPCN45 CWAO 180009
SPECI CYTE 180009Z AUTO 02013G20KT 5SM HZ OVC017 M23/M26 A2967 RMK SLP055=


149 
SAAG41 KWBC 180000
METAR
SAAC NIL=
SAAV NIL=
SAGS NIL=
SANE NIL=
SANT 180000Z 25003KT 220V290 8000 SCT110 29/19 Q1008=
SANU NIL=
SAOR NIL=
SARL 180000Z 14007KT 7000 NSC 32/18 Q1008=
SATM NIL=
SAVC 180000Z 30006KT CAVOK 24/M01 Q1014=
SAVT 180000Z 06011KT CAVOK 23/07 Q1014=
SAZB NIL=
SAZN 180000Z 00000KT CAVOK 28/09 Q1012=


151 
SAAG31 KWBC 180000
METAR
SAAG NIL=
SAAP NIL=
SAAR 180000Z 17012KT CAVOK 28/20 Q1010=
SABE 180000Z 13016KT CAVOK 26/18 Q1013 NOSIG=
SACO 180000Z 12004KT 9999 SCT045 25/18 Q1013 NOSIG=
SADD NIL=
SAEZ 180000Z 12012KT 9999 FEW039 SCT200 26/18 Q1013 NOSIG=
SAME 180000Z 09005KT 9999 FEW040 FEW045CB 30/13 Q1010=
SARC 180000Z 14007KT 7000 NSC 33/17 Q1006=
SARE 180000Z 10005KT CAVOK 33/15 Q1006=
SARF 180000Z NIL=
SARI 180000Z 17003KT 140V210 CAVOK 26/22 Q1009=
SARP 180000Z 05003KT CAVOK 29/23 Q1008=
SASA 180000Z 25003KT 9999 SCT045 23/17 Q1015=
SASJ 180000Z 32006KT 9999 FEW100 SCT190 28/14 Q1013=
SAWE 180000Z 27022KT 9999 FEW045 13/02 Q1001=
SAWG 180000Z 23022KT 9999 FEW035 SCT200 17/04 Q1008=
SAZM 180000Z 14008KT CAVOK 19/14 Q1017=
SAZS 180000Z 29017KT CAVOK 15/04 Q1019=


156 
SPUS70 KWBC 180010
SPECI
PARY 180007Z AUTO 08020G26KT 1/2SM -SN FZFG OVC009 M13/M16 A3001
     RMK AO2 PK WND 08026/0002 CIG 004V013 P0000 FZRANO TSNO=
PFCL 180007Z AUTO 13023G28KT 10SM BKN007 04/04 A2970 RMK AO2 PK
     WND 13028/0007=
KAPA 180006Z 04014G22KT 1 1/2SM -SN BR OVC013 M03/M06 A2986 RMK
     AO2 SNB2358 P0000 T10281061=
KCWF 180002Z 14011KT 10SM OVC025 14/08 A2984=
KDWH 180006Z 00000KT 10SM OVC028 18/13 A2982 RMK AO2 T01830128=
PFCL 180007Z AUTO 13023G28KT 10SM BKN007 04/04 A2970 RMK AO2 PK
     WND 13028/0007=
PALP 180008Z 07018KT 2SM BR FEW002 SCT150 M25/M28 A3015=
PANI 180008Z AUTO 14010KT 10SM OVC030 04/00 A2971 RMK AO2 $=
PASA 180008Z AUTO 04008KT 5SM -SN BR OVC008 M03/M04 A2935 RMK AO2
     P0000 FZRANO=
KDGW 180007Z AUTO 35012G22KT 2SM -SN BR OVC023 M08/M11 A2999 RMK
     AO2 P0000 T10831106=
KFYV 180007Z 18013G22KT 10SM FEW065 SCT080 BKN110 09/02 A2956 RMK
     AO2 WSHFT 2347 RAE05 P0000 T00940017=
KINK 180007Z AUTO 26023G32KT 4SM HZ FEW031 16/M06 A2981 RMK AO2 PK
     WND 26034/2354 T01611056=
KLAR 180007Z AUTO 05010KT 3/4SM -SN BR VV009 M08/M11 A2981 RMK AO2
     P0000 T10831106=
KMRY 180007Z 27006KT 10SM BKN020 12/07 A3022 RMK AO2 T01220072=
KPIR 180007Z AUTO 35021G30KT 10SM OVC029 M04/M10 A3002 RMK AO2 PK
     WND 01033/2357 T10441100=
PANI 180008Z AUTO 14010KT 10SM OVC030 04/00 A2971 RMK AO2 $=


199 
SAAS33 KWBC 180005
METAR
VBRR NIL=
VDPP 180000Z 02007KT 9999 FEW017 22/19 Q1012=
VDSR NIL=
VLVT 180000Z 36002KT 4000 BR NSC 12/09 Q1017 NOSIG=
VLVT 180000Z NIL=
VTBA NIL=
VTBD 180000Z 03006KT 8000 NSC 20/12 Q1014 NOSIG=
VTBU 180000Z 35006KT 8000 NSC 20/13 Q1013 NOSIG=
VTCC 180000Z 00000KT 9000 NSC 15/14 Q1016 NOSIG=
VTSP 180000Z 07005KT 350V110 9999 FEW020 SCT090 26/22 Q1010
     NOSIG=
VTSS 180000Z 03008KT 8000 -RA FEW018TCU SCT020 BKN028 23/22 Q1011
     NOSIG=
VVDN 180000Z 00000KT 4000 BR FEW003 BKN046 19/18 Q1018 BECMG
     TL0045 6000 NSW=
VVGL NIL=
VVNB 180000Z 06005KT 5000 HZ BKN035 15/08 Q1020 NOSIG=
VVTS 180000Z 36003KT 320V030 CAVOK 22/18 Q1012 NOSIG=
WBGG 180000Z 25003KT 210V320 9999 FEW006 FEW015CB 25/24 Q1009
     NOSIG=
WBKK 180000Z 10003KT 060V140 9999 FEW014 26/23 Q1008 NOSIG=
WMAM NIL=
WMKJ 180000Z VRB01KT 7000 -RA FEW008 SCT020 25/24 Q1009=
WMKK 180000Z VRB01KT 9999 FEW030 25/23 Q1010 NOSIG=
WMKP 180000Z 04010G22KT 010V070 9000 FEW020 27/19 Q1009 NOSIG=
WMSA 180000Z VRB01KT 9999 FEW017CB 25/24 Q1010=
WPDL NIL=
WPEC NIL=
WSAP 180000Z 34005KT 9999 FEW016 BKN150 26/23 Q1010=
WSSL 180000Z 36004KT 330V050 9999 FEW016 BKN160 25/24 Q1009=
WSSS 180000Z 33008KT 7000 FEW015 BKN150 25/24 Q1009 NOSIG=


207 
SAAS32 KWBC 180005
METAR
RKPC 180000Z 16005KT 100V180 CAVOK 05/M01 Q1026 NOSIG=
RKPK 180000Z 32002KT CAVOK M01/M06 Q1026=
RKSS 180000Z 30003KT CAVOK M03/M04 Q1027 NOSIG=
VHHH 180000Z 07004KT 9999 FEW045 14/08 Q1021 NOSIG=
VMMC 180000Z 03007KT 340V060 9999 FEW040 15/10 Q1021 NOSIG=
ZJSY 180000Z 01002MPS 330V070 9999 SCT053 17/12 Q1018 NOSIG=
ZKPY NIL=


209 
SAAS31 KWBC 180005
METAR
VAAH 180000Z 04008KT 3000 HZ NSC 17/11 Q1014 NOSIG=
VABB 180000Z 05004KT 2100 FU FEW100 26/13 Q1011 NOSIG=
VABG NIL=
VAGO NIL=
VANP 180000Z 33004KT 1800 BR SCT100 17/12 Q1017 NOSIG=
VANY NIL=
VCBI NIL=
VECC 180000Z 01004KT 2200 BR NSC 15/13 Q1016 NOSIG=
VEPT 180000Z 27004KT 1200 R25/2000 R07/2000 MIFG NSC 14/12 Q1017
     NOSIG=
VGEG 180000Z 02004KT 3200 HZ NSC 17/15 Q1014 TEMPO 2400M OR
     LESS=
VGZR NIL=
VIAR 180000Z 23005KT 0600 R34/1200 R16/1400 MIFG SCT090 07/06
     Q1018 NOSIG=
VIBN NIL=
VIDP 180000Z 25005KT 0400 R28/2000 R27/2000 R29R/2000 R29L/2000 FG
     FEW100 11/10 Q1018 NOSIG=
VNKT 180000Z VRB02KT 6000 FEW015 05/04 Q1020 NOSIG=
VOBG 180000Z 09008KT 2000 BR SCT008 17/15 Q1016 NOSIG=
VOCI 180000Z 10004KT 3500 BR FEW015 21/19 Q1009 NOSIG=
VOHY NIL=
VOMM 180000Z 03005KT 3500 BR FEW020 SCT100 24/20 Q1011 NOSIG=
VONY NIL=
VOTR 180000Z 01008KT 2500 BR FEW016 24/22 Q1011 NOSIG=
VOTV NIL=
VQPR 180000Z NIL=
VQTU NIL=
VRMM 180000Z 08017KT 4000 FEW018 BKN270 28/24 Q1008 NOSIG=
VTBS 180000Z 01005KT 8000 NSC 20/13 Q1014 NOSIG=


226 
SACA35 KWBC 180000 RRA
METAR
MPTO 180000 METAR MPTO 180000Z AUTO 07007KT 9999 NCD 27/23 Q1012
     NOSIG=
MRLM 180000Z 20002KT 9999 VCSH FEW015TCU BKN100 25/23 A2994=


228 
SACA33 KWBC 180000 RRB
METAR
TFFJ 180000Z AUTO 06017KT 9999 FEW025 26/22 Q1018=


234 
SAIO31 KWBC 180000 RRA
METAR
WBGG 180000Z 25003KT 210V320 9999 FEW006 FEW015CB 25/24 Q1009
     NOSIG=
WBKK 180000Z 10003KT 060V140 9999 FEW014 26/23 Q1008 NOSIG=
WBSB 180000Z 19002KT 9999 FEW014 FEW015CB BKN300 27/25 Q1009
     NOSIG=


243 
SACA45 KWBC 180000 RRB
METAR
MHCH 180000Z 01007KT 9999 FEW034 32/19=
MHLE 180000Z 02004KT CAVOK 17/11=
MHNO 180000Z 35004KT 9999 FEW040 25/16=
MHPL 180000Z 05010KT 9999 FEW018 27/23=


252 
SANZ31 KWBC 180000
METAR
NZAA 180000Z AUTO 05011G21KT 020V090 9999 BKN046/// OVC055///
     23/12 Q1012=
NZCH 180000Z AUTO 05015KT 9999 FEW030/// BKN035/// 19/10 Q1015=
NZOH NIL=
NZWN 180000Z AUTO 20011KT 9999 FEW046/// 18/14 Q1015=
NZWP NIL=


326 
SAUS46 KSGX 180010 COR
MTRNXP
METAR KNXP 172356Z AUTO 30014G22KT 10SM CLR 18/M07 A3010 RMK AO2 
SLP173 T01831072 10194 20139 55004


340 
SAPA31 KWBC 180000 RRB
METAR
PHMK 172354Z COR 03008KT 10SM SCT022 BKN039 24/18 A2994 RMK AO2
     SLP142 60000 T02440178 10256 20211 56020=
PTTP 172352Z 09009KT 15SM SCT018 BKN300 31/25 A2985 RMK SLP108
     8/101 T03100250 10310 20279 58009=


347 
SAAG01 SABM 180000 RRB
METAR SARF 180000Z 14003KT 8000 NSC 31/21 Q1006=


360 
SAZA31 KWBC 180000
METAR
FABB NIL=
FABE NIL=
FABL 180000Z AUTO 01004KT //// R02///// // ///////// 17/13
     Q1020=
FABM NIL=
FACT 180000Z 21011KT 9999 FEW016 19/17 Q1012 NOSIG=
FADN NIL=
FAEL NIL=
FAGG 180000Z AUTO 34003KT CAVOK 16/13 Q1012=
FAGM NIL=
FAJS NIL=
FAKT NIL=
FALW 180000Z AUTO 22007KT //// // ////// 15/13 Q1011=
FALZ NIL=
FAPB NIL=
FAPE 180000Z 23003KT 4000 R26/1200U BR BKN004 16/15 Q1011
     NOSIG=
FAPR NIL=
FASB NIL=
FAUP 180000Z 15007KT CAVOK 24/M00 Q1013 NOSIG=
FAWH NIL=
FAWK 180000Z AUTO 00000KT //// // ////// 17/16 Q1021=


364 
SAXX61 KWBC 180000 RRB
METAR
ETAD 172355Z AUTO 07009KT 6000 BR OVC001 M00/M01 A3046 RMK AO2 VIS
     2800 RWY22 SLP321 T10031010 10003 21036 56015 FZRANO=
ETAR 172355Z 06010KT 9999 OVC011 01/01 A3049 RMK AO2A SLP338
     T00111011 10015 20008 57014=
LICZ 172355Z /////KT 9999 SCT030 BKN100 12/12 Q1019 RMK BKN VIS
     MIN 9999 WIND THR28 14003KT WIND THR10 20002KT A3011 BLU=


366 
SAPR41 KWBC 180000
METAR
SPCL 180000Z 21002KT 9999 BKN020 BKN080 25/20 Q1009 RMK PP000=
SPEC NIL=
SPEI NIL=
SPEO 180000Z NIL=
SPGM NIL=
SPHI 180000Z 18014KT CAVOK 24/17 Q1013 RMK BIRD HAZARD RWY 19/01
     PP000=
SPHO NIL=
SPHY NIL=
SPJA NIL=
SPJI NIL=
SPJL 180000Z 03005KT 9999 FEW025 SCT080 11/04 Q1033 RMK BIRD
     HAZARD RWY 12/30 PP000=
SPJN NIL=
SPJR NIL=
SPME 180000Z 29006KT 9999 BKN023 27/21 Q1012 RMK BIRD HAZARD RWY
     32/14 PP000=
SPMS NIL=
SPNC 180000Z NIL=
SPPY NIL=
SPRU 180000Z 16008KT 8000 FEW150 20/18 Q1013 RMK PP000=
SPST 180000Z 26004KT 9999 FEW020 29/20 Q1008 RMK PP000=
SPTU NIL=
SPUR 180000Z 23014KT CAVOK 28/17 Q1011 RMK PP000=


396 
SAXX70 KAWN 180000 RRD
METAR KQEI 180010Z AUTO 10001KT 4800 CLR M10/M12 A3031 RMK A02 TSNO=
METAR KQEJ 180010Z AUTO 06001KT 4800 BKN004 M12/M14 A3031 RMK A02 TSNO=
METAR KQEX 180010Z AUTO 04002KT 6000 HZ CLR M05/M08 A3025 RMK A02 TSNO=
METAR KQFB 180010Z AUTO 28001KT 4800 HZ CLR M06/M08 A3037 RMK A02 TSNO=


518 
SACZ41 LKPW 180000
METAR LKKU 180000Z NIL=
METAR LKVO 180000Z NIL=


519 
SAIN31 EGGY 180000
METAR VOBL 180000Z NIL=
METAR VOCB 180000Z VRB03KT 2000 BR FEW015 20/18 Q1014 NOSIG=
METAR VOCI 180000Z 10004KT 3500 BR FEW015 21/19 Q1009 NOSIG=
METAR VOCL 180000Z NIL=


529 
SAAG05 SABM 180000 RRA
METAR SARF 180000Z 14003KT 8000 NSC 31/21 Q1006=


530 
SABZ32 SBBR 180010
METAR SBAN 180000Z 34006KT 9999 FEW005 20/20 Q1019=
METAR SBBR 180000Z 31004KT 9999 SCT030 22/20 Q1018=
METAR SBCG 180000Z 01010KT 9999 FEW006 SCT040 FEW050TCU BKN080 24/23 Q1011=
METAR SBCY 180000Z 16006KT 9999 FEW020 BKN100 26/24 Q1010=
METAR SBGO 180000Z 33003KT 9999 FEW045 SCT080 23/20 Q1017=
METAR SBPJ 180000Z 25004KT 9999 FEW020 27/24 Q1013=


919 
SAID31 WIII 180000
METAR WIII 180000Z 24009KT 5000 -RA SCT020 24/23 Q1009 NOSIG= 
METAR WIMM 180000Z 23005KT 8000 -RA BKN017 23/23 Q1009 NOSIG= 
METAR WAAA 180000Z VRB02KT 9999 SCT018 26/25 Q1009 NOSIG= 
METAR WARR 180000Z 27009KT 5000 HZ FEW020 26/25 Q1007 NOSIG= 
METAR WADD 180000Z 28010KT 9999 FEW017 29/26 Q1006 NOSIG= 
METAR WIDD 180000Z 02008KT 9000 BKN014 26/24 Q1010 NOSIG= 
METAR WABB 180000Z 17003KT 9999 FEW015 31/25 Q1009 NOSIG= 
METAR WIHH 180000Z 24011KT 6000 -RA BKN018 25/23 Q1009 NOSIG=


062 
SABZ34 SBBR 180010
METAR SBBG 180000Z AUTO 09006KT CAVOK 25/22 Q1010=
METAR SBBI 180000Z 33003KT 9999 SCT013 BKN100 21/20 Q1017=
METAR SBCH 180000Z 14003KT 9999 SCT020 BKN080 25/19 Q1012=
SPECI SBCH 180006Z 12003KT 9999 SCT020 BKN080 25/19 Q1012=
METAR SBCO 180000Z 10006KT 9999 FEW040 24/23 Q1008=
METAR SBCT 180000Z 01006KT 9999 FEW010 SCT050 BKN100 21/20 Q1017=
METAR SBCX 180000Z 11004KT 9999 BKN043 23/20 Q1013=
METAR SBFI 180000Z 29002KT 9999 FEW030 SCT070 27/22 Q1008=
METAR SBFL 180000Z 36007KT 9999 SCT021 26/24 Q1010=
METAR SBJV 180000Z 03001KT 9000 BKN030 27/25 Q1010=
METAR SBLO 180000Z 08008KT 9999 BKN010 BKN080 24/23 Q1014=
METAR SBMG 180000Z 09008KT 9999 FEW003 SCT040 BKN100 25/23 Q1011=
METAR SBNF 180000Z 06004KT 9999 FEW009 SCT100 26/25 Q1010=
METAR SBPA 180000Z 12007KT 9999 FEW040 SCT100 25/23 Q1008=
METAR SBPK 180000Z 15004KT 9999 SCT040 26/26 Q1010=
METAR SBSM 180000Z 04002KT 9999 FEW045 26/23 Q1008=


063 
SAID32 WIII 180000
METAR WIBB 180000Z 00000KT 9000 SCT013 24/24 Q1009 NOSIG= 
METAR WIEE 180000Z VRB02KT 9999 SCT020 24/23 Q1009 NOSIG= 
METAR WIOO 180000Z 06002KT 9000 SCT012 25/25 Q1008 NOSIG= 
METAR WIPP 180000Z 30006KT 9999 SCT012 25/24 Q1009 NOSIG= 
METAR WALL 180000Z 36004KT 9999 FEW020 28/25 Q1009 NOSIG= 
METAR WIDN 180000Z 36007KT 5000 -RA FEW016CB BKN020 26/25 Q1008 RMK
 CB AT S= 
METAR WAOO 180000Z 01004KT 9999 SCT018 26/25 Q1008 NOSIG= 
METAR WAMM 180000Z VRB01KT 8000 SCT019 27/25 Q1012 NOSIG 
METAR WADL NIL=


064 
SABZ31 SBBR 180010
METAR SBAR 180000Z 12010KT 9999 FEW019 27/23 Q1014=
METAR SBFN 180000Z AUTO 13009KT 100V170 9999 SCT020 27/23 Q1014=
METAR SBFZ 180000Z 05002KT 9999 FEW017 27/24 Q1012=
METAR SBIL 180000Z 13005KT 9999 FEW020 27/22 Q1015=
METAR SBJP 180000Z 09006KT 9999 FEW020 27/22 Q1014=
METAR SBJU 180000Z 24005KT 9999 BKN020 25/23 Q1015=
METAR SBKG 180000Z 09012KT 9999 SCT020 24/20 Q1017=
METAR SBLE 180000Z AUTO 06006KT CAVOK 25/19 Q1016=
METAR SBMO 180000Z 06003KT 9999 SCT019 25/22 Q1015=
METAR SBMS 180000Z AUTO 06009KT CAVOK 28/23 Q1013=
METAR SBNT 180000Z 11008KT 9999 FEW026 28/22 Q1014=
METAR SBPL 180000Z 19005KT CAVOK 26/17 Q1014=
METAR SBPS 180000Z 08008KT 9999 FEW025 26/22 Q1016=
METAR SBRF 180000Z 11008KT 070V140 9999 SCT023 SCT050 28/23 Q1014=
METAR SBSL 180000Z 02005KT 9999 SCT012 BKN050 26/24 Q1012=
METAR SBSV 180000Z 10008KT 9999 FEW022 27/21 Q1015=
METAR SBTE 180000Z 36004KT CAVOK 28/26 Q1012=


065 
SAIO31 FMMI 180000
METAR FMMI 180000Z VRB02KT 9999 FEW014 SCT020 VV016 19/19 Q1017
NOSIG=
METAR FMMT 180000Z NIL=
METAR FMNM 180000Z 25004KT 170V290 9999 FEW020CB 27/25 Q1008=
METAR FMSD 180000Z 00000KT 9999   FEW016 BKN033 25/24 Q1009=
METAR FMNN 180000Z NIL=
METAR FMNA 180000Z NIL=
METAR FMMS 180000Z NIL=


069 
SAIN31 VABB 180000
METAR VAAH 180000Z 04008KT 3000 HZ NSC 17/11 Q1014 NOSIG=
METAR VABB 180000Z 05004KT 2100 FU FEW100 26/13 Q1011 NOSIG=
METAR VANP 180000Z 33004KT 1800 BR SCT100 17/12 Q1017 NOSIG=
METAR VOBL 180000Z 09008KT 1500 R09R/2000 R09L/2000 BR FEW008 17/15
    Q1016 NOSIG=
METAR VOCB 180000Z VRB03KT 2000 BR FEW015 20/18 Q1014 NOSIG=
METAR VOCI 180000Z 10004KT 3500 BR FEW015 21/19 Q1009 NOSIG=
METAR VOCL 180000Z 09005KT 5000 BR FEW012 22/18 Q1009 NOSIG=
METAR VOHS 180000Z 09004KT 1000 R09R/1600 R27L/1800 MIFG BKN008
    SCT015 18/16 Q1016 NOSIG=
METAR VOML 180000Z 09005KT 6000 NSC 23/17 Q1009 NOSIG=
METAR VOMM 180000Z 03005KT 3500 BR FEW020 SCT100 24/20 Q1011 NOSIG=
METAR VOTR 180000Z 01008KT 2500 BR FEW016 24/22 Q1011 NOSIG=

263 
SABZ33 SBBR 180010
METAR SBAX 180000Z AUTO 05003KT CAVOK 23/20 Q1018=
METAR SBBH 180000Z 10004KT CAVOK 24/19 Q1018=
METAR SBBU 180000Z 07003KT 9999 FEW030 24/22 Q1015=
METAR SBCF 180000Z 05006KT 9999 FEW048 26/16 Q1018=
METAR SBDN 180000Z 08004KT 9000 -TSRA BKN033 FEW045CB BKN082 23/22 Q1012=
METAR SBES 180000Z 06011G21KT 020V090 9999 VCTS FEW025CB 26/25 Q1014=
METAR SBGL 180000Z 09006KT CAVOK 29/23 Q1012=
METAR SBGR 180000Z 20001KT 9999 FEW050TCU BKN070 23/21 Q1017=
METAR SBIP 180000Z AUTO 00000KT CAVOK 23/20 Q1015=
METAR SBJR 180000Z 28001KT CAVOK 26/25 Q1011=
METAR SBKP 180000Z 22007KT 9999 VCTS FEW010 FEW050CB SCT100 22/20 Q1017=
METAR SBLB 180000Z AUTO 06015KT 9999 NCD 27/25 Q1015 W28/S4=
METAR SBME 180000Z 05010KT CAVOK 28/24 Q1014=
METAR SBMK 180000Z 00000KT CAVOK 25/21 Q1016=
METAR SBMT 180000Z 29004KT 240V340 9999 FEW045 SCT070 24/21 Q1017=
METAR SBRJ 180000Z VRB02KT CAVOK 28/23 Q1011=
METAR SBRP 180000Z 16004KT 9999 SCT025 OVC100 24/23 Q1015=
METAR SBSC 180000Z 17005KT CAVOK 25/22 Q1012=
METAR SBSJ 180000Z 12006KT CAVOK 25/21 Q1016=
METAR SBSP 180000Z 26005KT 200V300 9999 FEW017 SCT066 25/21 Q1018=
METAR SBSR 180000Z 07004KT 9999 FEW030 BKN100 24/22 Q1014=
METAR SBTA 180000Z 17004KT 090V200 CAVOK 26/20 Q1015=
METAR SBUL 180000Z 11005KT 9999 FEW030 FEW040TCU SCT100 22/21 Q1018=
METAR SBUR 180000Z 02004KT CAVOK 25/21 Q1017=
METAR SBVT 180000Z 02009KT 9999 SCT040 27/24 Q1015=
METAR SBYS 180000Z VRB02KT 9999 SCT030 FEW035TCU BKN080 23/20 Q1016 RETS=


264 
SABZ35 SBBR 180010
METAR SACO 180000Z 12004KT 9999 SCT045 25/18 Q1013 NOSIG=
METAR SAEZ 180000Z 12012KT 9999 FEW039 SCT200 26/18 Q1013 NOSIG=
METAR COR SAME 180000Z 09005KT 9999 FEW040 FEW045CB 30/13 Q1010=
METAR SGAS 180000Z 16007KT 130V200 7000 NSC 34/20 Q1006=
METAR SKBO 180000Z 23007KT 9999 SCT020 SCT070 14/12 Q1027 NOSIG=
METAR SKCL 180000Z 33009KT 9999 SCT025 SCT120 25/18 Q1014 NOSIG=
METAR SLLP 180000Z 11006KT 9999 FEW015 FEW017CB BKN200 10/04
Q1036=
METAR SUMU 180000Z 15012KT 9999 SCT007 24/24 Q1013 NOSIG=


265 
SAID33 WIII 180000
METAR WAJJ 180000Z VRB02KT 9999 FEW012 29/25 Q1009= 
METAR WAKK 180000Z 32007KT 9999 SCT015 29/25 Q1008 NOSIG= 
METAR WAPP 180000Z 10004KT 060V150 9999 FEW017 30/25 Q1008 NOSIG= 
METAR WAHS 180000Z 27004KT 7000 FEW014 26/24 Q1007 NOSIG= 
METAR WILL 180000Z 13003KT 5000 BR SCT014 24/24 Q1009 NOSIG= 
METAR WATT 180000Z 34009KT 9999 SCT017 30/26 Q1007 NOSIG= 
METAR WAYY 180000Z 08002KT 9999 SCT016 31/26 Q1010 NOSIG= 
METAR WAQQ NIL=


266 
SPDN31 EKCH 180010
SPECI EKYT 180010Z AUTO 25016KT 1400 R08L/P1500N R26R/P1500N
BR OVC002/// 06/06 Q1030=


267 
SAZB40 FLKK 180000
METAR FLKK 180000Z VRB02KT CAVOK 21/20 Q1018 NOSIG=


268 
SABZ30 SBBR 180010
METAR SBBE 180000Z 04009KT 9999 -RA BKN008 BKN011 OVC014 25/24 Q1016=
METAR SBBV 180000Z 09008KT 9999 FEW030 31/17 Q1011=
METAR SBCZ 180000Z 00000KT CAVOK 28/24 Q1009=
METAR SBEG 180000Z 06005KT CAVOK 29/22 Q1011=
METAR SBMA 180000Z 00000KT CAVOK 26/24 Q1012=
METAR SBMN 180000Z 07004KT CAVOK 28/21 Q1011=
METAR SBMQ 180000Z 05008KT 9999 FEW007 25/23 Q1013=
METAR SBOI 180000Z AUTO 05003KT CAVOK 26/23 Q1014=
METAR SBPV 180000Z 35002KT 9999 VCTS FEW035 FEW040CB SCT100 27/24 Q1009=
METAR SBRB 180000Z 34003KT 9999 FEW035TCU BKN100 26/24 Q1010=
METAR SBSL 180000Z 02005KT 9999 SCT012 BKN050 26/24 Q1012=
METAR SBSN 180000Z 13006KT 9999 -RA FEW015 OVC100 24/23 Q1013=
METAR SBTU 180000Z AUTO 14004KT 9999 // NCD 24/23 Q1014=


281 
SAUK53 EGRR 180000
METAR EGUL 172355Z AUTO 19006KT 9999 OVC008 03/00 A3053=
METAR EGUN 172355Z AUTO 21004KT 9999 OVC008 03/01 A3053=
METAR EGVA 172355Z AUTO 22005KT 9999 OVC009 03/01 A3051=


453 
SPAK40 KNKA 180010
SPECI PADU 180009Z 31008KT 2SM -RA BR OVC012 04/03 A2893 RMK AO2 
    P0001=
SPECI PASK 180009Z AUTO 08019KT 1/2SM -SN FZFG SCT013 OVC038 M09/M11 
    A2992 RMK AO2 P0000 FZRANO=


641 
SAAO21 DRRN 180000
METAR DNAA 180000Z 11006KT 4000 HZ NSC 23/14 Q1012 NOSIG=
METAR DNCA 180000Z NIL=
METAR DNEN 180000Z NIL=
METAR DNMM 180000Z 19005KT 7000 NSC 28/26 Q1012 NOSIG=
METAR DNAK 180000Z NIL=
METAR DNKN 180000Z NIL=
METAR DNBE 180000Z NIL=
METAR DNGO 180000Z NIL=


642 
SAAO24 DRRN 180000
METAR DBBB 180000Z 23009KT 9999 FEW012 29/27 Q1011 NOSIG=
METAR FTTJ 180000Z 04003KT 6000 NSC 21/04 Q1010 NOSIG=
METAR FTTC 180000Z NIL=
METAR FTTY 180000Z NIL=
METAR FTTD 180000Z NIL=
METAR FTTA 180000Z NIL=
METAR DFOO 180000Z 35008KT 320V020 CAVOK 22/M01 Q1016=
METAR DFFD 180000Z 36006KT CAVOK 23/M01 Q1015 NOSIG=


643 
SAAO22 DRRN 180000
METAR DNIB 180000Z NIL=
METAR DNIL 180000Z 00000KT CAVOK 24/11 Q1013=
METAR DNIM 180000Z NIL=
METAR DNJO 180000Z NIL=
METAR DNKA 180000Z NIL=
METAR DNKT 180000Z NIL=
METAR DNMA 180000Z NIL=
METAR DNMN 180000Z NIL=


644 
SAAO20 DRRN 180000
METAR DRRM 180000Z NIL=
METAR DRRN 180000Z 35010KT CAVOK 23/M03 Q1014 NOSIG=
METAR DRRT 180000Z NIL=
METAR DRZA 180000Z NIL=
METAR DRZR 180000Z NIL=
METAR DRZF 180000Z NIL=
METAR DGAA 180000Z 23010KT 8000 FEW015 28/26 Q1012 NOSIG=
METAR DGTK 180000Z NIL=
METAR DGSI 180000Z NIL=
METAR DGLE 180000Z NIL=


645 
SAAO23 DRRN 180000
METAR DNSU 180000Z NIL=
METAR DNPO 180000Z 24003KT 6000 NSC 28/25 Q1010 NOSIG=
METAR DNSO 180000Z 09003KT CAVOK 20/11 Q1014=
METAR DNYO 180000Z NIL=
METAR DNZA 180000Z NIL=
METAR DXXX 180000Z 24011KT 8000 FEW013 29/26 Q1012 NOSIG=
METAR DXNG 180000Z NIL=
METAR DXSK 180000Z 32010KT 9000 NSC 26/09 Q////=


826 
SAID33 WIII 180000
METAR WAQQ 180000Z 09002KT 9999 FEW010 26/25 Q1010= 


827 
SATR31 UTAA 180000 RRA
METAR UTAV 180000Z 36002KT 7000 NSC M02/M02 Q1021 R31/CLRD70
NOSIG=
METAR UTAE 180000Z 35008KT 9000 OVC012 02/02 Q1021 R34/CLRD70
NOSIG=


980 
SPZZ40 KAWN 180010 RRA
SPECI CYAH 180005Z AUTO 17005KT 9SM OVC024 M14/M17 A2961 RMK SLP057=
SPECI CYDQ 180007Z AUTO 30006KT 4SM -SN SCT016 BKN033 M13/M16 A3066
      RMK SLP443=
SPECI CYET 180007Z AUTO 31008KT 9SM -SN BKN024 M09/M13 A3037 RMK SLP349=
SPECI CYGV 180006Z AUTO 31004KT 9SM -SN OVC034 M06/M09 A2997 RMK SLP153=
SPECI CYHD 180004Z AUTO 32014G24KT 280V020 9SM -SN FEW025 SCT032 OVC045
      M12/M16 A2964 RMK PRESRR SLP074=
SPECI CYTE 180006Z AUTO 02011G20KT 6SM HZ OVC017 M23/M26 A2967 RMK
      SLP055=
SPECI CYTE 180009Z AUTO 02013G20KT 5SM HZ OVC017 M23/M26 A2967 RMK
      SLP055=
SPECI CYTL 180007Z AUTO 35010G22KT 320V020 3SM -SN OVC043 M22/M25 A2964
      RMK SLP066=
SPECI CYYW 180009Z AUTO 33017G29KT 2 1/2SM -SN OVC022 M11/M14 A2935
      RMK VIS VRB 1 1/4-3 PRESRR SLP974=
SPECI CZVL 180006Z AUTO 31004KT 3/4SM R26/P6000FT/U -SN BKN016 OVC071
      M09/M10 A3036 RMK ICE SLP331=
SPECI EBBE 180004Z AUTO 08004KT 0300 +SN OVC002/// M02/M02 Q1034 RED=
SPECI EBBE 180007Z AUTO 08004KT 0300 FZFG OVC002/// M02/M02 Q1034 RED=
SPECI EHWO 180001Z AUTO 10004KT 070V140 0800 FZFG VV000 M00/M00 Q1035
      AMB=
SPECI ETNG 180008Z AUTO 08010KT 4700 // OVC002/// M01/M01 Q1034=
SPECI FACT 180001Z 21011KT 9999 FEW016 19/17 Q1012=
SPECI K1DN 180005Z AUTO 30018KT 7SM OVC024 M12/M16 A3005 RMK AO2 SLP217
      $=
SPECI KRCA 180006Z AUTO 34020G25KT 6SM -SN FEW002 FEW009 BKN015 OVC025
      M05/M09 A2999 RMK AO2 CIG 013 RWY13 SLP188 $=
SPECI OIMM 180001Z 00000KT 1500 BR BKN020 01/00 Q1022 A3012=
SPECI URKK 180005Z 28007MPS 5000 -RA BR BKN004 OVC019 04/03 Q1022 R23L/290060
      TEMPO 0200 -TSRA FG BKN002 BKN016CB RMK QBB140 QFE763/1018=


285 
SPBX31 KWBC 180011
SPECI
EBBE 180007Z AUTO 08004KT 0300 FZFG OVC002/// M02/M02 Q1034 RED=


286 
SPBX31 KWBC 180011
SPECI
EBBE 180004Z AUTO 08004KT 0300 +SN OVC002/// M02/M02 Q1034 RED=


288 
SPAW32 KWBC 180011
SPECI
OIMM 180001Z 00000KT 1500 BR BKN020 01/00 Q1022 A3012=


291 
SPDN31 KWBC 180011
SPECI
EKYT 180010Z AUTO 25016KT 1400 R08L/P1500N R26R/P1500N BR
OVC002/// 06/06 Q1030=


292 
SPCN31 KWBC 180011
SPECI
CYTE 180009Z AUTO 02013G20KT 5SM HZ OVC017 M23/M26 A2967 RMK
SLP055=


365 
SPCN49 CWAO 180010
SPECI CYGW 180010Z AUTO 10006KT 9SM BKN021 OVC027 M11/M15 A2957 RMK SLP015=


366 
SPCN48 CWAO 180010
SPECI CYNM 180010Z AUTO 15016KT 3/4SM -SN VV012 M10/M13 A2946 RMK SLP002=


367 
SPNL31 KWBC 180011
SPECI
EHWO 180001Z AUTO 10004KT 070V140 0800 FZFG VV000 M00/M00 Q1035
AMB=


519 
SAXN17 KAWN 180000 RRC
METAR COR MDSD 180000Z 04005KT 9999 BKN018 25/23 Q1018=
METAR MKJS 180000Z 10007KT 9999 BKN022 26/22 Q1016=
METAR MNMG 180000Z 10006KT 9999 FEW023 SCT070 29/20 Q1012 A2990 NOSIG=
METAR MPTO 180000Z AUTO 07007KT 9999 NCD 27/23 Q1012 NOSIG=
METAR MRLM 180000Z 20002KT 9999 VCSH FEW015TCU BKN100 25/23 A2994=
METAR PHNG 172357Z AUTO 36006KT 10SM SCT030 OVC037 A2990 RMK AO2 SLP122
      60001 56024 $=
METAR PLCH 180000Z 09011KT 9999 FEW020 SCT040 30/26 Q1009=
METAR PTKK 172351Z 11007G17KT 15SM FEW014 BKN280 30/25 A2980 RMK SLP094
      8/101 T03040254 10304 20280 50007=
METAR PTYA 172352Z 08010KT 12SM FEW016 BKN300 30/25 A2984 RMK SLP105
      8/101 T03030254 10303 20267 52022=
METAR RCKH 180000Z 33005KT 9000 -RA FEW015 SCT035 BKN050 16/11 Q1019
      NOSIG RMK A3009=
METAR RCTP 180000Z 05012KT 9999 FEW015 SCT090 16/09 Q1021 NOSIG RMK
      A3016=
METAR SVBM 180003Z AUTO 06008KT NCD 24/18 Q1016=
METAR SVMI 180003Z AUTO 08006KT NCD 26/21 Q1015=
METAR SVMT 180003Z AUTO 07004KT NCD 26/24 Q1014=
METAR COR TKPK 180000Z 05010KT 9999 FEW020 25/22 Q1018=
METAR TNCC 180000Z 06007KT 9999 SCT016 26/25 Q1015 NOSIG=
METAR TTCP 180000Z 06003KT 9999 VCSH FEW016 25/23 Q1015 NOSIG RMK VCSH
      NE=
METAR YBBN 180000Z 23006KT 180V270 9999 SCT040 27/18 Q1005=
METAR ZGGG 180000Z 06002MPS CAVOK 09/03 Q1022 NOSIG=


520 
SARS18 KAWN 180000 RRB
METAR URSS 180000Z 08003MPS 9999 -SHRA SCT014 OVC030CB 05/04 Q1027
      R06/290060 R02/////// NOSIG RMK R02/06002MPS MT OBSC QFE770=


521 
SANA14 KAWN 180000 RRB
METAR KNFL 172357Z 34012KT 10SM SCT180 SCT220 13/M09 A3009 RMK AO2
      SLP157 T01281094 10139 20067 53000 $=
METAR KNGP 172356Z 18014G23KT 10SM FEW028 BKN140 OVC250 18/16 A2982
      RMK AO2 SLP096 T01780156 56019=
METAR KNGU 172359Z 14005KT 10SM FEW250 04/M04 A3019 RMK SLP222 T00391039
      10072 20039 51008=
METAR KNLC 172356Z 03004KT 9SM CLR 18/01 A3016 RMK AO2 SLP215 RH/30
      T01830011 10189 20100 56013=
METAR KNLC 172356Z 03004KT 9SM CLR 18/01 A3016 RMK AO2 SLP215 RH/30
      T01830011 10189 20100 56013=
METAR KNPA 172356Z 15009KT 10SM BKN060 BKN150 BKN250 16/09 A3002 RMK
      AO2 SLP167 T01560094 10183 20156 58004 $=
METAR KNPA 172356Z 15009KT 10SM BKN060 BKN150 BKN250 16/09 A3002 RMK
      AO2 SLP167 T01560094 10183 20156 58004 $=
METAR KNQI 172356Z 16007KT 10SM FEW035 BKN140 BKN190 OVC250 21/17 A2981
      RMK AO2 SLP091 T02110167 10261 20211 55018 $=
METAR KNSI 172353Z AUTO 32016G23KT SCT009 A3016 RMK AO2 SLPNO 56010
      $=
METAR KNTU 172356Z 16005KT 10SM FEW250 02/M03 A3019 RMK AO2 SLP225
      T00171033 10078 20017 51009=
METAR KNXP 172356Z AUTO 30014G22KT 10SM CLR 18/M07 A3010 RMK AO2 SLP173
      T01831072 10194 20139 55004=
METAR KNYG 172356Z AUTO 18004KT 10SM CLR 03/ A3014 RMK AO2 SLP207 T0033
      10067 20033 53003 $=
METAR KWRB 172355Z AUTO 00000KT 10SM CLR 12/M02 A3006 RMK AO2 SLP183
      T01211018 10176 20121 53006 $=


522 
SAUS17 KAWN 180000 RRB
METAR KCOF 172355Z AUTO 04007KT 10SM BKN038 M M RMK AO2 SLPNO RVRNO
      TSNO $=
METAR KMCC 172355Z AUTO 16007KT 10SM CLR 15/04 A3017 RMK AO2 PWINO=
METAR KNBC 172356Z AUTO 09003KT 7SM CLR 06/03 A3012 RMK AO2 SLP200
      T00610028 10144 20061 50001=
METAR KNUQ 172355Z AUTO 34009KT 9SM CLR 12/08 A3021 RMK AO2=


531 
SPCN31 CWAO 180009
SPECI CYEG 180009Z 26003KT 3SM -SN OVC024 M10/M11 A3035 RMK SC8 SLP334=


712 
SABN31 OBBI 180000
METAR OBBI 180000Z 30014KT CAVOK 17/10 Q1016 NOSIG=
METAR OEDF 180000Z 31009KT CAVOK 12/01 Q1017 NOSIG=
METAR OEDR 180000Z 32012KT CAVOK 13/03 Q1016=
METAR OTBD 180000Z AUTO 30008KT CAVOK 17/10 Q1016 NOSIG=
METAR OTHH 180000Z AUTO 30009KT CAVOK 16/09 Q1016 NOSIG=
METAR OKKK 180000Z 30007KT 7000 NSC 12/06 Q1017 NOSIG=

713 
SAAM31 FCBB 180000
METAR FCBB 180000Z NIL=
METAR FCPP 180000Z VRB01KT 8000 FEW010 SCT023 FEW030CB 23/23 Q1011
NOSIG=
METAR FCOD 180000Z NIL=
METAR FEFF 180000Z VRB02KT 8000 NSC 23/20 Q1010 NOSIG=
METAR FEFT 180000Z NIL=
METAR FKKD 180000Z 00000KT 9999 -RA BKN013 FEW016CB 29/27 Q1010 TEMPO
4000 TSRA=
METAR FKYS 180000Z 26006KT 6000 BKN006 25/22 Q1014 NOSIG=
METAR FKKL 180000Z NIL=
METAR FKKN 180000Z NIL=
METAR FKKR 180000Z NIL=

568 
SAAN40 FNLU 180000
METAR FNCA 180000Z AUTO 08006KT //// NCD 24/22 Q////=
METAR FNCT 180000Z AUTO 13003KT 9999 ////// ///// Q////=
METAR FNGI 180000Z AUTO 27007KT 9999 // NCD 27/13 Q1017=
METAR FNHU 180000Z NIL=
METAR FNLU 180000Z 12005KT 9000 OVC021 26/23 Q1012=
METAR FNSO 180000Z NIL=
METAR FNUB 180000Z AUTO 36005KT 320V040 9999 ////// 16/15 Q1024=
METAR FNUE 180000Z AUTO /////KT //// ////// ///// Q////=

601 
SAUS46 KLOX 180011
MTRFHM
METAR KFHM 180010Z 11001KT 15/08


666 
SPAK40 KNKA 180011
SPECI PAGH 180010Z AUTO 11033G42KT 1 3/4SM -SN BKN037 OVC048 M11/M13 
    A3005 RMK AO2 PK WND 11045/2359 P0000 FZRANO $=
SPECI PAHL 180010Z AUTO 08013G21KT 1/2SM SN FZFG OVC015 M12/M14 
    A3001 RMK AO2 P0000 FZRANO TSNO=
SPECI PAWM 180010Z AUTO 12022G29KT 1/2SM -SN FZFG FEW005 BKN010 
    OVC015 M03/M03 A2961 RMK AO2 PK WND 12029/0002 CIG 009V014 P0000 
    FZRANO $=


816 
SAIN31 EGGY 180000 RRA
METAR VOBL 180000Z 09008KT 1500 R09R/2000 R09L/2000 BR FEW008 17/15
    Q1016 NOSIG=
METAR VOCL 180000Z 09005KT 5000 BR FEW012 22/18 Q1009 NOSIG=


159 
SAUS41 EQYG 180011
MTRXXA
SPECI EQYG 180010Z AUTO 06004KT 10SM FEW026 13/ A3040 RMK AO2 T0128 
PWINO $


280 
SPCN43 CWAO 180011
SPECI CZVL 180011Z AUTO 30004KT 2SM -SN BKN016 OVC055 M09/M10 A3036 RMK ICE INTMT SLP333=


281 
SPCN47 CWAO 180011
SPECI CYXR 180011Z AUTO 17022G29KT 9SM -FZRA -SN OVC018 M02/M04 A2943 RMK ICE MISG SLP982=


282 
SPCN43 CWAO 180011
SPECI CYYN 180011Z AUTO 32014KT 9SM OVC011 M15/M18 A3021 RMK SLP300=


283 
SPCN42 CWAO 180011
SPECI CYDQ 180011Z AUTO 30008KT 6SM -SN FEW014 BKN033 M13/M16 A3066 RMK SLP443=


427 
SAAW32 KWBC 180000 RRB
METAR
OTBD 180000Z AUTO 30008KT CAVOK 17/10 Q1016 NOSIG=


428 
SAAG31 KWBC 180000 RRA
METAR
SARF 180000Z 14003KT 8000 NSC 31/21 Q1006=


429 
SPUS70 KWBC 180012
SPECI
KACV 180008Z AUTO 32005KT 10SM BKN017 09/06 A3022 RMK AO2
     T00890061=
KBDE 180008Z AUTO 31020G33KT 1 3/4SM -SN FEW014 OVC034 M09/M13
     A2978 RMK AO2 PK WND 32033/0004 SNB00 P0000 T10891133=
PFSH 180009Z AUTO 13024KT 3SM -SN BR SCT015 BKN022 OVC033 M03/M04
     A2968 RMK AO2 PK WND 13029/2359 P0000 FZRANO TSNO=
PADU 180009Z 31008KT 2SM -RA BR OVC012 04/03 A2893 RMK AO2
     P0001=
PASK 180009Z AUTO 08019KT 1/2SM -SN FZFG SCT013 OVC038 M09/M11
     A2992 RMK AO2 P0000 FZRANO=
PAGH 180010Z AUTO 11033G42KT 1 3/4SM -SN BKN037 OVC048 M11/M13
     A3005 RMK AO2 PK WND 11045/2359 P0000 FZRANO $=
PAHL 180010Z AUTO 08013G21KT 1/2SM SN FZFG OVC015 M12/M14 A3001
     RMK AO2 P0000 FZRANO TSNO=
KHIB 180009Z AUTO 31027G35KT 2SM -SN BKN028 OVC032 M08/M14 A2961
     RMK AO2 PK WND 32035/0008 SNB04 PRESRR P0000 T10781144=
KLAR 180009Z AUTO 05011KT 1SM -SN BR VV010 M08/M11 A2981 RMK AO2
     P0000 T10831106=
KRSW 180009Z 08007KT 2SM BR HZ OVC007 17/17 A3006 RMK AO1 P0001
     T01670167=


430 
SAUS70 KWBC 180000 RRX
METAR
KBGR 172353Z COR 00000KT 10SM CLR M09/M13 A3006 RMK AO2 SLP186
     4/001 T10941133 11011 21106 51017=
KITH 172356Z 19008KT 10SM OVC034 M01/M04 A2995=
KLOM 172350Z AUTO 00000KT 10SM CLR M03/M05 A3012 RMK AO2 T10261052
     10053 21029 400531127=
KUWL 172350Z AUTO 16010KT 10SM CLR 04/M01 A2975 RMK A01=
KACZ 180000Z AUTO 00000KT 10SM CLR 03/M01 A3017 RMK AO2
     T00301014=
KETC 172355Z AUTO 14007KT 10SM CLR 06/M02 A3017 RMK AO2 T00561017
     10116 20026 401161024=
KOCW 180000Z AUTO 14007KT 10SM CLR 03/M02 A3020 RMK AO2
     T00321021=
KW40 180000Z AUTO 15008KT 10SM CLR 05/M01 A3016 RMK AO2
     T00511008=


431 
SAUS70 KWBC 180012
METAR
KBEA 180015Z AUTO 20010KT 10SM CLR 20/13 A2980 RMK AO2
     T01950125=
KIUA 180015Z AUTO 18003KT 10SM CLR 00/M05 A2990 RMK AO2
     T10041053=
KPLD 180015Z AUTO 18014G19KT 10SM CLR 04/M06 A2972 RMK AO2=
K08D 180015Z AUTO 33016KT 10SM -SN OVC018 M13/M16 A3011 RMK
     AO2=
KBFR 180015Z AUTO 16007KT 10SM CLR 05/M01 A2976 RMK AO2=
KD50 180015Z AUTO 33015G20KT 10SM FEW006 FEW012 FEW120 M16/M20
     A3019 RMK AO2=
KLDJ 180015Z AUTO 00000KT 10SM SCT050 03/M05 A3013 RMK AO2
     T00251055=
KPMH 180005Z AUTO 00000KT 10SM CLR 02/M03 A2990 RMK AO2=
KGZN 172340Z AUTO 25019G27KT 1 3/4SM HZ SCT026 19/M02 A2963 RMK
     AO2=
KMHV 172340Z AUTO 30020G33KT 10SM CLR 14/M10 A3006 RMK AO2=
K0W3 180005Z AUTO 17005KT 10SM CLR 00/M05 A3011 RMK AO2 T00011052
     $=
K1A5 180010Z AUTO 00000KT 10SM CLR 05/M04 A3005 RMK AO2
     T00511043=
K24A 180010Z AUTO 15010G15KT 130V190 10SM CLR 06/M06 A3002 RMK AO2
     T00571062=
K2C8 180015Z AUTO 33017G27KT 3SM BR FEW031 M13/M14 A3003 RMK
     AO2=
K2G4 180005Z AUTO 17010KT 10SM CLR M02/M06 A2991 RMK AO2=
K2W6 180010Z AUTO 12003KT 10SM CLR 01/M04 A3016 RMK AO1=
KAFP 180017Z AUTO 00000KT 10SM CLR 05/M03 A3012 RMK AO2
     T00451034=
KANQ 180015Z AUTO 17007KT 10SM CLR 01/M01 A2966 RMK AO2=
KASJ 180005Z AUTO 12004KT 10SM CLR 03/M03 A3017 RMK AO2
     T00281032=
KCCO 180015Z AUTO 00000KT 10SM CLR 12/M06 A3005 RMK AO2
     T01201060=
KCGE 180005Z AUTO 14004KT 10SM CLR M02/M05 A3016 RMK A01=
KCGS 180005Z AUTO 00000KT 10SM CLR M01/M05 A3013 RMK AO2
     T10131045=
KCPC 180010Z AUTO 00000KT 10SM CLR 07/M01 A3017 RMK AO2
     T00651010=
KCTZ 180005Z AUTO 14005KT 10SM CLR 06/00 A3016 RMK AO2
     T00610000=
KDMW 180005Z AUTO 15004KT 10SM CLR 02/M05 A3007 RMK AO2=
KDPL 180005Z AUTO 16005KT 10SM CLR 05/M01 A3017 RMK AO2=
KEDE 180005Z AUTO 13005KT 10SM CLR 04/01 A3020 RMK AO2
     T00400007=
KEHO 180015Z AUTO 00000KT 10SM CLR 08/M05 A3008 RMK AO2
     T00801054=
KEXX 180005Z AUTO 00000KT 10SM CLR 06/M04 A3010 RMK AO2
     T00561045=
KEYF 180005Z AUTO 14007KT 10SM CLR 06/M01 A3016 RMK AO2
     T00641012=
KFFA 180005Z AUTO 00000KT 10SM CLR 02/M03 A3020 RMK AO2
     T00201027=
KFME 180009Z AUTO 14003KT 10SM CLR M01/M03 A3015 RMK AO1=
KFQD 180005Z AUTO 00000KT 10SM CLR 07/M06 A3009 RMK AO2=
KFRR 172315Z AUTO 00000KT 10SM CLR 02/M06 A3005 RMK AO1=
KGEV 180010Z AUTO 18005KT 10SM CLR 02/M06 A3003 RMK AO2
     T00241065=
KGPH 180015Z AUTO 33005KT 10SM BKN055 06/00 A2963 RMK AO2=
KGWW 180015Z AUTO 14006KT 10SM CLR 05/M02 A3016 RMK AO2
     T00481022=
KHBI 180010Z AUTO 00000KT 10SM CLR 03/M05 A3012 RMK AO2
     T00321048=
KHNZ 180005Z AUTO 14003KT 10SM CLR 04/M06 A3011 RMK AO2
     T00361063=
KHRJ 180010Z AUTO 11003KT 10SM CLR 03/M02 A3014 RMK AO2
     T00301025=
KIPJ 180005Z AUTO 00000KT 10SM CLR 03/M03 A3008 RMK AO2
     T00341028=
KIXA 180020Z AUTO 00000KT 10SM CLR 03/M01 A3015 RMK AO2=
KJXI 180235Z AUTO 16008G14KT 10SM CLR 12/07 A2972 RMK AO2
     T01240071=
KJYO 180015Z AUTO 16006KT 10SM CLR 03/M03 A3010 RMK AO2=
KLHZ 180010Z AUTO 00000KT 10SM CLR 03/M04 A3014 RMK AO2=
KMCJ 180015Z AUTO 19007G18KT 170V230 10SM CLR 18/15 A2978 RMK
     A01=
KMCZ 180005Z AUTO 12005KT 10SM CLR 04/M01 A3019 RMK AO2
     T00381011=
KMQI 180010Z AUTO 00000KT 10SM CLR 00/M03 A3021 RMK AO2
     T00041030=
KMRN 180005Z AUTO 00000KT 10SM CLR 03/M03 A3007 RMK AO2
     T00281034=
KMWK 180010Z AUTO 00000KT 10SM CLR 04/M04 A3008 RMK AO2
     T00431043=
KONX 180010Z AUTO 13003KT 10SM CLR 01/M02 A3020 RMK AO2
     T00061024=
KPGV 180010Z AUTO 15008KT 7SM CLR 05/00 A3018 RMK AO2=


432 
SPXX60 KWBC 180012
SPECI
KRCA 180006Z AUTO 34020G25KT 6SM -SN FEW002 FEW009 BKN015 OVC025
     M05/M09 A2999 RMK AO2 CIG 013 RWY13 SLP188 $=


433 
SAXX60 KWBC 180000 RRI
METAR
KNXP 172356Z AUTO 30014G22KT 10SM CLR 18/M07 A3010 RMK AO2 SLP173
     T01831072 10194 20139 55004=
KCOF 172355Z AUTO 04007KT 10SM BKN038 M M RMK AO2 SLPNO RVRNO TSNO
     $=
KMCC 172355Z AUTO 16007KT 10SM CLR 15/04 A3017 RMK AO2 PWINO=
KNBC 172356Z AUTO 09003KT 7SM CLR 06/03 A3012 RMK AO2 SLP200
     T00610028 10144 20061 50001=
KNUQ 172355Z AUTO 34009KT 9SM CLR 12/08 A3021 RMK AO2=
KNFL 172357Z 34012KT 10SM SCT180 SCT220 13/M09 A3009 RMK AO2
     SLP157 T01281094 10139 20067 53000 $=
KNGP 172356Z 18014G23KT 10SM FEW028 BKN140 OVC250 18/16 A2982 RMK
     AO2 SLP096 T01780156 56019=
KNGU 172359Z 14005KT 10SM FEW250 04/M04 A3019 RMK SLP222 T00391039
     10072 20039 51008=
KNLC 172356Z 03004KT 9SM CLR 18/01 A3016 RMK AO2 SLP215 RH/30
     T01830011 10189 20100 56013=
KNLC 172356Z 03004KT 9SM CLR 18/01 A3016 RMK AO2 SLP215 RH/30
     T01830011 10189 20100 56013=
KNPA 172356Z 15009KT 10SM BKN060 BKN150 BKN250 16/09 A3002 RMK AO2
     SLP167 T01560094 10183 20156 58004 $=
KNPA 172356Z 15009KT 10SM BKN060 BKN150 BKN250 16/09 A3002 RMK AO2
     SLP167 T01560094 10183 20156 58004 $=
KNQI 172356Z 16007KT 10SM FEW035 BKN140 BKN190 OVC250 21/17 A2981
     RMK AO2 SLP091 T02110167 10261 20211 55018 $=
KNSI 172353Z AUTO 32016G23KT SCT009 A3016 RMK AO2 SLPNO 56010
     $=
KNTU 172356Z 16005KT 10SM FEW250 02/M03 A3019 RMK AO2 SLP225
     T00171033 10078 20017 51009=
KNXP 172356Z AUTO 30014G22KT 10SM CLR 18/M07 A3010 RMK AO2 SLP173
     T01831072 10194 20139 55004=
KNYG 172356Z AUTO 18004KT 10SM CLR 03/ A3014 RMK AO2 SLP207 T0033
     10067 20033 53003 $=
KWRB 172355Z AUTO 00000KT 10SM CLR 12/M02 A3006 RMK AO2 SLP183
     T01211018 10176 20121 53006 $=
PHNG 172357Z AUTO 36006KT 10SM SCT030 OVC037 A2990 RMK AO2 SLP122
     60001 56024 $=


434 
SAUS70 KWBC 180012 RRA
METAR
KPSK 180015Z AUTO 00000KT 10SM CLR 03/M06 A3003 RMK AO2
     T00331056=
KRCZ 180005Z AUTO 12003KT 10SM CLR 07/M03 A3012 RMK AO2
     T00651028=
KRUQ 180005Z AUTO 17003KT 10SM CLR 05/M05 A3010 RMK AO2
     T00541046=
KSIF 180005Z AUTO 00000KT 10SM CLR 01/M05 A3009 RMK AO2
     T00111051=
KSUT 180009Z AUTO 06003KT 10SM CLR 05/01 A3016 RMK AO2=
KSVH 180005Z AUTO 00000KT 10SM CLR 06/M05 A3009 RMK AO2
     T00601050=
KTDF 180010Z AUTO 00000KT 10SM CLR 01/M05 A3012 RMK AO2=
KTTA 180010Z AUTO 00000KT 10SM CLR 03/M03 A3012 RMK AO2
     T00251035=
KUKF 180010Z AUTO 17004KT 10SM CLR 05/M05 A3012 RMK AO2=
KVUJ 180010Z AUTO 00000KT 10SM CLR 02/M04 A3014 RMK AO2
     T00181036=
KW29 180005Z AUTO 15004KT 10SM CLR 01/M05 A3015 RMK AO2
     T00071048=


435 
SABZ41 KWBC 180000 RRA
METAR
SBBH 180000Z 10004KT CAVOK 24/19 Q1018=
SBBI 180000Z 33003KT 9999 SCT013 BKN100 21/20 Q1017=
SBBU 180000Z 07003KT 9999 FEW030 24/22 Q1015=
SBCO 180000Z 10006KT 9999 FEW040 24/23 Q1008=
SBDN 180000Z 08004KT 9000 -TSRA BKN033 FEW045CB BKN082 23/22
     Q1012=
SBIL 180000Z 13005KT 9999 FEW020 27/22 Q1015=


436 
SAAW42 KWBC 180000 RRA
METAR
OBBI 180000Z 30014KT CAVOK 17/10 Q1016 NOSIG=


437 
SAAW33 KWBC 180000 RRA
METAR
OBBI 180000Z 30014KT CAVOK 17/10 Q1016 NOSIG=


438 
SAXX60 KWBC 180000 CCG
METAR
KNXP 172356Z AUTO 30014G22KT 10SM CLR 18/M07 A3010 RMK AO2 SLP173
     T01831072 10194 20139 55004=


439 
SAPQ50 KWBC 180000 RRE
METAR
PTKK 172351Z 11007G17KT 15SM FEW014 BKN280 30/25 A2980 RMK SLP094
     8/101 T03040254 10304 20280 50007=
PTYA 172352Z 08010KT 12SM FEW016 BKN300 30/25 A2984 RMK SLP105
     8/101 T03030254 10303 20267 52022=


440 
SAAF34 KWBC 180000 RRA
METAR
FEFF 180000Z VRB02KT 8000 NSC 23/20 Q1010 NOSIG=


441 
SAUS80 KWBC 180012
METAR
K9MN 180003Z AUTO 30017G30KT 10SM SCT026 OVC035 M01/M07 A2959 RMK
     AO1=
KAID 180015Z AUTO 17010G16KT 10SM CLR 04/M02 A2973 RMK AO2
     T00401025=
KCBE 180005Z AUTO 33005KT 10SM CLR M01/M05 A3007 RMK AO2
     T10081051=
KJNX 180010Z AUTO 00000KT 10SM CLR 01/M02 A3013 RMK AO2=


442 
SAUS80 KWBC 180000 RRH
METAR
KBUF 172354Z COR 18012KT 10SM BKN130 OVC170 02/M04 A2985 RMK AO2
     SLP116 4/004 60000 T00171044 10017 20006 58016=


443 
SAPQ31 KWBC 180000 RRB
METAR
PTTP 172352Z 09009KT 15SM SCT018 BKN300 31/25 A2985=


444 
SAIO31 KWBC 180000 RRB
METAR
FMMT 180000Z NIL=
FMNN 180000Z NIL=


445 
SAID31 KWBC 180000 RRA
METAR
WAJJ 180000Z VRB02KT 9999 FEW012 29/25 Q1009=
WAKK 180000Z 32007KT 9999 SCT015 29/25 Q1008 NOSIG=
WAMM 180000Z VRB01KT 8000 SCT019 27/25 Q1012 NOSIG METAR WADL
     NIL=
WAPP 180000Z 10004KT 060V150 9999 FEW017 30/25 Q1008 NOSIG=
WIBB 180000Z 00000KT 9000 SCT013 24/24 Q1009 NOSIG=
WIOO 180000Z 06002KT 9000 SCT012 25/25 Q1008 NOSIG=
WIPP 180000Z 30006KT 9999 SCT012 25/24 Q1009 NOSIG=


446 
SACA35 KWBC 180000 RRB
METAR
MPTO 180000Z AUTO 07007KT 9999 NCD 27/23 Q1012 NOSIG=


447 
SPCN31 KWBC 180012
SPECI
CYDQ 180011Z AUTO 30008KT 6SM -SN FEW014 BKN033 M13/M16 A3066 RMK
SLP443=


448 
SAAF33 KWBC 180000 RRA
METAR
FNHU 180000Z NIL=
FNLU 180000Z 12005KT 9000 OVC021 26/23 Q1012=


449 
SAAF32 KWBC 180000 RRA
METAR
FCBB 180000Z NIL=
FCPP 180000Z VRB01KT 8000 FEW010 SCT023 FEW030CB 23/23 Q1011
     NOSIG=
FEFT 180000Z NIL=
FKKD 180000Z 00000KT 9999 -RA BKN013 FEW016CB 29/27 Q1010 TEMPO
     4000 TSRA=
FKKL 180000Z NIL=
FKKN 180000Z NIL=
FKKR 180000Z NIL=
FMNM 180000Z 25004KT 170V290 9999 FEW020CB 27/25 Q1008=
FTTJ 180000Z 04003KT 6000 NSC 21/04 Q1010 NOSIG=


450 
SABZ43 KWBC 180000 RRA
METAR
SBAN 180000Z 34006KT 9999 FEW005 20/20 Q1019=
SBES 180000Z 06011G21KT 020V090 9999 VCTS FEW025CB 26/25 Q1014=
SBKG 180000Z 09012KT 9999 SCT020 24/20 Q1017=
SBLB 180000Z AUTO 06015KT 9999 NCD 27/25 Q1015 W28/S4=
SBMK 180000Z 00000KT CAVOK 25/21 Q1016=
SBMS 180000Z AUTO 06009KT CAVOK 28/23 Q1013=
SBUL 180000Z 11005KT 9999 FEW030 FEW040TCU SCT100 22/21 Q1018=


451 
SPCN31 KWBC 180012
SPECI
CYEG 180009Z 26003KT 3SM -SN OVC024 M10/M11 A3035 RMK SC8 SLP334=


452 
SABZ42 KWBC 180000 RRA
METAR
SBJR 180000Z 28001KT CAVOK 26/25 Q1011=
SBME 180000Z 05010KT CAVOK 28/24 Q1014=
SBMT 180000Z 29004KT 240V340 9999 FEW045 SCT070 24/21 Q1017=
SBSC 180000Z 17005KT CAVOK 25/22 Q1012=
SBSM 180000Z 04002KT 9999 FEW045 26/23 Q1008=
SBTU 180000Z AUTO 14004KT 9999 // NCD 24/23 Q1014=
SBUR 180000Z 02004KT CAVOK 25/21 Q1017=
SBYS 180000Z VRB02KT 9999 SCT030 FEW035TCU BKN080 23/20 Q1016
     RETS=


453 
SAAF31 KWBC 180000 RRA
METAR
DBBB 180000Z 23009KT 9999 FEW012 29/27 Q1011 NOSIG=
DGAA 180000Z 23010KT 8000 FEW015 28/26 Q1012 NOSIG=
DGSI 180000Z NIL=
DNAA 180000Z 11006KT 4000 HZ NSC 23/14 Q1012 NOSIG=
DNCA 180000Z NIL=
DNIL 180000Z 00000KT CAVOK 24/11 Q1013=
DNKA 180000Z NIL=
DNKN 180000Z NIL=
DNMA 180000Z NIL=
DNMM 180000Z 19005KT 7000 NSC 28/26 Q1012 NOSIG=
DNPO 180000Z 24003KT 6000 NSC 28/25 Q1010 NOSIG=
DNSO 180000Z 09003KT CAVOK 20/11 Q1014=
DRRN 180000Z 35010KT CAVOK 23/M03 Q1014 NOSIG=
DRZA 180000Z NIL=
DXNG 180000Z NIL=
DXXX 180000Z 24011KT 8000 FEW013 29/26 Q1012 NOSIG=


457 
SAXX61 KWBC 180000 RRC
METAR
EGUL 172355Z AUTO 19006KT 9999 OVC008 03/00 A3053=
EGUN 172355Z AUTO 21004KT 9999 OVC008 03/01 A3053=
EGVA 172355Z AUTO 22005KT 9999 OVC009 03/01 A3051=


611 
SPCN44 CWAO 180011
SPECI CYVT 180011Z AUTO 32015G21KT 9SM FEW008 SCT028 M22/M25 A3044 RMK SLP362=


612 
SPNA14 KAWN 180012
SPECI KRCA 180006Z AUTO 34020G25KT 6SM -SN FEW002 FEW009 BKN015 OVC025
      M05/M09 A2999 RMK AO2 CIG 013 RWY13 SLP188 $=


614 
SAXX70 KAWN 180000 RRE
METAR KQEV 180010Z AUTO 31001KT 6000 HZ CLR M06/M09 A3031 RMK A02 TSNO=
METAR KQFT 180010Z AUTO 03001KT 6000 CLR M07/M09 A3033 RMK A02 TSNO=


615 
SAUS14 KAWN 180000 RRK
METAR KDUB 180003Z AUTO 00000KT 4SM -SN SCT025 BKN030 OVC037 M11/M13
      A2987 RMK AO2=
METAR KL18 180015Z AUTO 22005KT 10SM CLR 13/07 A3016 RMK AO2=
METAR KMER 172355Z 00000KT 7 HZSM CLR 15/03 A3016=
METAR KMHS 172356Z AUTO 00000KT 10SM CLR 10/01 A3016 RMK AO2 SLP239
      T01000006 10111 20039 55003 PNO=
METAR KNFL 172357Z 34012KT 10SM SCT180 SCT220 13/M09 A3009 RMK AO2
      SLP157 T01281094 10139 20067 53000 $=
METAR KNGP 172356Z 18014G23KT 10SM FEW028 BKN140 OVC250 18/16 A2982
      RMK AO2 SLP096 T01780156 56019=
METAR KNLC 172356Z 03004KT 9SM CLR 18/01 A3016 RMK AO2 SLP215 RH/30
      T01830011 10189 20100 56013=
METAR KNQI 172356Z 16007KT 10SM FEW035 BKN140 BKN190 OVC250 21/17 A2981
      RMK AO2 SLP091 T02110167 10261 20211 55018 $=
METAR KNSI 172353Z AUTO 32016G23KT SCT009 A3016 RMK AO2 SLPNO 56010
      $=
METAR KNXP 172356Z AUTO 30014G22KT 10SM CLR 18/M07 A3010 RMK AO2 SLP173
      T01831072 10194 20139 55004=
METAR KWHP 180000Z 00000KT 10SM SKC 15/05 A3015=


616 
SANA35 KAWN 180000 RRB
METAR KNBC 172356Z AUTO 09003KT 7SM CLR 06/03 A3012 RMK AO2 SLP200
      T00610028 10144 20061 50001=
METAR KNGP 172356Z 18014G23KT 10SM FEW028 BKN140 OVC250 18/16 A2982
      RMK AO2 SLP096 T01780156 56019=
METAR KNGU 172359Z 14005KT 10SM FEW250 04/M04 A3019 RMK SLP222 T00391039
      10072 20039 51008=
METAR KNPA 172356Z 15009KT 10SM BKN060 BKN150 BKN250 16/09 A3002 RMK
      AO2 SLP167 T01560094 10183 20156 58004 $=
METAR KNPA 172356Z 15009KT 10SM BKN060 BKN150 BKN250 16/09 A3002 RMK
      AO2 SLP167 T01560094 10183 20156 58004 $=
METAR COR MDSD 180000Z 04005KT 9999 BKN018 25/23 Q1018=
METAR MKJS 180000Z 10007KT 9999 BKN022 26/22 Q1016=
METAR SAWH 180000Z 24026G36KT 9999 SCT040 10/03 Q0997=
METAR SAZS 180000Z 29017KT CAVOK 15/04 Q1019=


618 
SAUK39 EGGY 180000
METAR EGUN 172355Z AUTO 21004KT 9999 OVC008 03/01 A3053=


679 
SAZZ40 KAWN 180000 RRG
METAR DBBB 180000Z 23009KT 9999 FEW012 29/27 Q1011 NOSIG=
METAR DFFD 180000Z 36006KT CAVOK 23/M01 Q1015 NOSIG=
METAR FKKD 180000Z 00000KT 9999 -RA BKN013 FEW016CB 29/27 Q1010 TEMPO
      4000 TSRA=
METAR FKYS 180000Z 26006KT 6000 BKN006 25/22 Q1014 NOSIG=
METAR KMIB 172355Z COR 34013KT 10SM FEW025 M13/M17 A3007 RMK AO2A SLP217
      4/004 60000 T11301170 11085 21131 52029 $ COR 0010=
METAR KNGU 172359Z 14005KT 10SM FEW250 04/M04 A3019 RMK SLP222 T00391039
      10072 20039 51008=
METAR KNSI 172353Z AUTO 32016G23KT SCT009 A3016 RMK AO2 SLPNO 56010
      $=
METAR KNXP 172356Z AUTO 30014G22KT 10SM CLR 18/M07 A3010 RMK AO2 SLP173
      T01831072 10194 20139 55004=
METAR KNXP 172356Z AUTO 30014G22KT 10SM CLR 18/M07 A3010 RMK AO2 SLP173
      T01831072 10194 20139 55004=
METAR COR MDSD 180000Z 04005KT 9999 BKN018 25/23 Q1018=
METAR MHCH 180000Z 01007KT 9999 FEW034 32/19=
METAR MHNO 180000Z 35004KT 9999 FEW040 25/16=
METAR MPTO 180000Z AUTO 07007KT 9999 NCD 27/23 Q1012 NOSIG=
METAR MRLM 180000Z 20002KT 9999 VCSH FEW015TCU BKN100 25/23 A2994=
METAR OKKK 180000Z 30007KT 7000 NSC 12/06 Q1017 NOSIG=
METAR SADF 180000Z 13013KT CAVOK 28/18 Q1012=
METAR SAWC 180000Z 24020KT 9999 FEW040 17/03 Q1011=
METAR SBKG 180000Z 09012KT 9999 SCT020 24/20 Q1017=
METAR SBMK 180000Z 00000KT CAVOK 25/21 Q1016=
METAR COR TKPK 180000Z 05010KT 9999 FEW020 25/22 Q1018=
METAR WMKJ 180000Z VRB01KT 7000 -RA FEW008 SCT020 25/24 Q1009=
METAR WMKK 180000Z VRB01KT 9999 FEW030 25/23 Q1010 NOSIG=
METAR WMKP 180000Z 04010G22KT 010V070 9000 FEW020 27/19 Q1009 NOSIG=
METAR WMSA 180000Z VRB01KT 9999 FEW017CB 25/24 Q1010=


036 
SAID32 WIII 180000
METAR WIBB 180000Z 00000KT 9000 SCT013 24/24 Q1009 NOSIG=
METAR WIEE 180000Z VRB02KT 9999 SCT020 24/23 Q1009 NOSIG=
METAR WIOO 180000Z 06002KT 9000 SCT012 25/25 Q1008 NOSIG=
METAR WIPP 180000Z 30006KT 9999 SCT012 25/24 Q1009 NOSIG=
METAR WALL 180000Z 36004KT 9999 FEW020 28/25 Q1009 NOSIG=
METAR WIDN 180000Z 36007KT 5000 -RA FEW016CB BKN020 26/25 Q1008 RMK
CB AT S=
METAR WAOO 180000Z 01004KT 9999 SCT018 26/25 Q1008 NOSIG=
METAR WAMM 180000Z VRB01KT 8000 SCT019 27/25 Q1012 NOSIG=
METAR WADL NIL=

037 
SAIN90 VAHS 180000
METAR VAHS 180000Z 05004KT 3000 BR NSC 16/13 Q1015 BECMG 1500 BR=

038 
SAAM36 FCBB 180000
METAR FOOL 180000Z NIL=
METAR FOOG 180000Z NIL=
METAR FOON 180000Z NIL=
METAR COR FNLU 180000Z 12005KT 9000 OVC021 26/23 Q1013=
METAR FNHU 180000Z NIL=
METAR FGSL 180000Z NIL=
METAR FGBT 180000Z 18008KT 9999 SCT010 27/25 Q1010=
METAR FPST 180000Z NIL=

039 
SAMG20 FMMI 180000
METAR FMMI 180000Z VRB02KT 9999 FEW014 SCT020 VV016 19/19 Q1017
NOSIG=

040 
SAAM34 FCBB 180000
METAR FZAA 180000Z 00000KT 6000 SCT014 23/21 Q1013 NOSIG=
METAR FZNA 180000Z NIL=
METAR FZIC 180000Z NIL=
METAR FZQA 180000Z NIL=
METAR FZWA 180000Z NIL=
METAR FZRF 180000Z NIL=

180 
SACN54 CWAO 180000 RRA
VXY SA 0000 AUTO8 M M M 384/-16/-18/1808/M/     SOG 43 6014 89MM=
WUM SA 0000 AUTO8 M M M 401/-15/-18/1306/M/ 6006 49MM=
XQH SA 0000 AUTO8 M M M 439/-19/-21/0000/M/     SOG 56 5002 58MM=


181 
SACN94 CWAO 180000 RRA
WQC SA 0000 AUTO8 M M M 327/02/00/0000/M/     5006 84MM=
WQD SA 0000 AUTO8 M M M M/-03/-07/2107/M/ M 00MM=
WQH SA 0000 AUTO8 M M M 164/-03/-07/1905/M/     SOG 12 1010 48MM=
WQK SA 0000 AUTO8 M M M 319/07/M/0808/M/ 5000 2MMM=
WQL SA 0000 AUTO8 M M M 322/-08/-12/3207/M/0002 3003 45MM=
WQM SA 0000 AUTO8 M M M M/-05/-08/0603/M/ M 07MM=
WQO SA 0000 AUTO8 M M M M/-03/-07/2010+15/M/ PK WND 2017 2328Z M 32MM=
WQP SA 0000 AUTO8 M M M 125/02/-01/1817/M/     PK WND 1919 2359Z SOG 06 8015 73MM=
WQQ SA 0000 AUTO8 M M M 330/-10/-13/0000/M/     SOG 13 3009 00MM=
WQR SA 0000 AUTO8 M M M M/-05/-09/3309/M/ M 12MM=
WQV SA 0000 AUTO8 M M M M/-05/-09/0202/M/ M 44MM=
WRA SA 0000 AUTO8 M M M 151/-04/-06/3405/M/     1012 32MM=
WRD SA 0000 AUTO8 M M M 430/-18/-21/0204/M/M SOG 22 2029 01MM=
WRJ SA 0000 AUTO8 M M M 317/-16/-19/2703/M/     SOG 16 3013 88MM=
WRK SA 0000 AUTO8 M M M 092/-02/-06/1704/M/     SOG 15 8013 37MM=
WRM SA 0000 AUTO8 M M M 303/-09/-11/1101/M/0002 PCPN 0.2MM PAST HR SOG 17 3011 43MM=
WRT SA 0000 AUTO8 M M M 291/-08/-15/1704/M/ 5002 52MM=
WRV SA 0000 AUTO8 M M M 336/-11/-13/0704/M/0004 PCPN 0.4MM PAST HR SOG 39 3011 21MM=
WRY SA 0000 AUTO8 M M M 316/-11/-14/3504/M/     SOG 18 3003 15MM=
WRZ SA 0000 AUTO8 M M M 158/-05/-10/2207/M/ 1018 01MM=
WSB SA 0000 AUTO8 M M M 306/07/01/2902/M/M 3001 04MM=
WSD SA 0000 AUTO8 M M M 176/-14/-15/2102/M/     3021 93MM=
WSF SA 0000 AUTO8 M M M 158/-06/-09/0000/M/0002 SOG 37 1016 44MM=
WSG SA 0000 AUTO8 M M M 157/-10/-13/1907/M/     1013 40MM=
WSK SA 0000 AUTO8 M M M 318/01/-02/0601/M/     5001 68MM=
WSL SA 0000 AUTO8 M M M 292/03/-07/2904/M/     3003 73MM=
WSN SA 0000 AUTO8 M M M 087/01/-03/MMMM/M/     SOG 09 6019 82MM=
WSP SA 0000 AUTO8 M M M 323/07/00/1211/M/     5003 14MM=
WSR SA 0000 AUTO8 M M M 321/-19/-22/3110/M/     SOG 13 3018 84MM=
WST SA 0000 AUTO8 M M M 149/-05/-08/2103/M/     SOG 13 3014 41MM=
WSU SA 0000 AUTO8 M M M 138/-13/-19/3215+22/M/     PK WND 3330 2313Z PRESRR SOG 37 3066 47MM=
WSV SA 0000 AUTO8 M M M 314/-02/-06/2401/M/     SOG 47 3006 46MM=
WSY SA 0000 AUTO8 M M M 427/-25/-27/MM06/M/     SOG 37 8002 59MM=


182 
SACN93 CWAO 180000 RRA
GCL SA 0000 AUTO8 M M M 160/-13/-14/2801/M/     SOG 08 1017 00MM=
MJN SA 0000 AUTO8 M M M 167/-10/-12/0503/M/     1019 95MM=
WMX SA 0000 AUTO8 M M M 413/-22/-25/3304/M/     SOG 34 3020 11MM=
WNC SA 0000 AUTO8 M M M 108/02/-02/2016/M/M PK WND 2222 2322Z SOG 07 8015 37MM=
WNE SA 0000 AUTO8 M M M 172/-05/-10/2705/M/     3021 63MM=
WNH SA 0000 AUTO8 M M M 150/-06/-09/1703/M/     SOG 24 3010 57MM=
WNK SA 0000 AUTO8 M M M 200/-14/-18/3211+18/M/0004 PCPN 0.2MM PAST HR PK WND 3324 2322Z 1050 16MM=
WNM SA 0000 AUTO8 M M M 274/00/-04/1603/M/     3003 12MM=
WNP SA 0000 AUTO8 M M M 286/01/-03/3601/M/     SOG 05 3001 72MM=
WNQ SA 0000 AUTO8 M M M 150/-03/-06/1704/M/     1004 24MM=
WNR SA 0000 AUTO8 M M M 247/-17/-19/3605/M/ 3006 59MM=
WNZ SA 0000 AUTO8 M M M 878/00/-01/2106/M/0007 PCPN 0.2MM PAST HR SOG 32 6008 -43MM=
WOC SA 0000 AUTO8 M M M 165/-09/-14/3605/M/     1019 56MM=
WOJ SA 0000 AUTO8 M M M 190/-16/-20/3320+28/M/0005 PK WND 3231 2302Z 1045 09MM=
WON SA 0000 AUTO8 M M M 411/-25/-28/0903/M/     SOG 47 8015 88MM=
WPA SA 0000 AUTO8 M M M 358/-13/-15/3307/M/0014 PCPN 0.3MM PAST HR SOG 40 3029 74MM=
WPD SA 0000 AUTO8 M M M 140/-11/-12/1905/M/0002 PCPN 0.2MM PAST HR 3008 62MM=
WPE SA 0000 AUTO8 M M M 184/-03/-11/3104/M/M 1022 64MM=
WPG SA 0000 AUTO8 M M M 205/-15/-20/3117/M/     PK WND 3127 2338Z PRESRR SOG 23 3054 27MM=
WPL SA 0000 AUTO8 M M M 015/-15/-18/3511+25/M/0016 PK WND 3529 2344Z PRESRR SOG 30 1066 67MM=
WPR SA 0000 AUTO8 M M M 322/-03/-07/0801/M/     SOG 16 5003 91MM=
WPZ SA 0000 AUTO8 M M M 363/-03/M/0000/M/     SOG 23 3009 5MMM=
WQB SA 0000 AUTO8 M M M 148/-06/-07/0000/M/     SOG 11 3006 54MM=


183 
SACN63 CWAO 180000 RRA
NVQ SA 0000 AUTO8 M M M 403/-23/-26/1311/M/     SOG 42 8030 25MM=
NYE SA 0000 AUTO8 M M M 467/-31/-34/2906/M/     SOG 43 1018 79MM=
WMT SA 0000 AUTO8 M M M 480/-31/-34/3006/M/     SOG 28 3007 11MM=
XAR SA 0000 AUTO8 M M M 167/-32/-34/3426+32/M/     PK WND 3433 2315Z SOG 31 3027 65MM=
ZEV SA 0000 AUTO8 M M M 365/-25/-27/1306/M/     SOG 39 8018 59MM=
ZFS SA 0000 AUTO8 M M M 487/-26/-29/2302/M/0002 SOG 23 8001 51MM=
ZHY SA 0000 AUTO8 M M M 481/-26/-30/3107/M/     SOG 06 1015 45MM=
ZSM SA 0000 AUTO8 M M M 447/-28/-31/3403/M/     SOG 36 2027 86MM=


184 
SACN82 CWAO 180000 RRA
GAH SA 0000 AUTO8 M M M 055/-14/-17/1707/M/     SOG 34 8013 61MM=
GBC SA 0000 AUTO8 M M M 146/-05/-08/1707/M/     SOG 11 1007 89MM=
GCH SA 0000 AUTO8 M M M 074/-12/-14/1606/M/     SOG 44 8018 69MM=
GMG SA 0000 AUTO8 M M M 012/-10/-12/1512+18/M/0016 PCPN 0.6MM PAST HR PK WND 1518 2358Z SOG 58 8040 41MM=
GRQ SA 0000 AUTO8 M M M 152/-04/-06/2008/M/     SOG 16 1005 71MM=
GSA SA 0000 AUTO8 M M M 157/-09/-10/2103/M/     SOG 22 2007 77MM=
GTL SA 0000 AUTO8 M M M 129/-05/-08/1301/M/     SOG 18 7005 97MM=
MBE SA 0000 AUTO8 M M M 137/-07/-08/1103/M/     SOG 22 3004 08MM=
MFM SA 0000 AUTO8 M M M 142/-10/-11/2103/M/     SOG 46 1009 88MM=
MFX SA 0000 AUTO8 M M M 012/-18/-20/3304/M/     SOG 04 3005 99MM=
MGB SA 0000 AUTO8 M M M 160/-03/-06/2002/M/ SOG 21 1005 24MM=
MJI SA 0000 AUTO8 M M M 147/-06/-10/1405/M/     SOG 18 0005 31MM=
MJK SA 0000 AUTO8 M M M 007/-10/-14/2511/M/     SOG 29 1008 88MM=
MLU SA 0000 AUTO8 M M M 154/-04/-06/1805/M/     1003 20MM=
MNT SA 0000 AUTO8 M M M 144/-03/-08/1904/M/0002 1016 04MM=
MTH SA 0000 AUTO8 M M M 156/-07/-08/2004/M/     SOG 31 1008 77MM=
MUS SA 0000 AUTO8 M M M 161/-07/-09/1906/M/     SOG 18 1008 88MM=
WDM SA 0000 AUTO8 M M M 155/-11/-13/0103/M/     SOG 01 1015 31MM=


185 
SACN88 CWAO 180000 RRA
AAB SA 0000 AUTO8 M M M 166/-08/-09/3305/M/     3016 83MM=
AAW SA 0000 AUTO8 M M M 187/-06/-11/3503/M/     3026 17MM=
ABF SA 0000 AUTO8 M M M 153/-03/-08/0709/M/     1018 27MM=
ABH SA 0000 AUTO8 M M M 128/-05/-06/1102/M/     3015 86MM=
ACM SA 0000 AUTO8 M M M 167/-08/-10/2801/M/     SOG 05 1015 23MM=
ACP SA 0000 AUTO8 M M M 195/-04/-08/3405/M/     SOG 04 1030 24MM=
ADL SA 0000 AUTO8 M M M 161/-12/-13/1403/M/     SOG 03 1014 04MM=
AEI SA 0000 AUTO8 M M M 159/-05/-09/3107/M/     SOG 08 1026 22MM=
AFY SA 0000 AUTO8 M M M M/-10/-13/3403/M/     SOG 05 M 06MM=
AGL SA 0000 AUTO8 M M M 180/-12/-14/2701/M/     SOG 07 1023 10MM=
AHT SA 0000 AUTO8 M M M 185/-05/-08/0000/M/0001 SOG 26 2023 16MM=
AJH SA 0000 AUTO8 M M M 187/-12/-13/0000/M/     1023 92MM=
AJT SA 0000 AUTO8 M M M 159/-03/-07/0603/M/     1018 13MM=
AJW SA 0000 AUTO8 M M M 151/-03/-04/3101/M/     SOG 05 2011 68MM=
AKC SA 0000 AUTO8 M M M 178/-11/-14/2101/M/     3026 27MM=
AMR SA 0000 AUTO8 M M M 157/-06/-07/0000/M/     SOG 12 1014 73MM=
AMS SA 0000 AUTO8 M M M 180/-11/-14/2605/M/     SOG 13 1024 03MM=
ANH SA 0000 AUTO8 M M M M/-07/-12/2506/M/     SOG 08 M 79MM=
ANR SA 0000 AUTO8 M M M 189/-11/-11/2803/M/     SOG 09 3023 84MM=
AOH SA 0000 AUTO8 M M M 188/-11/-13/0402/M/     3024 29MM=
APB SA 0000 AUTO8 M M M 157/-03/-07/0707/M/     3017 61MM=
APR SA 0000 AUTO8 M M M 185/-12/-14/3102/M/     SOG 01 3022 43MM=
AQY SA 0000 AUTO8 M M M 155/-04/-05/2907/M/0019 PCPN 1.2MM PAST HR SOG 16 3025 28MM=
ARP SA 0000 AUTO8 M M M 171/-13/-15/1601/M/     SOG 10 1022 90MM=
ASB SA 0000 AUTO8 M M M 170/-01/-08/3014/M/     PK WND 3020 2339Z 1022 48MM=
ASF SA 0000 AUTO8 M M M 183/-10/-14/0701/M/     SOG 07 1024 09MM=
AUU SA 0000 AUTO8 M M M 152/-04/-06/3109/M/     SOG 02 3022 13MM=
AVA SA 0000 AUTO8 M M M 155/-02/-07/3408/M/     SOG 04 1013 02MM=
EQI SA 0000 AUTO8 M M M 191/-06/-09/1903/M/     SOG 113 1025 28MM=
ERM SA 0000 AUTO8 M M M 165/-07/-09/1201/M/     SOG 14 2015 22MM=
ESB SA 0000 AUTO8 M M M 207/-09/-11/0000/M/     SOG 04 1026 77MM=
EWD SA 0000 AUTO8 M M M 179/-08/-11/1702/M/     SOG 03 1020 98MM=
OSM SA 0000 AUTO8 M M M 952/02/00/1907/M/0001 SOG 12 6014 33MM=
WAR SA 0000 AUTO8 M M M 156/-03/-05/1106/M/     3015 00MM=
WBK SA 0000 AUTO8 M M M 180/-05/-10/3210/M/     SOG 07 1021 87MM=
WBV SA 0000 AUTO8 M M M 170/-05/-10/3212/M/ 2029 30MM=
WDA SA 0000 AUTO8 M M M M/-07/-09/2608/M/     SOG 14 1012 64MM=
WDO SA 0000 AUTO8 M M M 154/-04/-09/3004/M/     SOG 12 3013 88MM=
WKB SA 0000 AUTO8 M M M 145/-09/-10/0000/M/ 1017 35MM=
WNS SA 0000 AUTO8 M M M 165/-06/-08/0000/M/     SOG 61 1023 10MM=
WRN SA 0000 AUTO8 M M M 168/-04/-09/3017/M/ PK WND 3022 2322Z 1024 37MM=
WSS SA 0000 AUTO8 M M M 184/-11/-13/0000/M/     SOG 08 1022 81MM=
WXI SA 0000 AUTO8 M M M 155/-04/-10/3112/M/     1020 55MM=
WXS SA 0000 AUTO8 M M M 166/-09/-13/2104/M/     SOG 09 3020 44MM=
WZN SA 0000 AUTO8 M M M 131/-02/-06/0508/M/ 3014 35MM=
XGD SA 0000 AUTO8 M M M 168/-05/-07/3405/M/     SOG 12 2014 18MM=
XGM SA 0000 AUTO8 M M M 188/-11/-13/0000/M/     SOG 07 1023 77MM=
XKT SA 0000 AUTO8 M M M 186/-10/-13/1704/M/     SOG 03 3025 09MM=
XNP SA 0000 AUTO8 M M M 184/-10/-14/1804/M/     SOG 01 3023 48MM=
ZCR SA 0000 AUTO8 M M M 167/-08/-12/2304/M/     SOG 02 1020 30MM=
ZDB SA 0000 AUTO8 M M M 182/-13/-15/3402/M/     SOG 13 2022 34MM=
ZSP SA 0000 AUTO8 M M M 171/-07/-10/2408/M/     SOG 24 1018 53MM=


186 
SACN66 CWAO 180000 RRA
PIF SA 0000 AUTO8 M M M 275/-24/-29/3104/M/     SOG 51 3019 59MM=
PIL SA 0000 AUTO8 M M M 341/-18/-22/3504/M/     SOG 29 3015 62MM=
PMK SA 0000 AUTO8 M M M 287/-13/-17/3315+20/M/     PK WND 3321 2344Z 3014 47MM=
POX SA 0000 AUTO8 M M M 309/-16/-19/3209/M/     SOG 27 3013 74MM=
PPR SA 0000 AUTO8 M M M 300/-17/-22/3108/M/     SOG 21 3016 82MM=
PQW SA 0000 AUTO8 M M M 325/-17/-21/3210/M/     SOG 22 3018 30MM=
PRJ SA 0000 AUTO8 M M M 257/-18/-22/3315/M/     PK WND 3222 2326Z SOG 17 1026 03MM=
PSY SA 0000 AUTO8 M M M 318/-15/-18/3408/M/     SOG 38 3014 71MM=
PUN SA 0000 AUTO8 M M M 285/-17/-21/0000/M/     SOG 18 3012 39MM=
PWX SA 0000 AUTO8 M M M 336/-19/-22/3002/M/     SOG 33 3016 35MM=
PYS SA 0000 AUTO8 M M M 278/-17/-20/3215/M/     PK WND 3425 2318Z SOG 30 2027 19MM=
WBD SA 0000 AUTO8 M M M 270/-18/-22/3212/M/     SOG 10 1018 44MM=
WBU SA 0000 AUTO8 M M M 283/-18/-23/3313/M/0002 PK WND 3219 2320Z SOG 17 3022 08MM=
WDC SA 0000 AUTO8 M M M 392/-29/-34/3510+17/M/     PK WND 0017 2347Z SOG 64 3023 25MM=
WEH SA 0000 AUTO8 M M M 280/-15/-17/3208/M/     SOG 01 3009 80MM=
WIK SA 0000 AUTO8 M M M 243/-18/-22/3313+20/M/     PK WND 3320 2356Z SOG 15 1021 08MM=
WKO SA 0000 AUTO8 M M M 282/-16/-18/3515+22/M/     PK WND 3425 2313Z SOG 04 1023 90MM=
WOY SA 0000 AUTO8 M M M 282/-19/-22/3106/M/0002 SOG 24 1012 25MM=
XBK SA 0000 AUTO8 M M M 285/-16/-18/3211/M/     PK WND 3321 2304Z SOG 18 3023 18MM=
ZHB SA 0000 AUTO8 M M M 254/-18/-22/3110/M/     PK WND 3217 2300Z SOG 33 3021 13MM=


187 
SACN90 CWAO 180000 RRA
WEA SA 0000 AUTO8 M M M 156/-17/-20/3213+19/M/     PK WND 3222 2300Z SOG 12 1056 04MM=
WEC SA 0000 AUTO8 M M M 938/-03/-07/3333+41/M/M PK WND 3444 2329Z PRESRR 3049 59MM=
WEF SA 0000 AUTO8 M M M 147/-02/-05/2819/M/ PK WND 2821 2356Z 2016 58MM=
WEI SA 0000 AUTO8 M M M 228/-15/-19/3413/M/     PK WND 3418 2301Z SOG 19 1030 36MM=
WEL SA 0000 AUTO8 M M M 315/06/02/3016/M/     PK WND 3021 2303Z 6003 47MM=
WEP SA 0000 AUTO8 M M M 175/-09/-13/2305/M/     SOG 51 1022 59MM=
WER SA 0000 AUTO8 M M M M/M/M/2504/M/ M MMMM=
WFE SA 0000 AUTO8 M M M 344/-13/-15/0603/M/0002 PCPN 0.2MM PAST HR SOG 38 3015 76MM=
WFF SA 0000 AUTO8 M M M 289/-18/-22/3211+16/M/     PK WND 3018 2329Z SOG 19 3014 09MM=
WFJ SA 0000 AUTO8 M M M 305/-10/-13/0000/M/     5000 40MM=
WFO SA 0000 AUTO8 M M M 265/-23/-28/3409+15/M/     SOG 41 1021 55MM=
WFP SA 0000 AUTO8 M M M 079/-15/-20/MMMM/M/M 3009 48MM=
WFQ SA 0000 AUTO8 M M M 149/-03/-06/1504/M/     SOG 23 0001 05MM=
WFX SA 0000 AUTO8 M M M 442/-38/-41/0703/M/M SOG 44 8011 62MM=
WGD SA 0000 AUTO8 M M M 053/02/-03/1818+26/M/     PK WND 1732 2318Z SOG 08 6019 52MM=
WGF SA 0000 AUTO8 M M M M/-24/-28/3601/M/ SOG 47 M 29MM=
WGH SA 0000 AUTO8 M M M 133/00/-03/2006/M/M 8007 12MM=
WGL SA 0000 AUTO8 M M M 061/00/-03/1717/M/ PK WND 1719 2354Z 6027 -16MM=
WGM SA 0000 AUTO8 M M M 304/-14/-19/0000/M/     SOG 01 5001 66MM=
WGN SA 0000 AUTO8 M M M 183/-14/-17/3420+26/M/     PK WND 3428 2303Z SOG 10 1065 96MM=


188 
SACN60 CWAO 180000 RRA
PBM SA 0000 AUTO8 M M M 302/-10/-15/0801/M/     5002 70MM=
PCH SA 0000 AUTO8 M M M 442/-25/-29/3308/M/     SOG 39 3026 23MM=
PCI SA 0000 AUTO8 M M M 324/-10/-13/1203/M/     3003 37MM=
PCK SA 0000 AUTO8 M M M 310/-11/-15/1404/M/     5002 13MM=
PHJ SA 0000 AUTO8 M M M 472/-21/-24/3303/M/     SOG 47 1022 32MM=
PII SA 0000 AUTO8 M M M 367/-15/-18/0105/M/0009 PCPN 0.1MM PAST HR SOG 15 3028 63MM=
PNX SA 0000 AUTO8 M M M 344/-14/-16/3607/M/     SOG 22 3017 55MM=
PRV SA 0000 AUTO8 M M M 437/-18/-22/3608/M/     PK WND 3520 2307Z SOG 07 2042 05MM=
PZC SA 0000 AUTO8 M M M 338/-08/-09/MM02/M/0007 PCPN 0.5MM PAST HR SOG 21 3014 90MM=
PZH SA 0000 AUTO8 M M M 386/-13/-17/3608/M/0011 SOG 02 3045 24MM=


189 
SACN50 CWAO 180000 RRA
NCN SA 0000 AUTO8 M M M 315/-03/-10/3505/M/     SOG 19 3003 63MM=
VAS SA 0000 AUTO8 M M M 322/01/-03/0301/M/M 5001 58MM=
VBB SA 0000 AUTO8 M M M 318/05/01/3001/M/     3001 59MM=
VBD SA 0000 AUTO8 M M M 354/-01/-02/0000/M/     5003 95MM=
VBR SA 0000 AUTO8 M M M 337/-15/-17/3301/M/     SOG 14 6001 43MM=
VCW SA 0000 AUTO8 M M M 313/01/-08/2702/M/     SOG 11 3005 72MM=
VFJ SA 0000 AUTO8 M M M 364/-03/-09/1502/M/     SOG 18 3011 86MM=
VFN SA 0000 AUTO8 M M M 481/-18/-21/0302/M/     SOG 51 1007 97MM=
VFS SA 0000 AUTO8 M M M 370/-03/-08/1601/M/     SOG 21 3011 89MM=
VGE SA 0000 AUTO8 M M M 295/-02/-08/3002/M/     SOG 26 3001 32MM=
VHD SA 0000 AUTO8 M M M 335/05/02/3301/M/     5000 75MM=
VKC SA 0000 AUTO8 M M M 357/00/00/3301/M/     3001 51MM=
VLY SA 0000 AUTO8 M M M 321/00/-02/1301/M/     5004 -24MM=
VME SA 0000 AUTO8 M M M M/00/-04/0000/M/ M -49MM=
VOC SA 0000 AUTO8 M M M 321/00/-08/MMMM/M/     SOG 34 5001 -10MM=
VOD SA 0000 AUTO8 M M M 317/-03/-05/0902/M/     SOG 79 3001 73MM=
VOM SA 0000 AUTO8 M M M 331/02/00/3101/M/     3002 9-1MM=
VOO SA 0000 AUTO8 M M M 319/06/00/3401/M/     5003 95MM=
VOP SA 0000 AUTO8 M M M 325/05/00/MMMM/M/     5004 21MM=
VOQ SA 0000 AUTO8 M M M 325/06/01/3203/M/     5005 67MM=
VOU SA 0000 AUTO8 M M M 315/05/00/3002/M/     5000 1-1MM=
VPE SA 0000 AUTO8 M M M 322/00/-01/0000/M/     5000 30MM=
VPX SA 0000 AUTO8 M M M 360/-02/-08/3002/M/     SOG 12 3015 42MM=
VQZ SA 0000 AUTO8 M M M 351/-01/-06/3306/M/     SOG 04 3010 62MM=
VRA SA 0000 AUTO8 M M M 285/02/-06/3409/M/     SOG 23 3003 76MM=
VSA SA 0000 AUTO8 M M M 316/05/01/1901/M/     5003 77MM=
VSJ SA 0000 AUTO8 M M M 444/-15/-19/3411/M/     SOG 13 3025 97MM=
VSL SA 0000 AUTO8 M M M 347/-01/-07/1002/M/     3009 18MM=
VTF SA 0000 AUTO8 M M M M/M/M/3508/M/ M MMMM=
VTS SA 0000 AUTO8 M M M 299/04/01/2901/M/     5001 51MM=
VVR SA 0000 AUTO8 M M M 315/05/04/3005/M/     5001 10MM=
VXC SA 0000 AUTO8 M M M 280/-03/-10/1303/M/     SOG 27 3006 45MM=
VXS SA 0000 AUTO8 M M M 362/-03/-08/3404/M/     SOG 11 3014 44MM=
VYD SA 0000 AUTO8 M M M 358/-01/-05/2804/M/     SOG 16 3008 93MM=
VZP SA 0000 AUTO8 M M M 358/06/01/3305/M/     3004 67MM=
VZY SA 0000 AUTO8 M M M 380/-07/-12/0401/M/     SOG 43 3017 52MM=
WHC SA 0000 AUTO8 M M M M/05/00/MMMM/M/     M 33MM=
WPN SA 0000 AUTO8 M M M M/-06/M/0000/M/ M 7MMM=
ZKA SA 0000 AUTO8 M M M 321/04/-08/3009/M/     3004 59MM=


190 
SACN85 CWAO 180000 RRA
WWE SA 0000 AUTO8 M M M 193/-07/-11/3005/M/     SOG 01 3028 10MM=


191 
SACN89 CWAO 180000 RRA
WAF SA 0000 AUTO8 M M M M/-02/-05/1923/M/ PK WND 1926 2357Z M 58MM=
WAG SA 0000 AUTO8 M M M 152/-06/-08/2903/M/     SOG 23 3012 78MM=
WAQ SA 0000 AUTO8 M M M 279/-15/-17/3414/M/     PK WND 3321 2303Z 1018 99MM=
WAS SA 0000 AUTO8 M M M 316/06/00/1601/M/     5000 53MM=
WAV SA 0000 AUTO8 M M M 310/-10/-13/1002/M/     SOG 14 3003 48MM=
WBA SA 0000 AUTO8 M M M M/-01/-04/1612/M/     PK WND 1719 2312Z SOG 22 M 35MM=
WBJ SA 0000 AUTO8 M M M 459/-28/-31/3314/M/     1022 72MM=
WBM SA 0000 AUTO8 M M M 414/-11/-15/3405/M/0002 SOG 21 1036 18MM=
WBO SA 0000 AUTO8 M M M 319/-12/-15/3603/M/     SOG 11 3008 01MM=
WBS SA 0000 AUTO8 M M M M/-03/-06/1909/M/ M 17MM=
WBT SA 0000 AUTO8 M M M 155/-11/-13/3402/M/     1016 17MM=
WBY SA 0000 AUTO8 M M M 156/-08/-10/2903/M/0001 SOG 12 1017 60MM=
WBZ SA 0000 AUTO8 M M M 134/-01/-04/1603/M/     8007 15MM=
WCF SA 0000 AUTO8 M M M 189/-19/-22/3214+23/M/     PK WND 3223 2353Z SOG 22 1041 30MM=
WCH SA 0000 AUTO8 M M M 034/-10/-14/3209+16/M/0002 PK WND 3323 2336Z PRESRR SOG 24 1093 51MM=
WCJ SA 0000 AUTO8 M M M 898/02/00/2409+19/M/     PK WND 2420 2343Z SOG 21 3004 0-1MM=
WDI SA 0000 AUTO8 M M M 169/-06/-08/0000/M/     SOG 08 3012 08MM=
WDJ SA 0000 AUTO8 M M M 286/-16/-20/3312/M/     SOG 09 1023 30MM=
WDK SA 0000 AUTO8 M M M 312/-09/-13/0602/M/     3002 07MM=
WDQ SA 0000 AUTO8 M M M 138/-06/-08/1505/M/     SOG 13 1007 53MM=
WDR SA 0000 AUTO8 M M M 310/06/01/0105/M/ 5002 13MM=
WDU SA 0000 AUTO8 M M M M/-10/-14/0602/M/     M 06MM=
WDV SA 0000 AUTO8 M M M 991/-10/-14/3410+24/M/0004 PK WND 3431 2304Z PRESRR SOG 37 1094 85MM=
WDW SA 0000 AUTO8 M M M 150/-05/-08/MMMM/M/     2013 41MM=
WDZ SA 0000 AUTO8 M M M 323/-09/-14/3303/M/     SOG 20 3006 96MM=


192 
SACN91 CWAO 180000 RRA
WGR SA 0000 AUTO8 M M M 158/-06/-09/1805/M/     3020 62MM=
WGT SA 0000 AUTO8 M M M 319/06/02/3011/M/ 5004 45MM=
WGW SA 0000 AUTO8 M M M 284/-06/-15/1205/M/     SOG 14 5000 67MM=
WGY SA 0000 AUTO8 M M M 320/-13/-16/3309/M/     SOG 29 3012 44MM=
WHQ SA 0000 AUTO8 M M M M/-05/-07/1401/M/0002 M 46MM=
WHT SA 0000 AUTO8 M M M 392/-21/-23/0101/M/M SOG 32 6015 94MM=
WHV SA 0000 AUTO8 M M M 155/-06/-08/1602/M/     2008 35MM=
WID SA 0000 AUTO8 M M M 487/-27/-30/0000/M/ 1018 55MM=
WIG SA 0000 AUTO8 M M M M/M/M/2207/M/ M MMMM=
WII SA 0000 AUTO8 M M M 175/-17/-20/3327+32/M/ PK WND 3233 2340Z 1057 29MM=
WIP SA 0000 AUTO8 M M M M/-09/-10/2802/M/ M 52MM=
WIS SA 0000 AUTO8 M M M 138/-11/-12/2206/M/     SOG 72 1010 81MM=
WIT SA 0000 AUTO8 M M M 146/-02/-05/1503/M/     SOG 13 8003 64MM=
WIW SA 0000 AUTO8 M M M 293/-16/-20/3214/M/     PK WND 3318 2359Z SOG 27 1011 15MM=
WIZ SA 0000 AUTO8 M M M M/-02/-05/1709/M/     SOG 10 M 20MM=
WJB SA 0000 AUTO8 M M M M/-05/-07/0000/M/     SOG 08 M 38MM=
WJH SA 0000 AUTO8 M M M 297/-26/-31/3109+18/M/     PK WND 3018 2356Z SOG 55 3021 81MM=


193 
SACN59 CWAO 180000 RRA
WCT SA 0000 AUTO8 M M M 332/-13/-16/3509/M/     SOG 24 3012 88MM=
WLB SA 0000 AUTO8 M M M 365/-15/-18/0105/M/0004 PCPN 0.2MM PAST HR SOG 15 3016 21MM=


194 
SACN70 CWAO 180000 RRA
PBO SA 0000 AUTO8 M M M 215/-16/-20/3005/M/     SOG 26 1039 43MM=
PGF SA 0000 AUTO8 M M M 157/-17/-21/3107+17/M/     PK WND 3319 2320Z SOG 15 1056 58MM=
PIV SA 0000 AUTO8 M M M 151/-23/-26/3315/M/     PK WND 3320 2328Z 1033 92MM=
POW SA 0000 AUTO8 M M M 232/-25/-28/3008+16/M/     PK WND 3117 2346Z SOG 25 1017 18MM=
POY SA 0000 AUTO8 M M M 211/-15/-19/3610/M/     SOG 30 3042 93MM=
PQD SA 0000 AUTO8 M M M 253/-21/-26/3109/M/     SOG 34 1027 18MM=
PSU SA 0000 AUTO8 M M M 120/-05/-10/3419+28/M/     PK WND 3330 2341Z SOG 01 3043 54MM=
PTG SA 0000 AUTO8 M M M 173/-13/-21/3417+24/M/     PK WND 3424 2341Z SOG 07 1057 28MM=
PTO SA 0000 AUTO8 M M M 231/-28/-32/3107+18/M/     PK WND 3118 2310Z SOG 26 3023 12MM=
PYQ SA 0000 AUTO8 M M M 144/-28/-31/3326+32/M/     PK WND 3332 2344Z SOG 28 1018 18MM=
WEX SA 0000 AUTO8 M M M 183/-14/-16/3324+29/M/     PK WND 3334 2310Z SOG 13 1060 22MM=
WGX SA 0000 AUTO8 M M M 170/-28/-33/3217+22/M/     PK WND 3126 2315Z SOG 20 2023 58MM=
WOO SA 0000 AUTO8 M M M 219/-15/-23/3409+15/M/     PK WND 0023 2311Z SOG 30 1038 47MM=
WSZ SA 0000 AUTO8 M M M 196/-17/-23/3408/M/     PK WND 3418 2308Z 1045 19MM=
WWP SA 0000 AUTO8 M M M 208/-18/-23/3404/M/0002 SOG 37 1033 88MM=


195 
SACN74 CWAO 180000 RRA
NBB SA 0000 AUTO8 M M M 216/-35/-39/2501/M/     SOG 02 1010 58MM=
NCD SA 0000 AUTO8 M M M 051/-23/-26/0315+20/M/     PK WND 0321 2304Z SOG 20 5000 29MM=
NCO SA 0000 AUTO8 M M M M/-24/-28/2617/M/     PK WND 2621 2300Z SOG 17 M 75MM=
NDT SA 0000 AUTO8 M M M 188/-35/-38/2304/M/     SOG 31 1015 13MM=
NGC SA 0000 AUTO8 M M M 231/-28/-32/1206/M/     SOG 12 3014 25MM=
NSG SA 0000 AUTO8 M M M 308/-29/-32/3518/M/M PK WND 3422 2303Z 1013 08MM=
NZS SA 0000 AUTO8 M M M 087/-25/-28/0326+33/M/     PK WND 0337 2304Z SOG 60 3011 26MM=
XBL SA 0000 AUTO8 M M M 223/-35/-39/3428/M/     PK WND 3432 2349Z 1011 16MM=
XCM SA 0000 AUTO8 M M M 322/-28/-31/3409/M/0002 3013 67MM=
XFB SA 0000 AUTO8 M M M 027/-19/-21/2101/M/0012 PCPN 0.3MM PAST HR SOG 17 0000 72MM=
XUX SA 0000 AUTO8 M M M 147/-37/-40/2712/M/     SOG 55 3008 81MM=
ZCY SA 0000 AUTO8 M M M 187/-35/-38/2702/M/     SOG 36 1012 75MM=
ZHK SA 0000 AUTO8 M M M 225/-34/-38/3611/M/     SOG 80 1005 50MM=
ZLT SA 0000 AUTO8 M M M 321/-30/-33/0904/M/0005 PCPN 0.2MM PAST HR SOG 07 1012 73MM=
ZVM SA 0000 AUTO8 M M M 155/-28/-31/0605/M/     SOG 25 1007 33MM=


196 
SACN46 CWAO 180000 RRA
METAR CYQK 180000Z 34017G27KT 15SM -SN DRSN BKN035 M12/M17 A2975 RMK SC7 SLP102=
METAR CYXZ 180000Z 22013G22KT 7SM -SN SCT013 OVC020 01/M00 A2925 RMK SC4SC4 LAST STFD OBS/NXT OBS 181100Z SLP923=


197 
SACN86 CWAO 180000 RRA
WPO SA 0000 AUTO8 M M M 207/-14/-17/3409/M/     SOG 35 1045 23MM=
WWZ SA 0000 AUTO8 M M M 102/02/-03/1811/M/     SOG 01 8022 37MM=


198 
SACN87 CWAO 180000 RRA
WEK SA 0000 AUTO8 M M M 360/03/00/0603/M/     1006 15MM=
WEQ SA 0000 AUTO8 M M M 246/-17/-22/2909/M/     SOG 38 3023 03MM=
WJD SA 0000 AUTO8 M M M 219/-20/-23/3508+15/M/     PK WND 3521 2315Z SOG 52 3024 10MM=
WLP SA 0000 AUTO8 M M M 338/05/M/3007/M/     5001 8MMM=
WRO SA 0000 AUTO8 M M M 363/04/01/3207/M/     3004 42MM=
WWS SA 0000 AUTO8 M M M 204/-20/-23/3218/M/     PK WND 3329 2301Z SOG 57 3034 07MM=
WZG SA 0000 AUTO8 M M M 287/-10/-18/0501/M/     SOG 16 3005 47MM=


199 
SACN78 CWAO 180000 RRA
OBQ SA 0000 AUTO8 M M M 118/02/-03/2306/M/     SOG 02 6015 68MM=
OCE SA 0000 AUTO8 M M M 088/02/-01/1915/M/     PK WND 1818 2357Z SOG 03 6023 74MM=
OKN SA 0000 AUTO8 M M M 078/00/-04/1809+20/M/     PK WND 1922 2326Z SOG 11 8023 -02MM=
OSL SA 0000 AUTO8 M M M 048/-12/-15/3414+21/M/     PK WND 3427 2328Z SOG 29 1072 74MM=
OTR SA 0000 AUTO8 M M M 889/00/-01/2707/M/0013 PCPN 1.3MM PAST HR SOG 31 1009 -21MM=
TAG SA 0000 AUTO8 M M M 082/-10/-14/3422+32/M/     PK WND 3432 2359Z PRESRR SOG 21 1080 65MM=
TBF SA 0000 AUTO8 M M M 091/01/-04/1911+17/M/     PK WND 1918 2320Z SOG 01 7024 47MM=
TBO SA 0000 AUTO8 M M M 133/00/-04/1906/M/     SOG 04 8008 -21MM=
TBT SA 0000 AUTO8 M M M 059/-02/-04/1604/M/     SOG 45 8031 74MM=
TCK SA 0000 AUTO8 M M M 133/-02/-05/1805/M/     SOG 09 8009 57MM=
TKG SA 0000 AUTO8 M M M 154/01/-01/1814/M/     PK WND 1818 2351Z SOG 01 8010 51MM=
TKR SA 0000 AUTO8 M M M 099/-12/-17/3310+22/M/     PK WND 3223 2307Z SOG 18 1058 96MM=
TLS SA 0000 AUTO8 M M M 927/00/-01/2105/M/0034 PCPN 0.5MM PAST HR SOG 44 3003 09MM=
TMS SA 0000 AUTO8 M M M 941/-02/-04/1813+18/M/0004 PK WND 1723 2316Z SOG 28 6024 11MM=
TNK SA 0000 AUTO8 M M M 075/-03/-06/1702/M/     SOG 22 8023 73MM=
TPM SA 0000 AUTO8 M M M 091/-02/-06/1506/M/     SOG 09 6017 67MM=
TRA SA 0000 AUTO8 M M M 083/-12/-14/3308/M/     PK WND 3520 2313Z SOG 22 1064 94MM=
TSB SA 0000 AUTO8 M M M 010/-01/-03/1923+33/M/     PK WND 1933 2303Z SOG 18 6024 48MM=
TTR SA 0000 AUTO8 M M M 010/02/-01/1816+27/M/     PK WND 1832 2331Z SOG 13 6032 78MM=
TUX SA 0000 AUTO8 M M M 090/00/-04/1912+20/M/     PK WND 1925 2341Z SOG 05 6019 38MM=
TWL SA 0000 AUTO8 M M M 110/02/-04/1708/M/     8022 06MM=
TXR SA 0000 AUTO8 M M M 986/-02/-04/1819/M/     PK WND 1823 2354Z SOG 15 6045 14MM=
TZE SA 0000 AUTO8 M M M 990/03/-01/1816+23/M/     PK WND 1927 2340Z SOG 05 6016 64MM=
TZN SA 0000 AUTO8 M M M 035/-03/-05/1810+17/M/     PK WND 1822 2312Z SOG 13 8026 92MM=
TZR SA 0000 AUTO8 M M M 069/01/-03/1815+24/M/     PK WND 1925 2341Z SOG 02 6014 49MM=
WKK SA 0000 AUTO8 M M M 938/-05/-08/3330+37/M/0011 PK WND 3243 2303Z PRESRR SOG 11 3073 41MM=
WLS SA 0000 AUTO8 M M M 062/00/-04/1915+21/M/     PK WND 1822 2324Z SOG 18 6022 -49MM=
XBI SA 0000 AUTO8 M M M 077/00/-04/1812+19/M/     PK WND 2020 2335Z SOG 38 6024 45MM=
XZC SA 0000 AUTO8 M M M 914/-08/-09/1504/M/0045 PCPN 0.4MM PAST HR SOG 21 7050 82MM=


200 
SACN92 CWAO 180000 RRA
VKU SA 0000 AUTO8 M M M 313/02/-08/MMMM/M/     3002 51MM=
WJI SA 0000 AUTO8 M M M 292/-15/-18/3313/M/     PK WND 3418 2326Z SOG 27 1017 31MM=
WJL SA 0000 AUTO8 M M M 484/-22/-24/2102/M/     SOG 42 8004 87MM=
WJR SA 0000 AUTO8 M M M 280/-02/-04/3104/M/     3002 51MM=
WJU SA 0000 AUTO8 M M M 365/05/00/2805/M/     1006 04MM=
WJV SA 0000 AUTO8 M M M 306/02/-07/2903/M/     3004 89MM=
WJW SA 0000 AUTO8 M M M 334/-07/-11/1203/M/     SOG 05 3014 48MM=
WJX SA 0000 AUTO8 M M M 319/-14/-18/3505/M/     SOG 30 1015 57MM=
WKA SA 0000 AUTO8 M M M M/M/M/2908/M/ M MMMM=
WKG SA 0000 AUTO8 M M M 192/-09/-12/2801/M/     SOG 04 1026 90MM=
WKH SA 0000 AUTO8 M M M 306/02/M/MMMM/M/ 5001 3MMM=
WKX SA 0000 AUTO8 M M M 422/-17/-19/0504/M/     SOG 37 3001 60MM=
WLC SA 0000 AUTO8 M M M M/03/01/3610/M/ M 48MM=
WLE SA 0000 AUTO8 M M M 311/-17/-20/3209/M/     SOG 29 3012 28MM=
WLJ SA 0000 AUTO8 M M M 338/-20/-24/3107/M/     SOG 18 3015 08MM=
WLM SA 0000 AUTO8 M M M 313/05/01/0404/M/     5001 18MM=
WLV SA 0000 AUTO8 M M M 308/-20/-24/3209+15/M/     SOG 38 3020 15MM=
WMI SA 0000 AUTO8 M M M 168/-07/-11/2706/M/     3018 31MM=
WMJ SA 0000 AUTO8 M M M 102/-03/-07/1606/M/     SOG 12 6018 41MM=
WMM SA 0000 AUTO8 M M M 321/06/00/1001/M/     5001 35MM=
WMQ SA 0000 AUTO8 M M M 309/-12/-15/3406/M/     SOG 05 3010 08MM=


326 
SACO20 SKBO 180000 RRA
METAR SKAS 180000Z 31003KT 240V350 9999 FEW050 28/23 Q1010=


420 
SACN96 CWAO 180000 RRA
WXL SA 0000 AUTO8 M M M 325/-13/-15/0205/M/     3006 04MM=
WXN SA 0000 AUTO8 M M M 307/-13/-15/1004/M/     3003 76MM=
WXP SA 0000 AUTO8 M M M 078/-20/-24/0808+15/M/     SOG 50 8004 95MM=
WYH SA 0000 AUTO8 M M M 479/-31/-34/MMMM/M/     SOG 36 0003 78MM=
WYI SA 0000 AUTO8 M M M 159/-03/-07/2605/M/ 1013 69MM=
WYJ SA 0000 AUTO8 M M M 318/06/01/3602/M/     5003 70MM=
WYY SA 0000 AUTO8 M M M 297/05/-08/3308+15/M/     PK WND 3517 2301Z 5000 89MM=
WZA SA 0000 AUTO8 M M M 317/06/00/0000/M/     5000 45MM=
WZQ SA 0000 AUTO8 M M M 160/-05/-09/2507/M/ 2023 73MM=
WZT SA 0000 AUTO8 M M M 232/-18/-23/3003/M/     SOG 31 3026 71MM=
XBD SA 0000 AUTO8 M M M 345/-08/-10/2906/M/M SOG 11 M 09MM=
XBQ SA 0000 AUTO8 M M M 237/-32/-36/2313+20/M/     PK WND 1620 2353Z SOG 39 1019 02MM=
XFV SA 0000 AUTO8 M M M 472/-21/-25/3007/M/     SOG 45 2029 79MM=
XHM SA 0000 AUTO8 M M M 099/03/-04/2105/M/     8023 55MM=
XKA SA 0000 AUTO8 M M M 908/-02/-03/1708/M/0004 SOG 31 6020 16MM=
XND SA 0000 AUTO8 M M M 298/-09/-14/2904/M/     SOG 12 3017 02MM=
XPS SA 0000 AUTO8 M M M 338/-09/-10/3302/M/0003 PCPN 0.2MM PAST HR SOG 18 3010 75MM=
XWF SA 0000 AUTO8 M M M 285/00/-06/1803/M/     SOG 15 5001 -35MM=
ZGH SA 0000 AUTO8 M M M 394/-32/-35/1103/M/     SOG 43 6023 02MM=
ZOC SA 0000 AUTO8 M M M 347/-38/-42/2901/M/     SOG 26 7013 38MM=
ZPK SA 0000 AUTO8 M M M 443/-22/-28/0803/M/     SOG 01 8002 53MM=
ZUB SA 0000 AUTO8 M M M 368/-26/-28/1414/M/     8014 74MM=
ZWN SA 0000 AUTO8 M M M 343/-15/-18/3603/M/0002 PCPN 0.2MM PAST HR SOG 22 3015 74MM=


421 
SACN98 CWAO 180000 RRA
XDK SA 0000 AUTO8 M M M 467/-27/-29/0000/M/ SOG 16 6007 51MM=
XKI SA 0000 AUTO8 M M M 968/-05/-06/1509/M/0008 PK WND 1618 2300Z SOG 17 6047 93MM=
XLB SA 0000 AUTO8 M M M 183/-04/-09/3205/M/ 3026 04MM=
XPC SA 0000 AUTO8 M M M 038/-01/-05/MMMM/M/0013 SOG 32 8037 56MM=
XRB SA 0000 AUTO8 M M M 239/-33/-36/0316/M/     PK WND 0319 2355Z SOG 04 1012 92MM=
XTD SA 0000 AUTO8 M M M 178/-09/-12/2304/M/     SOG 06 1022 66MM=
XTO SA 0000 AUTO8 M M M 094/03/-03/MMMM/M/     SOG 05 8018 70MM=
XVN SA 0000 AUTO8 M M M 101/03/-03/1807/M/     8024 91MM=
XYH SA 0000 AUTO8 M M M 465/-25/-27/0000/M/ SOG 22 6004 61MM=
ZKD SA 0000 AUTO8 M M M 198/-29/-33/3213+18/M/     PK WND 3322 2348Z SOG 32 1025 61MM=
ZMJ SA 0000 AUTO8 M M M 306/-15/-18/3012/M/     PK WND 3118 2305Z SOG 10 1024 45MM=
ZRP SA 0000 AUTO8 M M M 313/-30/-33/3228+33/M/M PK WND 3238 2313Z 3021 33MM=
ZTB SA 0000 AUTO8 M M M 955/-04/-09/3225+33/M/     PK WND 3233 2355Z PRESRR SOG 04 3066 99MM=
ZZJ SA 0000 AUTO8 M M M 348/-09/-13/3108/M/0005 PK WND 3219 2318Z SOG 19 3027 86MM=


422 
SACN97 CWAO 180000 RRA
XAT SA 0000 AUTO8 M M M 199/-33/-37/1304/M/     SOG 03 1013 09MM=
XBO SA 0000 AUTO8 M M M M/-05/-07/2901/M/     M 57MM=
XCA SA 0000 AUTO8 M M M 941/-06/-09/3412+25/M/     PK WND 3129 2308Z PRESRR SOG 05 3067 63MM=
XDE SA 0000 AUTO8 M M M 461/-27/-30/1105/M/     SOG 23 8010 08MM=
XDI SA 0000 AUTO8 M M M 093/02/-04/2010+19/M/     PK WND 1919 2350Z SOG 03 8024 20MM=
XDW SA 0000 AUTO8 M M M 193/-15/-20/3322+32/M/     PK WND 3332 2359Z SOG 27 1050 15MM=
XEA SA 0000 AUTO8 M M M 084/-13/-16/3309+15/M/0001 PCPN 0.1MM PAST HR PK WND 0024 2322Z PRESRR SOG 38 3058 59MM=
XEC SA 0000 AUTO8 M M M 328/-09/-11/0403/M/0008 PCPN 0.3MM PAST HR 3009 78MM=
XEG SA 0000 AUTO8 M M M 328/-10/-11/2503/M/0001 PCPN 0.1MM PAST HR SOG 13 3009 64MM=
XFA SA 0000 AUTO8 M M M 333/06/02/2912/M/     5004 22MM=
XGH SA 0000 AUTO8 M M M 178/-16/-21/3416+24/M/ PK WND 3427 2340Z 1052 33MM=
XHA SA 0000 AUTO8 M M M 077/01/-03/1814/M/     PK WND 1923 2322Z SOG 21 7020 31MM=
XHI SA 0000 AUTO8 M M M 416/-25/-28/3315/M/M PK WND 3421 2333Z SOG 07 3005 77MM=
XIB SA 0000 AUTO8 M M M 145/-04/-08/2406/M/     SOG 05 3015 98MM=
XMD SA 0000 AUTO8 M M M 197/-14/-19/3314+21/M/     PK WND 3326 2314Z SOG 16 3055 29MM=
XMI SA 0000 AUTO8 M M M 182/-04/-09/0310/M/ 3025 99MM=
XMM SA 0000 AUTO8 M M M 407/-22/-25/3105/M/     SOG 31 3023 68MM=
XMP SA 0000 AUTO8 M M M M/-16/-18/1101/M/ M 29MM=
XMW SA 0000 AUTO8 M M M 316/-10/-14/3407/M/     SOG 06 3009 31MM=
XMY SA 0000 AUTO8 M M M M/-09/-12/MMMM/M/     M 58MM=
XNM SA 0000 AUTO8 M M M M/-08/-09/MMMM/M/0008 PCPN 0.2MM PAST HR SOG 116 M 20MM=
XOX SA 0000 AUTO8 M M M 311/-21/-25/3009/M/     SOG 38 3017 30MM=
XRH SA 0000 AUTO8 M M M 163/-07/-08/1402/M/     SOG 10 3013 74MM=
XSH SA 0000 AUTO8 M M M 146/-04/-06/1804/M/ 0005 40MM=
XTL SA 0000 AUTO8 M M M 348/-03/-09/0103/M/     3002 90MM=
XTP SA 0000 AUTO8 M M M 152/-04/-06/3104/M/     SOG 08 1014 35MM=
XWN SA 0000 AUTO8 M M M 182/-14/-20/3306/M/     PK WND 3018 2300Z PRESRR 3056 61MM=


423 
SACN95 CWAO 180000 RRA
WTA SA 0000 AUTO8 M M M 142/-02/-05/1703/M/     SOG 18 8004 39MM=
WTE SA 0000 AUTO8 M M M 474/-27/-30/2301/M/     SOG 37 0001 26MM=
WTG SA 0000 AUTO8 M M M 149/-04/-10/2109/M/     1009 20MM=
WTM SA 0000 AUTO8 M M M 150/-04/-06/0206/M/ 2018 88MM=
WTN SA 0000 AUTO8 M M M 154/-04/-07/2604/M/     SOG 03 1005 39MM=
WTS SA 0000 AUTO8 M M M 323/-17/-20/3110/M/     SOG 19 3013 35MM=
WTT SA 0000 AUTO8 M M M M/-05/-07/3601/M/ M 66MM=
WTX SA 0000 AUTO8 M M M 115/-11/-13/3206/M/     PK WND 3117 2302Z SOG 27 1056 30MM=
WTY SA 0000 AUTO8 M M M 150/-03/-06/1806/M/ 1005 86MM=
WUK SA 0000 AUTO8 M M M M/-12/-14/1704/M/ M 23MM=
WUS SA 0000 AUTO8 M M M 306/03/-09/3207/M/     3003 19MM=
WUT SA 0000 AUTO8 M M M 214/-17/-21/3113/M/     PK WND 3217 2314Z SOG 25 1030 41MM=
WVC SA 0000 AUTO8 M M M 300/-15/-18/3213/M/     SOG 14 3016 59MM=
WVF SA 0000 AUTO8 M M M M/06/03/3112/M/ M 19MM=
WVI SA 0000 AUTO8 M M M 346/-13/-15/0207/M/     SOG 18 3015 71MM=
WVP SA 0000 AUTO8 M M M 274/-16/-18/3307/M/     SOG 32 3007 67MM=
WVQ SA 0000 AUTO8 M M M 141/-03/-06/1303/M/     SOG 09 8007 95MM=
WVT SA 0000 AUTO8 M M M 369/-21/-25/3212+18/M/     PK WND 3218 2351Z SOG 28 3016 39MM=
WVU SA 0000 AUTO8 M M M 185/-02/-09/2708/M/     SOG 08 1023 29MM=
WVW SA 0000 AUTO8 M M M 151/-01/-06/0207/M/ 1012 45MM=
WWA SA 0000 AUTO8 M M M 316/05/-01/0000/M/     3002 56MM=
WWB SA 0000 AUTO8 M M M 093/03/-03/1713+18/M/ PK WND 1520 2319Z 8021 24MM=
WWC SA 0000 AUTO8 M M M 306/-30/-33/3111+17/M/     PK WND 3117 2342Z SOG 59 3026 72MM=
WWF SA 0000 AUTO8 M M M 275/-18/-20/3312/M/     PK WND 3524 2320Z SOG 26 3032 52MM=
WWK SA 0000 AUTO8 M M M 323/07/02/2601/M/0002 5001 68MM=
WWO SA 0000 AUTO8 M M M M/M/M/3607/M/     3024 MMMM=
WXA SA 0000 AUTO8 M M M 325/-09/-15/0201/M/     3005 06MM=
WXB SA 0000 AUTO8 M M M 224/-18/-23/3113/M/     PK WND 3222 2329Z SOG 30 3027 29MM=
WXC SA 0000 AUTO8 M M M 116/-07/-09/1706/M/0002 PCPN 0.2MM PAST HR 3002 64MM=
WXG SA 0000 AUTO8 M M M 296/-19/-22/3211/M/     SOG 26 2010 91MM=
WZW SA 0000 AUTO8 M M M 423/-20/-22/0804/M/0004 SOG 51 8004 04MM=


424 
SPAK40 KNKA 180012
SPECI PAGA 180011Z AUTO 11020KT 1/2SM -SN FZFG OVC018 M11/M12 A2995 
    RMK AO2 PK WND 12026/0000 P0000 FZRANO TSNO $=
SPECI PAPO 180011Z AUTO 13018G25KT 1SM -SN BR OVC016 M07/M09 A2971 
    RMK AO2 PK WND 13026/2358 P0000 FZRANO=


720 
SAAM36 FCBB 180000 RRA
METAR FOOL 180000Z 18007KT 9999 FEW012 27/25 Q1011 NOSIG=

219 
SAMN31 TNCM 180000
METAR TNCM 180000Z 06008KT 9999 SCT016 26/24 Q1018 NOSIG


248 
SPAK32 KWBC 180013
SPECI
PAGA 180011Z AUTO 11020KT 1/2SM -SN FZFG OVC018 M11/M12 A2995=


430 
SPCN52 CWAO 180012
SPECI CZUM 180012Z AUTO 12002KT 9SM -SN OVC100 M14/M16 A2976 RMK SLP120=


094 
SAAO30 GOOY 180000
METAR GOOY 180000Z 02010KT 340V040 CAVOK 20/14 Q1016=
METAR GOBD 180000Z 03011KT 7000 NSC 20/06 Q1016 NOSIG=
METAR GOGS 180000Z NIL=
METAR GOOK 180000Z 08004KT CAVOK 21/02 Q1016=
METAR GOSS 180000Z 02006KT 350V070  CAVOK 19/04 Q1018=
METAR GOTK 180000Z 08006KT CAVOK 24/06 Q1014=
METAR GOTT 180000Z 02006KT CAVOK 21/04 Q1016=
METAR GOGG 180000Z NIL=


265 
SPAK40 KNKA 180013
SPECI PACM 180012Z AUTO 13017KT 1 1/4SM BR OVC002 01/01 A2946 RMK 
    AO2 FZRANO=


448 
SAAO33 GOOY 180000
METAR GQPP 180000Z NIL=
METAR GQNO 180000Z 05007KT 6000 NSC 14/M10 Q1019 NOSIG=
METAR GQPA 180000Z NIL=
METAR GQNI 180000Z NIL=
METAR GQPZ 180000Z NIL=
METAR GUCY 180000Z NIL=
METAR GUXN 180000Z NIL=
METAR GULB 180000Z NIL=
METAR GUNZ 180000Z NIL=


449 
SAAO34 GOOY 180000
METAR GBYD 180000Z 02005KT 9000 NSC 22/05 Q1015=
METAR GFLL 180000Z NIL=
METAR GLRB 180000Z NIL=
METAR GVAC 180000Z NIL=
METAR GVBA 180000Z NIL=
METAR GVNP 180000Z NIL=
METAR GVSV 180000Z NIL=


450 
SAAO32 GOOY 180000
METAR GABS 180000Z VRB02KT 8000 NSC 19/03 Q1017 NOSIG=
METAR GAGO 180000Z NIL=
METAR GAKD 180000Z NIL=
METAR GAKL 180000Z NIL=
METAR GAMB 180000Z NIL=
METAR GANR 180000Z NIL=
METAR GATB 180000Z NIL=


455 
SAAK40 KNKA 180013
METAR PADU 172356Z 310/06KT 2SM -RA BR OVC012 04/03 A2893 =


958 
SAUS44 KMOB 180000
MTRPRN
METAR KPRN 180000Z AUTO 18004KT 10SM CLR 13/01 A3000 RMK AO2 SLP111 
T01330006 10167 20133 55012


992 
SACN85 KWBC 180014
METAR CWNH 180000Z AUTO 17003KT M06/M09 RMK AO1 SOG 24 3010 SLP150
T10551087=
METAR CWRA 180000Z AUTO 34005KT M04/M06 RMK AO1 SLP151 T10431062
51012=
METAR CWSF 180000Z AUTO 00000KT M06/M09 RMK AO1 SOG 37 1016 SLP158
T10641094 50002=
METAR CWDM 180000Z AUTO 01003KT M11/M13 RMK AO1 SOG 01 1015 SLP155
T11131131=
METAR CWSF 180000Z AUTO 00000KT M06/M09 RMK AO1 SOG 37 1016 SLP158
T10641094 50002=
METAR CWDM 180000Z AUTO 01003KT M11/M13 RMK AO1 SOG 01 1015 SLP155
T11131131=
METAR CWSF 180000Z AUTO 00000KT M06/M09 RMK AO1 SOG 37 1016 SLP158
T10641094 50002=
METAR CWDM 180000Z AUTO 01003KT M11/M13 RMK AO1 SOG 01 1015 SLP155
T11131131=
METAR CWSF 180000Z AUTO 00000KT M06/M09 RMK AO1 SOG 37 1016 SLP158
T10641094 50002=
METAR CWEF 180000Z AUTO 28019KT M02/M05 RMK AO1 PK WND 28021/2356
SLP147 T10151048 52016=
METAR CWEP 180000Z AUTO 23005KT M09/M13 RMK AO1 SOG 51 1022 SLP175
T10851129=
METAR CWER 180000Z AUTO 25004KT RMK AO1 =
METAR CWBV 180000Z AUTO 32012KT M05/M10 RMK AO1 SLP170 T10531100
52029=
METAR CWDO 180000Z AUTO 30004KT M04/M09 RMK AO1 SOG 12 3013 SLP154
T10381088=
METAR CWRN 180000Z AUTO 30017KT M04/M09 RMK AO1 PK WND 30022/2322
SLP168 T10431087 51024=
METAR CWSS 180000Z AUTO 00000KT M11/M13 RMK AO1 SOG 08 1022 SLP184
T11081131=
METAR CWWE 180000Z AUTO 30005KT M07/M11 RMK AO1 SOG 01 3028 SLP193
T10711110=
METAR CWBV 180000Z AUTO 32012KT M05/M10 RMK AO1 SLP170 T10531100
52029=
METAR CWDO 180000Z AUTO 30004KT M04/M09 RMK AO1 SOG 12 3013 SLP154
T10381088=
METAR CWRN 180000Z AUTO 30017KT M04/M09 RMK AO1 PK WND 30022/2322
SLP168 T10431087 51024=
METAR CWSS 180000Z AUTO 00000KT M11/M13 RMK AO1 SOG 08 1022 SLP184
T11081131=
METAR CWBY 180000Z AUTO 29003KT M08/M10 RMK AO1 SOG 12 1017 SLP156
T10761100 50001=
METAR CWBV 180000Z AUTO 32012KT M05/M10 RMK AO1 SLP170 T10531100
52029=
METAR CWDO 180000Z AUTO 30004KT M04/M09 RMK AO1 SOG 12 3013 SLP154
T10381088=
METAR CWRN 180000Z AUTO 30017KT M04/M09 RMK AO1 PK WND 30022/2322
SLP168 T10431087 51024=
METAR CWSS 180000Z AUTO 00000KT M11/M13 RMK AO1 SOG 08 1022 SLP184
T11081131=
METAR CWBV 180000Z AUTO 32012KT M05/M10 RMK AO1 SLP170 T10531100
52029=
METAR CWDO 180000Z AUTO 30004KT M04/M09 RMK AO1 SOG 12 3013 SLP154
T10381088=
METAR CWRN 180000Z AUTO 30017KT M04/M09 RMK AO1 PK WND 30022/2322
SLP168 T10431087 51024=
METAR CWSS 180000Z AUTO 00000KT M11/M13 RMK AO1 SOG 08 1022 SLP184
T11081131=
METAR CWBV 180000Z AUTO 32012KT M05/M10 RMK AO1 SLP170 T10531100
52029=
METAR CWDO 180000Z AUTO 30004KT M04/M09 RMK AO1 SOG 12 3013 SLP154
T10381088=
METAR CWRN 180000Z AUTO 30017KT M04/M09 RMK AO1 PK WND 30022/2322
SLP168 T10431087 51024=
METAR CWSS 180000Z AUTO 00000KT M11/M13 RMK AO1 SOG 08 1022 SLP184
T11081131=
METAR CWBV 180000Z AUTO 32012KT M05/M10 RMK AO1 SLP170 T10531100
52029=
METAR CWDO 180000Z AUTO 30004KT M04/M09 RMK AO1 SOG 12 3013 SLP154
T10381088=
METAR CWRN 180000Z AUTO 30017KT M04/M09 RMK AO1 PK WND 30022/2322
SLP168 T10431087 51024=
METAR CWSS 180000Z AUTO 00000KT M11/M13 RMK AO1 SOG 08 1022 SLP184
T11081131=
METAR CWBV 180000Z AUTO 32012KT M05/M10 RMK AO1 SLP170 T10531100
52029=
METAR CWDO 180000Z AUTO 30004KT M04/M09 RMK AO1 SOG 12 3013 SLP154
T10381088=
METAR CWRN 180000Z AUTO 30017KT M04/M09 RMK AO1 PK WND 30022/2322
SLP168 T10431087 51024=
METAR CWSS 180000Z AUTO 00000KT M11/M13 RMK AO1 SOG 08 1022 SLP184
T11081131=
METAR CWBV 180000Z AUTO 32012KT M05/M10 RMK AO1 SLP170 T10531100
52029=
METAR CWDO 180000Z AUTO 30004KT M04/M09 RMK AO1 SOG 12 3013 SLP154
T10381088=


993 
SACN82 KWBC 180014
METAR CMFM 180000Z AUTO 21003KT M10/M11 RMK AO1 SOG 46 1009 SLP142
T10981108=
METAR CMGB 180000Z AUTO 20002KT M03/M06 RMK AO1 SOG 21 1005 SLP160
T10321064=
METAR CMFM 180000Z AUTO 21003KT M10/M11 RMK AO1 SOG 46 1009 SLP142
T10981108=
METAR CMGB 180000Z AUTO 20002KT M03/M06 RMK AO1 SOG 21 1005 SLP160
T10321064=
METAR CMFM 180000Z AUTO 21003KT M10/M11 RMK AO1 SOG 46 1009 SLP142
T10981108=
METAR CMGB 180000Z AUTO 20002KT M03/M06 RMK AO1 SOG 21 1005 SLP160
T10321064=


994 
SACN95 KWBC 180014
METAR CWTA 180000Z AUTO 17003KT M02/M05 RMK AO1 SOG 18 8004 SLP142
T10231049=
METAR CWTG 180000Z AUTO 21009KT M04/M10 RMK AO1 SLP149 T10421100
51009=
METAR CWTN 180000Z AUTO 26004KT M04/M07 RMK AO1 SOG 03 1005 SLP154
T10431069=
METAR CWTT 180000Z AUTO 36001KT M05/M07 RMK AO1 T10461066=
METAR CWTY 180000Z AUTO 18006KT M03/M06 RMK AO1 SLP150 T10281056
51005=
METAR CWUS 180000Z AUTO 32007KT 03/M09 RMK AO1 SLP306 T00311089
53003=
METAR CWVF 180000Z AUTO 31012KT 06/03 RMK AO1 T00610029=
METAR CWVI 180000Z AUTO 02007KT M13/M15 RMK AO1 SOG 18 3015 SLP346
T11271151=
METAR CWVP 180000Z AUTO 33007KT M16/M18 RMK AO1 SOG 32 3007 SLP274
T11561177=
METAR CWVQ 180000Z AUTO 13003KT M03/M06 RMK AO1 SOG 09 8007 SLP141
T10291055=
METAR CWVU 180000Z AUTO 27008KT M02/M09 RMK AO1 SOG 08 1023 SLP185
T10221089=
METAR CWWA 180000Z AUTO 00000KT 05/M01 RMK AO1 SLP316 T00451006
53002=
METAR CWWF 180000Z AUTO 33012KT M18/M20 RMK AO1 SOG 26 3032 PK WND
35024/2320 SLP275 T11751202=
METAR CWWK 180000Z AUTO 26001KT 07/02 RMK AO1 5001 SLP323
T00660018 50002=
METAR CWXA 180000Z AUTO 02001KT M09/M15 RMK AO1 SLP325 T10901146
53005=
METAR CWXC 180000Z AUTO 17006KT M07/M09 RMK AO1 2PAST HR 3002
SLP116 P0001 T10661094 50002=
METAR CWWK 180000Z AUTO 26001KT 07/02 RMK AO1 5001 SLP323
T00660018 50002=
METAR CWXA 180000Z AUTO 02001KT M09/M15 RMK AO1 SLP325 T10901146
53005=
METAR CWXC 180000Z AUTO 17006KT M07/M09 RMK AO1 2PAST HR 3002
SLP116 P0001 T10661094 50002=


995 
SACN90 KWBC 180014
METAR CWEL 180000Z AUTO 30016KT 06/02 RMK AO1 PK WND 30021/2303
SLP315 T00640017 56003=
METAR CWFF 180000Z AUTO 32011G16KT M18/M22 RMK AO1 SOG 19 3014 PK
WND 30018/2329 SLP289 T11801219=
METAR CWFJ 180000Z AUTO 00000KT M10/M13 RMK AO1 SLP305 T11041130
55000=
METAR CWFQ 180000Z AUTO 15004KT M03/M06 RMK AO1 SOG 23 0001 SLP149
T10301055=
METAR CWGD 180000Z AUTO 18018G26KT 02/M03 RMK AO1 SOG 08 6019 PK
WND 17032/2318 SLP053 T00151032=
METAR CWGH 180000Z AUTO 20006KT M00/M03 RMK AO1 SLP133 T10011032
58007=
METAR CWGL 180000Z AUTO 17017KT M00/M03 RMK AO1 PK WND 17019/2354
SLP061 T10011026 56027=
METAR CWGM 180000Z AUTO 00000KT M14/M19 RMK AO1 SOG 01 5001 SLP304
T11361186=


996 
SACN89 KWBC 180014
METAR CWAF 180000Z AUTO 19023KT M02/M05 RMK AO1 PK WND 19026/2357
T10151048=
METAR CWAQ 180000Z AUTO 34014KT M15/M17 RMK AO1 PK WND 33021/2303
SLP279 T11491169 51018=
METAR CWAV 180000Z AUTO 10002KT M10/M13 RMK AO1 SOG 14 3003 SLP310
T11041128=
METAR CWBA 180000Z AUTO 16012KT M01/M04 RMK AO1 SOG 22 PK WND
17019/2312 T10131035=
METAR CWBO 180000Z AUTO 36003KT M12/M15 RMK AO1 SOG 11 3008 SLP319
T11201151=
METAR CWBS 180000Z AUTO 19009KT M03/M06 RMK AO1 T10311057=
METAR CWBT 180000Z AUTO 34002KT M11/M13 RMK AO1 SLP155 T11111127
51016=
METAR CWBZ 180000Z AUTO 16003KT M01/M04 RMK AO1 SLP134 T10111035
58007=
METAR CWCF 180000Z AUTO 32014G23KT M19/M22 RMK AO1 SOG 22 1041 PK
WND 32023/2353 SLP189 T11931220=
METAR CWCJ 180000Z AUTO 24009G19KT 02/M00 RMK AO1 SOG 21 3004 PK
WND 24020/2343 SLP898 T00201001=
METAR CWDJ 180000Z AUTO 33012KT M16/M20 RMK AO1 SOG 09 1023 SLP286
T11631200=
METAR CWDK 180000Z AUTO 06002KT M09/M13 RMK AO1 SLP312 T10901127
53002=
METAR CWDZ 180000Z AUTO 33003KT M09/M14 RMK AO1 SOG 20 3006 SLP323
T10891136=
METAR CWDJ 180000Z AUTO 33012KT M16/M20 RMK AO1 SOG 09 1023 SLP286
T11631200=
METAR CWDK 180000Z AUTO 06002KT M09/M13 RMK AO1 SLP312 T10901127
53002=
METAR CWDZ 180000Z AUTO 33003KT M09/M14 RMK AO1 SOG 20 3006 SLP323
T10891136=


997 
SACN85 KWBC 180014 RRA
METAR CWRN 180000Z AUTO 30017KT M04/M09 RMK AO1 PK WND 30022/2322
SLP168 T10431087 51024=
METAR CWSS 180000Z AUTO 00000KT M11/M13 RMK AO1 SOG 08 1022 SLP184
T11081131=


998 
SAUS80 KWBC 180014
METAR
KGNT 180015Z AUTO 28014G18KT 10SM CLR 06/M09 A2996 RMK AO2
     T00571088=


999 
SAUS70 KWBC 180000 RRX
METAR
KMER 172355Z 00000KT 7 HZSM CLR 15/03 A3016=
KWHP 180000Z 00000KT 10SM SKC 15/05 A3015=
PADU 172356Z 310/06KT 2SM -RA BR OVC012 04/03 A2893=


000 
SACN88 KWBC 180014 RRA
METAR CZCR 180000Z AUTO 23004KT M08/M12 RMK AO1 SOG 02 1020 SLP167
T10831120=
METAR CZDB 180000Z AUTO 34002KT M13/M15 RMK AO1 SOG 13 2022 SLP182
T11331154=
METAR CZSP 180000Z AUTO 24008KT M07/M10 RMK AO1 SOG 24 1018 SLP171
T10651103=
METAR CWAR 180000Z AUTO 11006KT M03/M05 RMK AO1 SLP156 T10301050
53015=
METAR CWBK 180000Z AUTO 32010KT M05/M10 RMK AO1 SOG 07 1021 SLP180
T10481097=
METAR CWDA 180000Z AUTO 26008KT M07/M09 RMK AO1 SOG 14 1012
T10661094=
METAR CWXI 180000Z AUTO 31012KT M04/M10 RMK AO1 SLP155 T10351095
51020=
METAR CWZN 180000Z AUTO 05008KT M02/M06 RMK AO1 SLP131 T10231055
53014=
METAR CXNP 180000Z AUTO 18004KT M10/M14 RMK AO1 SOG 01 3023 SLP184
T11041138=
METAR CZCR 180000Z AUTO 23004KT M08/M12 RMK AO1 SOG 02 1020 SLP167
T10831120=
METAR CZDB 180000Z AUTO 34002KT M13/M15 RMK AO1 SOG 13 2022 SLP182
T11331154=
METAR CZSP 180000Z AUTO 24008KT M07/M10 RMK AO1 SOG 24 1018 SLP171
T10651103=
METAR CWAR 180000Z AUTO 11006KT M03/M05 RMK AO1 SLP156 T10301050
53015=
METAR CWBK 180000Z AUTO 32010KT M05/M10 RMK AO1 SOG 07 1021 SLP180
T10481097=
METAR CWDA 180000Z AUTO 26008KT M07/M09 RMK AO1 SOG 14 1012
T10661094=
METAR CWXI 180000Z AUTO 31012KT M04/M10 RMK AO1 SLP155 T10351095
51020=
METAR CWZN 180000Z AUTO 05008KT M02/M06 RMK AO1 SLP131 T10231055
53014=
METAR CXNP 180000Z AUTO 18004KT M10/M14 RMK AO1 SOG 01 3023 SLP184
T11041138=
METAR CZCR 180000Z AUTO 23004KT M08/M12 RMK AO1 SOG 02 1020 SLP167
T10831120=
METAR CZDB 180000Z AUTO 34002KT M13/M15 RMK AO1 SOG 13 2022 SLP182
T11331154=
METAR CZSP 180000Z AUTO 24008KT M07/M10 RMK AO1 SOG 24 1018 SLP171
T10651103=
METAR CWAR 180000Z AUTO 11006KT M03/M05 RMK AO1 SLP156 T10301050
53015=
METAR CWBK 180000Z AUTO 32010KT M05/M10 RMK AO1 SOG 07 1021 SLP180
T10481097=
METAR CWDA 180000Z AUTO 26008KT M07/M09 RMK AO1 SOG 14 1012
T10661094=
METAR CWXI 180000Z AUTO 31012KT M04/M10 RMK AO1 SLP155 T10351095
51020=
METAR CWZN 180000Z AUTO 05008KT M02/M06 RMK AO1 SLP131 T10231055
53014=
METAR CXNP 180000Z AUTO 18004KT M10/M14 RMK AO1 SOG 01 3023 SLP184
T11041138=
METAR CZCR 180000Z AUTO 23004KT M08/M12 RMK AO1 SOG 02 1020 SLP167
T10831120=
METAR CZDB 180000Z AUTO 34002KT M13/M15 RMK AO1 SOG 13 2022 SLP182
T11331154=
METAR CZSP 180000Z AUTO 24008KT M07/M10 RMK AO1 SOG 24 1018 SLP171
T10651103=


001 
SPUS70 KWBC 180014
SPECI
PAGA 180011Z AUTO 11020KT 1/2SM -SN FZFG OVC018 M11/M12 A2995 RMK
     AO2 PK WND 12026/0000 P0000 FZRANO TSNO $=
PAPO 180011Z AUTO 13018G25KT 1SM -SN BR OVC016 M07/M09 A2971 RMK
     AO2 PK WND 13026/2358 P0000 FZRANO=
PACM 180012Z AUTO 13017KT 1 1/4SM BR OVC002 01/01 A2946 RMK AO2
     FZRANO=
KHIB 180011Z AUTO 31027G35KT 1 3/4SM -SN OVC030 M08/M14 A2961 RMK
     AO2 PK WND 31035/0010 SNB04 PRESRR P0000 T10781144=
PACM 180012Z AUTO 13017KT 1 1/4SM BR OVC002 01/01 A2946 RMK AO2
     FZRANO=


002 
SACN86 KWBC 180014
METAR CWNC 180000Z AUTO 20016KT 02/M02 RMK AO1 SOG 07 8015 PK WND
22022/2322 SLP108 T00231017=
METAR CWNZ 180000Z AUTO 21006KT M00/M01 RMK AO1 2PAST HR SOG 32
6008 SLP878 P0001 T10041013 50007=
METAR CTCK 180000Z AUTO 18005KT M02/M05 RMK AO1 SOG 09 8009 SLP133
T10151047=
METAR CWLS 180000Z AUTO 19015G21KT M00/M04 RMK AO1 SOG 18 6022 PK
WND 18022/2324 SLP062 T10041039=
METAR CWLS 180000Z AUTO 19015G21KT M00/M04 RMK AO1 SOG 18 6022 PK
WND 18022/2324 SLP062 T10041039=
METAR CWPO 180000Z AUTO 34009KT M14/M17 RMK AO1 SOG 35 1045 SLP207
T11421173=
METAR CWWZ 180000Z AUTO 18011KT 02/M03 RMK AO1 SOG 01 8022 SLP102
T00231027=
METAR CWDQ 180000Z AUTO 15005KT M06/M08 RMK AO1 SOG 13 1007 SLP138
T10551083=
METAR CWDV 180000Z AUTO 34010G24KT M10/M14 RMK AO1 PRESRR SOG 37
1094 PK WND 34031/2304 SLP991 T10981135 50004=
METAR CWDQ 180000Z AUTO 15005KT M06/M08 RMK AO1 SOG 13 1007 SLP138
T10551083=
METAR CWDV 180000Z AUTO 34010G24KT M10/M14 RMK AO1 PRESRR SOG 37
1094 PK WND 34031/2304 SLP991 T10981135 50004=
METAR CWWB 180000Z AUTO 17013G18KT 03/M03 RMK AO1 PK WND
15020/2319 SLP093 T00321034 58021=


003 
SACN87 KWBC 180014
METAR CWCT 180000Z AUTO 35009KT M13/M16 RMK AO1 SOG 24 3012 SLP332
T11281158=
METAR CWLB 180000Z AUTO 01005KT M15/M18 RMK AO1 2PAST HR SOG 15
3016 SLP365 P0001 T11521181 50004=
METAR CWDC 180000Z AUTO 35010G17KT M29/M34 RMK AO1 SOG 64 3023 PK
WND 00017/2347 SLP392 T12921335=
METAR CWEH 180000Z AUTO 32008KT M15/M17 RMK AO1 SOG 01 3009 SLP280
T11481170=
METAR CWKO 180000Z AUTO 35015G22KT M16/M18 RMK AO1 SOG 04 1023 PK
WND 34025/2313 SLP282 T11591180=
METAR CWOY 180000Z AUTO 31006KT M19/M22 RMK AO1 SOG 24 1012 SLP282
T11921215 50002=
METAR CWDC 180000Z AUTO 35010G17KT M29/M34 RMK AO1 SOG 64 3023 PK
WND 00017/2347 SLP392 T12921335=
METAR CWEH 180000Z AUTO 32008KT M15/M17 RMK AO1 SOG 01 3009 SLP280
T11481170=
METAR CWKO 180000Z AUTO 35015G22KT M16/M18 RMK AO1 SOG 04 1023 PK
WND 34025/2313 SLP282 T11591180=
METAR CWOY 180000Z AUTO 31006KT M19/M22 RMK AO1 SOG 24 1012 SLP282
T11921215 50002=
METAR CWRM 180000Z AUTO 11001KT M09/M11 RMK AO1 2PAST HR SOG 17
3011 SLP303 P0001 T10941113 50002=
METAR CWEK 180000Z AUTO 06003KT 03/01 RMK AO1 SLP360 T00310005
51006=
METAR CWEQ 180000Z AUTO 29009KT M17/M22 RMK AO1 SOG 38 3023 SLP246
T11701223=
METAR CWJD 180000Z AUTO 35008G15KT M20/M23 RMK AO1 SOG 52 3024 PK
WND 35021/2315 SLP219 T12011230=
METAR CWLP 180000Z AUTO 30007KT 05/ RMK AO1 SLP338 T0048 55001=
METAR CWRO 180000Z AUTO 32007KT 04/01 RMK AO1 SLP363 T00440012
53004=
METAR CWWS 180000Z AUTO 32018KT M20/M23 RMK AO1 SOG 57 3034 PK WND
33029/2301 SLP204 T12001227=
METAR CWZG 180000Z AUTO 05001KT M10/M18 RMK AO1 SOG 16 3005 SLP287
T11041177=
METAR CWLP 180000Z AUTO 30007KT 05/ RMK AO1 SLP338 T0048 55001=
METAR CWRO 180000Z AUTO 32007KT 04/01 RMK AO1 SLP363 T00440012
53004=
METAR CWWS 180000Z AUTO 32018KT M20/M23 RMK AO1 SOG 57 3034 PK WND
33029/2301 SLP204 T12001227=
METAR CWZG 180000Z AUTO 05001KT M10/M18 RMK AO1 SOG 16 3005 SLP287
T11041177=
METAR CWVT 180000Z AUTO 32012G18KT M21/M25 RMK AO1 SOG 28 3016 PK
WND 32018/2351 SLP369 T12131249=
METAR CWZW 180000Z AUTO 08004KT M20/M22 RMK AO1 SOG 51 8004 SLP423
T12001224 50004=
METAR CWZW 180000Z AUTO 08004KT M20/M22 RMK AO1 SOG 51 8004 SLP423
T12001224 50004=
METAR CWZW 180000Z AUTO 08004KT M20/M22 RMK AO1 SOG 51 8004 SLP423
T12001224 50004=
METAR CWZW 180000Z AUTO 08004KT M20/M22 RMK AO1 SOG 51 8004 SLP423
T12001224 50004=


004 
SACN97 KWBC 180014
METAR CXBK 180000Z AUTO 32011KT M16/M18 RMK AO1 SOG 18 3023 PK WND
33021/2304 SLP285 T11611178=
METAR CXBK 180000Z AUTO 32011KT M16/M18 RMK AO1 SOG 18 3023 PK WND
33021/2304 SLP285 T11611178=
METAR CXKT 180000Z AUTO 17004KT M10/M13 RMK AO1 SOG 03 3025 SLP186
T11001129=
METAR CXKT 180000Z AUTO 17004KT M10/M13 RMK AO1 SOG 03 3025 SLP186
T11001129=
METAR CXKT 180000Z AUTO 17004KT M10/M13 RMK AO1 SOG 03 3025 SLP186
T11001129=
METAR CXKT 180000Z AUTO 17004KT M10/M13 RMK AO1 SOG 03 3025 SLP186
T11001129=
METAR CXKT 180000Z AUTO 17004KT M10/M13 RMK AO1 SOG 03 3025 SLP186
T11001129=
METAR CXKT 180000Z AUTO 17004KT M10/M13 RMK AO1 SOG 03 3025 SLP186
T11001129=
METAR CXAT 180000Z AUTO 13004KT M33/M37 RMK AO1 SOG 03 1013 SLP199
T13301369=
METAR CXBO 180000Z AUTO 29001KT M05/M07 RMK AO1 T10451067=
METAR CXCA 180000Z AUTO 34012G25KT M06/M09 RMK AO1 PRESRR SOG 05
3067 PK WND 31029/2308 SLP941 T10561093=
METAR CXDE 180000Z AUTO 11005KT M27/M30 RMK AO1 SOG 23 8010 SLP461
T12701298=
METAR CXDI 180000Z AUTO 20010G19KT 02/M04 RMK AO1 SOG 03 8024 PK
WND 19019/2350 SLP093 T00221040=
METAR CXDW 180000Z AUTO 33022G32KT M15/M20 RMK AO1 SOG 27 1050 PK
WND 33032/2359 SLP193 T11511195=
METAR CXEA 180000Z AUTO 33009G15KT M13/M16 RMK AO1 1PAST HR PRESRR
SOG 38 3058 PK WND 00024/2322 SLP084 P0000 T11251159 50001=
METAR CXEC 180000Z AUTO 04003KT M09/M11 RMK AO1 3PAST HR 3009
SLP328 P0001 T10871108 50008=
METAR CXEG 180000Z AUTO 25003KT M10/M11 RMK AO1 1PAST HR SOG 13
3009 SLP328 P0000 T10961114 50001=
METAR CXGH 180000Z AUTO 34016G24KT M16/M21 RMK AO1 PK WND
34027/2340 SLP178 T11631213 51052=
METAR CXHA 180000Z AUTO 18014KT 01/M03 RMK AO1 SOG 21 7020 PK WND
19023/2322 SLP077 T00131031=
METAR CXIB 180000Z AUTO 24006KT M04/M08 RMK AO1 SOG 05 3015 SLP145
T10391078=
METAR CXMD 180000Z AUTO 33014G21KT M14/M19 RMK AO1 SOG 16 3055 PK
WND 33026/2314 SLP197 T11421189=
METAR CXMI 180000Z AUTO 03010KT M04/M09 RMK AO1 SLP182 T10391089
53025=
METAR CXMM 180000Z AUTO 31005KT M22/M25 RMK AO1 SOG 31 3023 SLP407
T12161248=
METAR CXMY 180000Z AUTO M09/M12 RMK AO1 T10851118=
METAR CXNM 180000Z AUTO M08/M09 RMK AO1 2PAST HR SOG 116 M P0001
T10821090 50008=
METAR CXOX 180000Z AUTO 30009KT M21/M25 RMK AO1 SOG 38 3017 SLP311
T12131250=
METAR CXRH 180000Z AUTO 14002KT M07/M08 RMK AO1 SOG 10 3013 SLP163
T10671084=
METAR CXSH 180000Z AUTO 18004KT M04/M06 RMK AO1 SLP146 T10441060
50005=
METAR CXTP 180000Z AUTO 31004KT M04/M06 RMK AO1 SOG 08 1014 SLP152
T10431055=
METAR CXWN 180000Z AUTO 33006KT M14/M20 RMK AO1 PRESRR PK WND
30018/2300 SLP182 T11361201 53056=
METAR CXKT 180000Z AUTO 17004KT M10/M13 RMK AO1 SOG 03 3025 SLP186
T11001129=
METAR CXMD 180000Z AUTO 33014G21KT M14/M19 RMK AO1 SOG 16 3055 PK
WND 33026/2314 SLP197 T11421189=
METAR CXMI 180000Z AUTO 03010KT M04/M09 RMK AO1 SLP182 T10391089
53025=
METAR CXMM 180000Z AUTO 31005KT M22/M25 RMK AO1 SOG 31 3023 SLP407
T12161248=
METAR CXMY 180000Z AUTO M09/M12 RMK AO1 T10851118=
METAR CXNM 180000Z AUTO M08/M09 RMK AO1 2PAST HR SOG 116 M P0001
T10821090 50008=
METAR CXOX 180000Z AUTO 30009KT M21/M25 RMK AO1 SOG 38 3017 SLP311
T12131250=
METAR CXRH 180000Z AUTO 14002KT M07/M08 RMK AO1 SOG 10 3013 SLP163
T10671084=
METAR CXSH 180000Z AUTO 18004KT M04/M06 RMK AO1 SLP146 T10441060
50005=
METAR CXTP 180000Z AUTO 31004KT M04/M06 RMK AO1 SOG 08 1014 SLP152
T10431055=
METAR CXWN 180000Z AUTO 33006KT M14/M20 RMK AO1 PRESRR PK WND
30018/2300 SLP182 T11361201 53056=
METAR CXKT 180000Z AUTO 17004KT M10/M13 RMK AO1 SOG 03 3025 SLP186
T11001129=


005 
SACN91 KWBC 180014
METAR CWGR 180000Z AUTO 18005KT M06/M09 RMK AO1 SLP158 T10561092
53020=
METAR CWGT 180000Z AUTO 30011KT 06/02 RMK AO1 SLP319 T00640015
55004=
METAR CWGW 180000Z AUTO 12005KT M06/M15 RMK AO1 SOG 14 5000 SLP284
T10561147=
METAR CWGY 180000Z AUTO 33009KT M13/M16 RMK AO1 SOG 29 3012 SLP320
T11341164=
METAR CWHQ 180000Z AUTO 14001KT M05/M07 RMK AO1 T10541066 50002=
METAR CWHT 180000Z AUTO 01001KT M21/M23 RMK AO1 SOG 32 6015 SLP392
T12091234=
METAR CWHV 180000Z AUTO 16002KT M06/M08 RMK AO1 SLP155 T10631075
52008=
METAR CWID 180000Z AUTO 00000KT M27/M30 RMK AO1 SLP487 T12651295
51018=
METAR CWIG 180000Z AUTO 22007KT RMK AO1 =
METAR CWII 180000Z AUTO 33027G32KT M17/M20 RMK AO1 PK WND
32033/2340 SLP175 T11721199 51057=
METAR CWIP 180000Z AUTO 28002KT M09/M10 RMK AO1 T10851102=
METAR CWIS 180000Z AUTO 22006KT M11/M12 RMK AO1 SOG 72 1010 SLP138
T11081121=
METAR CWIT 180000Z AUTO 15003KT M02/M05 RMK AO1 SOG 13 8003 SLP146
T10161054=
METAR CWIW 180000Z AUTO 32014KT M16/M20 RMK AO1 SOG 27 1011 PK WND
33018/2359 SLP293 T11611195=
METAR CWIZ 180000Z AUTO 17009KT M02/M05 RMK AO1 SOG 10 T10221050=
METAR CWJB 180000Z AUTO 00000KT M05/M07 RMK AO1 SOG 08 T10531068=
METAR CWJH 180000Z AUTO 31009G18KT M26/M31 RMK AO1 SOG 55 3021 PK
WND 30018/2356 SLP297 T12581311=


006 
SACN98 KWBC 180014
METAR CXDK 180000Z AUTO 00000KT M27/M29 RMK AO1 SOG 16 6007 SLP467
T12651291=
METAR CXKI 180000Z AUTO 15009KT M05/M06 RMK AO1 SOG 17 6047 PK WND
16018/2300 SLP968 T10491063 50008=
METAR CXLB 180000Z AUTO 32005KT M04/M09 RMK AO1 SLP183 T10401094
53026=
METAR CXPC 180000Z AUTO M01/M05 RMK AO1 SOG 32 8037 SLP038
T10051046 50013=
METAR CXRB 180000Z AUTO 03016KT M33/M36 RMK AO1 SOG 04 1012 PK WND
03019/2355 SLP239 T13291362=
METAR CXTD 180000Z AUTO 23004KT M09/M12 RMK AO1 SOG 06 1022 SLP178
T10861116=
METAR CXTO 180000Z AUTO 03/M03 RMK AO1 SOG 05 8018 SLP094
T00271030=
METAR CXVN 180000Z AUTO 18007KT 03/M03 RMK AO1 SLP101 T00291031
58024=
METAR CXYH 180000Z AUTO 00000KT M25/M27 RMK AO1 SOG 22 6004 SLP465
T12461271=
METAR CZKD 180000Z AUTO 32013G18KT M29/M33 RMK AO1 SOG 32 1025 PK
WND 33022/2348 SLP198 T12861331=
METAR CZMJ 180000Z AUTO 30012KT M15/M18 RMK AO1 SOG 10 1024 PK WND
31018/2305 SLP306 T11541175=
METAR CZRP 180000Z AUTO 32028G33KT M30/M33 RMK AO1 PK WND
32038/2313 SLP313 T13031333 53021=
METAR CZTB 180000Z AUTO 32025G33KT M04/M09 RMK AO1 PRESRR SOG 04
3066 PK WND 32033/2355 SLP955 T10391089=
METAR CZZJ 180000Z AUTO 31008KT M09/M13 RMK AO1 SOG 19 3027 PK WND
32019/2318 SLP348 T10881126 50005=


007 
SACN93 KWBC 180014
METAR CWNE 180000Z AUTO 27005KT M05/M10 RMK AO1 SLP172 T10461103
53021=
METAR CWNK 180000Z AUTO 32011G18KT M14/M18 RMK AO1 2PAST HR 1050
PK WND 33024/2322 SLP200 P0001 T11411176 50004=
METAR CWNM 180000Z AUTO 16003KT M00/M04 RMK AO1 SLP274 T10011042
53003=
METAR CWNP 180000Z AUTO 36001KT 01/M03 RMK AO1 SOG 05 3001 SLP286
T00071032=
METAR CWNQ 180000Z AUTO 17004KT M03/M06 RMK AO1 SLP150 T10321064
51004=
METAR CWOC 180000Z AUTO 36005KT M09/M14 RMK AO1 SLP165 T10851136
51019=
METAR CWPD 180000Z AUTO 19005KT M11/M12 RMK AO1 2PAST HR 3008
SLP140 P0001 T11061122 50002=
METAR CWPE 180000Z AUTO 31004KT M03/M11 RMK AO1 SLP184 T10261114
51022=
METAR CWPR 180000Z AUTO 08001KT M03/M07 RMK AO1 SOG 16 5003 SLP322
T10291071=
METAR CWPZ 180000Z AUTO 00000KT M03/ RMK AO1 SOG 23 3009 SLP363
T1025=


008 
SACN88 KWBC 180014
METAR CERM 180000Z AUTO 12001KT M07/M09 RMK AO1 SOG 14 2015 SLP165
T10721092=
METAR CWAR 180000Z AUTO 11006KT M03/M05 RMK AO1 SLP156 T10301050
53015=
METAR CWBK 180000Z AUTO 32010KT M05/M10 RMK AO1 SOG 07 1021 SLP180
T10481097=
METAR CWDA 180000Z AUTO 26008KT M07/M09 RMK AO1 SOG 14 1012
T10661094=
METAR CWXI 180000Z AUTO 31012KT M04/M10 RMK AO1 SLP155 T10351095
51020=
METAR CWZN 180000Z AUTO 05008KT M02/M06 RMK AO1 SLP131 T10231055
53014=
METAR CXNP 180000Z AUTO 18004KT M10/M14 RMK AO1 SOG 01 3023 SLP184
T11041138=
METAR CZCR 180000Z AUTO 23004KT M08/M12 RMK AO1 SOG 02 1020 SLP167
T10831120=
METAR CZDB 180000Z AUTO 34002KT M13/M15 RMK AO1 SOG 13 2022 SLP182
T11331154=
METAR CZSP 180000Z AUTO 24008KT M07/M10 RMK AO1 SOG 24 1018 SLP171
T10651103=
METAR CERM 180000Z AUTO 12001KT M07/M09 RMK AO1 SOG 14 2015 SLP165
T10721092=
METAR CWAR 180000Z AUTO 11006KT M03/M05 RMK AO1 SLP156 T10301050
53015=
METAR CWBK 180000Z AUTO 32010KT M05/M10 RMK AO1 SOG 07 1021 SLP180
T10481097=
METAR CWDA 180000Z AUTO 26008KT M07/M09 RMK AO1 SOG 14 1012
T10661094=
METAR CWXI 180000Z AUTO 31012KT M04/M10 RMK AO1 SLP155 T10351095
51020=
METAR CWZN 180000Z AUTO 05008KT M02/M06 RMK AO1 SLP131 T10231055
53014=
METAR CXNP 180000Z AUTO 18004KT M10/M14 RMK AO1 SOG 01 3023 SLP184
T11041138=
METAR CZCR 180000Z AUTO 23004KT M08/M12 RMK AO1 SOG 02 1020 SLP167
T10831120=
METAR CZDB 180000Z AUTO 34002KT M13/M15 RMK AO1 SOG 13 2022 SLP182
T11331154=
METAR CZSP 180000Z AUTO 24008KT M07/M10 RMK AO1 SOG 24 1018 SLP171
T10651103=
METAR CERM 180000Z AUTO 12001KT M07/M09 RMK AO1 SOG 14 2015 SLP165
T10721092=
METAR CWAR 180000Z AUTO 11006KT M03/M05 RMK AO1 SLP156 T10301050
53015=
METAR CWBK 180000Z AUTO 32010KT M05/M10 RMK AO1 SOG 07 1021 SLP180
T10481097=
METAR CWDA 180000Z AUTO 26008KT M07/M09 RMK AO1 SOG 14 1012
T10661094=
METAR CWXI 180000Z AUTO 31012KT M04/M10 RMK AO1 SLP155 T10351095
51020=
METAR CWZN 180000Z AUTO 05008KT M02/M06 RMK AO1 SLP131 T10231055
53014=
METAR CXNP 180000Z AUTO 18004KT M10/M14 RMK AO1 SOG 01 3023 SLP184
T11041138=
METAR CZCR 180000Z AUTO 23004KT M08/M12 RMK AO1 SOG 02 1020 SLP167
T10831120=
METAR CZDB 180000Z AUTO 34002KT M13/M15 RMK AO1 SOG 13 2022 SLP182
T11331154=
METAR CZSP 180000Z AUTO 24008KT M07/M10 RMK AO1 SOG 24 1018 SLP171
T10651103=
METAR CERM 180000Z AUTO 12001KT M07/M09 RMK AO1 SOG 14 2015 SLP165
T10721092=
METAR CWAR 180000Z AUTO 11006KT M03/M05 RMK AO1 SLP156 T10301050
53015=
METAR CWBK 180000Z AUTO 32010KT M05/M10 RMK AO1 SOG 07 1021 SLP180
T10481097=
METAR CWDA 180000Z AUTO 26008KT M07/M09 RMK AO1 SOG 14 1012
T10661094=
METAR CWXI 180000Z AUTO 31012KT M04/M10 RMK AO1 SLP155 T10351095
51020=
METAR CWZN 180000Z AUTO 05008KT M02/M06 RMK AO1 SLP131 T10231055
53014=
METAR CXNP 180000Z AUTO 18004KT M10/M14 RMK AO1 SOG 01 3023 SLP184
T11041138=
METAR CZCR 180000Z AUTO 23004KT M08/M12 RMK AO1 SOG 02 1020 SLP167
T10831120=
METAR CZDB 180000Z AUTO 34002KT M13/M15 RMK AO1 SOG 13 2022 SLP182
T11331154=
METAR CZSP 180000Z AUTO 24008KT M07/M10 RMK AO1 SOG 24 1018 SLP171
T10651103=
METAR CWAR 180000Z AUTO 11006KT M03/M05 RMK AO1 SLP156 T10301050
53015=
METAR CWBK 180000Z AUTO 32010KT M05/M10 RMK AO1 SOG 07 1021 SLP180
T10481097=
METAR CWDA 180000Z AUTO 26008KT M07/M09 RMK AO1 SOG 14 1012
T10661094=
METAR CWXI 180000Z AUTO 31012KT M04/M10 RMK AO1 SLP155 T10351095
51020=
METAR CWZN 180000Z AUTO 05008KT M02/M06 RMK AO1 SLP131 T10231055
53014=
METAR CXNP 180000Z AUTO 18004KT M10/M14 RMK AO1 SOG 01 3023 SLP184
T11041138=


009 
SACN66 KWBC 180014
METAR CWBU 180000Z AUTO 33013KT M18/M23 RMK AO1 SOG 17 3022 PK WND
32019/2320 SLP283 T11801228 50002=
METAR CWIK 180000Z AUTO 33013G20KT M18/M22 RMK AO1 SOG 15 1021 PK
WND 33020/2356 SLP243 T11801218=
METAR CWBU 180000Z AUTO 33013KT M18/M23 RMK AO1 SOG 17 3022 PK WND
32019/2320 SLP283 T11801228 50002=
METAR CWIK 180000Z AUTO 33013G20KT M18/M22 RMK AO1 SOG 15 1021 PK
WND 33020/2356 SLP243 T11801218=


010 
SACN78 KWBC 180014
METAR CTNK 180000Z AUTO 17002KT M03/M06 RMK AO1 SOG 22 8023 SLP075
T10271063=
METAR CTRA 180000Z AUTO 33008KT M12/M14 RMK AO1 SOG 22 1064 PK WND
35020/2313 SLP083 T11191144=
METAR CWKK 180000Z AUTO 33030G37KT M05/M08 RMK AO1 PRESRR SOG 11
3073 PK WND 32043/2303 SLP938 T10541081 50011=
METAR CXBI 180000Z AUTO 18012G19KT M00/M04 RMK AO1 SOG 38 6024 PK
WND 20020/2335 SLP077 T10041035=
METAR CXZC 180000Z AUTO 15004KT M08/M09 RMK AO1 4PAST HR SOG 21
7050 SLP914 P0002 T10781092 50045=
METAR CWKK 180000Z AUTO 33030G37KT M05/M08 RMK AO1 PRESRR SOG 11
3073 PK WND 32043/2303 SLP938 T10541081 50011=
METAR CXBI 180000Z AUTO 18012G19KT M00/M04 RMK AO1 SOG 38 6024 PK
WND 20020/2335 SLP077 T10041035=
METAR CXZC 180000Z AUTO 15004KT M08/M09 RMK AO1 4PAST HR SOG 21
7050 SLP914 P0002 T10781092 50045=
METAR CXBI 180000Z AUTO 18012G19KT M00/M04 RMK AO1 SOG 38 6024 PK
WND 20020/2335 SLP077 T10041035=
METAR CXZC 180000Z AUTO 15004KT M08/M09 RMK AO1 4PAST HR SOG 21
7050 SLP914 P0002 T10781092 50045=
METAR CXBI 180000Z AUTO 18012G19KT M00/M04 RMK AO1 SOG 38 6024 PK
WND 20020/2335 SLP077 T10041035=
METAR CXZC 180000Z AUTO 15004KT M08/M09 RMK AO1 4PAST HR SOG 21
7050 SLP914 P0002 T10781092 50045=
METAR CXBI 180000Z AUTO 18012G19KT M00/M04 RMK AO1 SOG 38 6024 PK
WND 20020/2335 SLP077 T10041035=
METAR CXZC 180000Z AUTO 15004KT M08/M09 RMK AO1 4PAST HR SOG 21
7050 SLP914 P0002 T10781092 50045=
METAR CXBI 180000Z AUTO 18012G19KT M00/M04 RMK AO1 SOG 38 6024 PK
WND 20020/2335 SLP077 T10041035=
METAR CXZC 180000Z AUTO 15004KT M08/M09 RMK AO1 4PAST HR SOG 21
7050 SLP914 P0002 T10781092 50045=
METAR CXBI 180000Z AUTO 18012G19KT M00/M04 RMK AO1 SOG 38 6024 PK
WND 20020/2335 SLP077 T10041035=
METAR CXZC 180000Z AUTO 15004KT M08/M09 RMK AO1 4PAST HR SOG 21
7050 SLP914 P0002 T10781092 50045=


011 
SACN63 KWBC 180014
METAR CWMT 180000Z AUTO 30006KT M31/M34 RMK AO1 SOG 28 3007 SLP480
T13111341=
METAR CZEV 180000Z AUTO 13006KT M25/M27 RMK AO1 SOG 39 8018 SLP365
T12451269=
METAR CZFS 180000Z AUTO 23002KT M26/M29 RMK AO1 SOG 23 8001 SLP487
T12551291 50002=
METAR CZHY 180000Z AUTO 31007KT M26/M30 RMK AO1 SOG 06 1015 SLP481
T12641295=
METAR CZSM 180000Z AUTO 34003KT M28/M31 RMK AO1 SOG 36 2027 SLP447
T12781306=


012 
SAID31 KWBC 180000 RRB
METAR
WAMM 180000Z VRB01KT 8000 SCT019 27/25 Q1012 NOSIG=


016 
SPCN48 CWAO 180013
SPECI CYMH 180013Z AUTO 22003KT 9SM SCT019 M07/M10 A2995 RMK SLP145=


019 
SPCN43 CWAO 180013
SPECI CZVL 180013Z AUTO 29004KT 3SM -SN BKN016 OVC055 M09/M10 A3036 RMK ICE INTMT SLP333=


021 
SANT31 KWBC 180000 RRA
METAR
GVAC 180000Z NIL=


022 
SAAO33 KWBC 180000 RRA
METAR
GFLL 180000Z NIL=
GGOV 180000Z NIL=
GLRB 180000Z NIL=
GOGG 180000Z NIL=
GOGS 180000Z NIL=
GOOY 180000Z 02010KT 340V040 CAVOK 20/14 Q1016=
GOSS 180000Z 02006KT 350V070 CAVOK 19/04 Q1018=
GOTT 180000Z 02006KT CAVOK 21/04 Q1016=
GUCY 180000Z NIL=
GULB 180000Z NIL=
GUNZ 180000Z NIL=


023 
SACN92 KWBC 180014
METAR CWJI 180000Z AUTO 33013KT M15/M18 RMK AO1 SOG 27 1017 PK WND
34018/2326 SLP292 T11531181=
METAR CWJR 180000Z AUTO 31004KT M02/M04 RMK AO1 SLP280 T10151041
53002=
METAR CWJU 180000Z AUTO 28005KT 05/M00 RMK AO1 SLP365 T00501004
51006=
METAR CWJV 180000Z AUTO 29003KT 02/M07 RMK AO1 SLP306 T00181069
53004=
METAR CWJW 180000Z AUTO 12003KT M07/M11 RMK AO1 SOG 05 3014 SLP334
T10741108=
METAR CWJX 180000Z AUTO 35005KT M14/M18 RMK AO1 SOG 30 1015 SLP319
T11351177=
METAR CWKG 180000Z AUTO 28001KT M09/M12 RMK AO1 SOG 04 1026 SLP192
T10891120=
METAR CWKH 180000Z AUTO 02/ RMK AO1 SLP306 T0023 55001=
METAR CWKX 180000Z AUTO 05004KT M17/M19 RMK AO1 SOG 37 3001 SLP422
T11661190=
METAR CWLC 180000Z AUTO 36010KT 03/01 RMK AO1 T00340008=
METAR CWLE 180000Z AUTO 32009KT M17/M20 RMK AO1 SOG 29 3012 SLP311
T11721198=
METAR CWLM 180000Z AUTO 04004KT 05/01 RMK AO1 SLP313 T00510008
55001=
METAR CWMJ 180000Z AUTO 16006KT M03/M07 RMK AO1 SOG 12 6018 SLP102
T10341071=
METAR CWMM 180000Z AUTO 10001KT 06/01 RMK AO1 SLP321 T00630005
55001=
METAR CWMQ 180000Z AUTO 34006KT M12/M15 RMK AO1 SOG 05 3010 SLP309
T11201148=


024 
SAAO32 KWBC 180000 RRA
METAR
GABS 180000Z VRB02KT 8000 NSC 19/03 Q1017 NOSIG=
GAGO 180000Z NIL=
GAMB 180000Z NIL=
GANR 180000Z NIL=
GATB 180000Z NIL=
GQNI 180000Z NIL=
GQPP 180000Z NIL=


025 
SAAF32 KWBC 180000 RRB
METAR
FGBT 180000Z 18008KT 9999 SCT010 27/25 Q1010=
FGSL 180000Z NIL=
FHAW 180000Z NIL=
FOOG 180000Z NIL=
FOOL 180000Z 18007KT 9999 FEW012 27/25 Q1011 NOSIG=
FOOL 180000Z NIL=
FOON 180000Z NIL=
FPST 180000Z NIL=
FZAA 180000Z 00000KT 6000 SCT014 23/21 Q1013 NOSIG=
FZIC 180000Z NIL=
FZNA 180000Z NIL=
FZQA 180000Z NIL=


026 
SAAF31 KWBC 180000 RRB
METAR
DIAP 180000Z 27006KT 9999 FEW012 28/25 Q1012 NOSIG=
DIBK 180000Z NIL=


027 
SAUS80 KWBC 180000 RRI
METAR
KMHS 172356Z AUTO 00000KT 10SM CLR 10/01 A3016 RMK AO2 SLP239
     T01000006 10111 20039 55003 PNO=


028 
SACA33 KWBC 180000 RRC
METAR
TNCM 180000Z 06008KT 9999 SCT016 26/24 Q1018 NOSIG=


029 
SAUS70 KWBC 180014
METAR
KDUB 180003Z AUTO 00000KT 4SM -SN SCT025 BKN030 OVC037 M11/M13
     A2987 RMK AO2=
KL18 180015Z AUTO 22005KT 10SM CLR 13/07 A3016 RMK AO2=
K7W4 180015Z AUTO 00000KT 10SM CLR 01/M05 A3011 RMK AO1
     T00131051=
KD55 180015Z AUTO 34016KT 10SM CLR M14/M14 A2999 RMK AO2=
KEOE 180015Z AUTO 00000KT 10SM 05/M02 A3011 RMK AO2=
KFDW 180015Z AUTO 12003KT 10SM CLR 08/M02 A3009 RMK AO1=
KGAF 180015Z AUTO 33019G30KT 10SM FEW019 FEW024 M12/M16 A3003 RMK
     AO2 PWINO=
KHWY 180015Z AUTO 13004KT 10SM CLR 02/M07 A3010 RMK AO2
     T00201073=
KRCM 180015Z AUTO 00000KT 10SM 07/00 A2959 RMK AO2=
KVBW 180015Z AUTO 18007KT 10SM CLR 02/M05 A3003 RMK AO1
     T00191055=
KVNW 180015Z AUTO 19015G19KT 10SM CLR 02/M02 A2972 RMK AO2=
KW31 180015Z AUTO 00000KT 10SM CLR 02/M03 A3011 RMK AO1
     T00181034=
KW96 180015Z AUTO 00000KT 10SM CLR 02/M05 A3015 RMK AO1
     T00201050=
K10G 180015Z AUTO 18009G14KT 10SM CLR 01/M02 A2986 RMK AO2=
KCLS 180015Z AUTO 35004KT 10SM CLR 04/04 A3044 RMK AO2=
KFYJ 180015Z AUTO 00000KT 10SM CLR 00/M06 A3017 RMK AO1
     T00031060=
KGVE 180015Z AUTO 00000KT 10SM CLR 00/M05 A3009 RMK AO1
     T10011046=
KLQK 180015Z AUTO 00000KT 10SM CLR 04/M03 A3005 RMK AO2
     T00371034=
KMAW 180015Z AUTO 18013KT 10SM SCT095 SCT110 10/02 A2977 RMK
     AO1=
KRAW 180015Z AUTO 00000KT 10SM BKN060 BKN120 08/00 A2958 RMK
     AO2=
KRID 180015Z AUTO 14013KT 10SM CLR 01/M02 A2978 RMK AO2=
KUUV 180015Z AUTO 19008KT 10SM OVC110 10/00 A2961 RMK AO2=
KW75 180015Z AUTO 15005KT 10SM CLR 01/M04 A3017 RMK AO1
     T00091045=
K10G 180015Z AUTO 18009G14KT 10SM CLR 01/M02 A2986 RMK AO2=


030 
SAXX60 KWBC 180000 RRJ
METAR
PHNG 172357Z AUTO 36006KT 10SM SCT030 OVC037 A2990 RMK AO2 SLP122
     60001 56024 $=
KNLC 172356Z 03004KT 9SM CLR 18/01 A3016 RMK AO2 SLP215 RH/30
     T01830011 10189 20100 56013=
KNBC 172356Z AUTO 09003KT 7SM CLR 06/03 A3012 RMK AO2 SLP200
     T00610028 10144 20061 50001=
KNGP 172356Z 18014G23KT 10SM FEW028 BKN140 OVC250 18/16 A2982 RMK
     AO2 SLP096 T01780156 56019=
KNGU 172359Z 14005KT 10SM FEW250 04/M04 A3019 RMK SLP222 T00391039
     10072 20039 51008=
KNPA 172356Z 15009KT 10SM BKN060 BKN150 BKN250 16/09 A3002 RMK AO2
     SLP167 T01560094 10183 20156 58004 $=
KNPA 172356Z 15009KT 10SM BKN060 BKN150 BKN250 16/09 A3002 RMK AO2
     SLP167 T01560094 10183 20156 58004 $=
KNFL 172357Z 34012KT 10SM SCT180 SCT220 13/M09 A3009 RMK AO2
     SLP157 T01281094 10139 20067 53000 $=
KNGP 172356Z 18014G23KT 10SM FEW028 BKN140 OVC250 18/16 A2982 RMK
     AO2 SLP096 T01780156 56019=
KNLC 172356Z 03004KT 9SM CLR 18/01 A3016 RMK AO2 SLP215 RH/30
     T01830011 10189 20100 56013=
KNQI 172356Z 16007KT 10SM FEW035 BKN140 BKN190 OVC250 21/17 A2981
     RMK AO2 SLP091 T02110167 10261 20211 55018 $=
KNSI 172353Z AUTO 32016G23KT SCT009 A3016 RMK AO2 SLPNO 56010
     $=
KNXP 172356Z AUTO 30014G22KT 10SM CLR 18/M07 A3010 RMK AO2 SLP173
     T01831072 10194 20139 55004=
KMIB 172355Z COR 34013KT 10SM FEW025 M13/M17 A3007 RMK AO2A SLP217
     4/004 60000 T11301170 11085 21131 52029 $ COR 0010=
KNGU 172359Z 14005KT 10SM FEW250 04/M04 A3019 RMK SLP222 T00391039
     10072 20039 51008=
KNSI 172353Z AUTO 32016G23KT SCT009 A3016 RMK AO2 SLPNO 56010
     $=
KNXP 172356Z AUTO 30014G22KT 10SM CLR 18/M07 A3010 RMK AO2 SLP173
     T01831072 10194 20139 55004=
KNXP 172356Z AUTO 30014G22KT 10SM CLR 18/M07 A3010 RMK AO2 SLP173
     T01831072 10194 20139 55004=
KPRN 180000Z AUTO 18004KT 10SM CLR 13/01 A3000 RMK AO2 SLP111
     T01330006 10167 20133 55012=
KNGU 172359Z 14005KT 10SM FEW250 04/M04 A3019 RMK AO2 SLP222
     T00391039 10072 20039 51008=


031 
SACN96 KWBC 180014
METAR CWXL 180000Z AUTO 02005KT M13/M15 RMK AO1 SLP325 T11301154
53006=
METAR CWYJ 180000Z AUTO 36002KT 06/01 RMK AO1 SLP318 T00570010
55003=
METAR CWYY 180000Z AUTO 33008G15KT 05/M08 RMK AO1 PK WND
35017/2301 SLP297 T00481079 55000=
METAR CWZA 180000Z AUTO 00000KT 06/01 RMK AO1 SLP317 T00640005
55000=
METAR CWZQ 180000Z AUTO 25007KT M05/M09 RMK AO1 SLP160 T10471093
52023=
METAR CXHM 180000Z AUTO 21005KT 03/M04 RMK AO1 SLP099 T00251035
58023=
METAR CXKA 180000Z AUTO 17008KT M02/M03 RMK AO1 SOG 31 6020 SLP908
T10211026 50004=


032 
SACN94 KWBC 180014
CWND M01/M01 RMK SOG 22 1064 T10111006=
METAR CWQH 180000Z AUTO 19005KT M03/M07 RMK AO1 SOG 12 1010 SLP164
T10341068=
METAR CWQK 180000Z AUTO 08008KT 07/ RMK AO1 SLP319 T0072 55000=
METAR CWQO 180000Z AUTO 20010G15KT M03/M07 RMK AO1 PK WND
20017/2328 T10331072=
METAR CWQP 180000Z AUTO 18017KT 02/M01 RMK AO1 SOG 06 8015 PK WND
19019/2359 SLP125 T00171013=
METAR CWQR 180000Z AUTO 33009KT M05/M09 RMK AO1 T10511092=
METAR CWQV 180000Z AUTO 02002KT M05/M09 RMK AO1 T10541094=
METAR CWRJ 180000Z AUTO 27003KT M16/M19 RMK AO1 SOG 16 3013 SLP317
T11581188=
METAR CWRK 180000Z AUTO 17004KT M02/M06 RMK AO1 SOG 15 8013 SLP092
T10231057=
METAR CWRT 180000Z AUTO 17004KT M08/M15 RMK AO1 SLP291 T10751152
55002=
METAR CWRY 180000Z AUTO 35004KT M11/M14 RMK AO1 SOG 18 3003 SLP316
T11111135=
METAR CWRZ 180000Z AUTO 22007KT M05/M10 RMK AO1 SLP158 T10501101
51018=
METAR CWSD 180000Z AUTO 21002KT M14/M15 RMK AO1 SLP176 T11391153
53021=
METAR CWSG 180000Z AUTO 19007KT M10/M13 RMK AO1 SLP157 T11041130
51013=
METAR CWSK 180000Z AUTO 06001KT 01/M02 RMK AO1 SLP318 T00061018
55001=
METAR CWSL 180000Z AUTO 29004KT 03/M07 RMK AO1 SLP292 T00271073
53003=
METAR CWSP 180000Z AUTO 12011KT 07/M00 RMK AO1 SLP323 T00711004
55003=
METAR CWSR 180000Z AUTO 31010KT M19/M22 RMK AO1 SOG 13 3018 SLP321
T11881224=
METAR CWST 180000Z AUTO 21003KT M05/M08 RMK AO1 SOG 13 3014 SLP149
T10541081=
METAR CWSD 180000Z AUTO 21002KT M14/M15 RMK AO1 SLP176 T11391153
53021=
METAR CWSG 180000Z AUTO 19007KT M10/M13 RMK AO1 SLP157 T11041130
51013=
METAR CWSK 180000Z AUTO 06001KT 01/M02 RMK AO1 SLP318 T00061018
55001=
METAR CWSL 180000Z AUTO 29004KT 03/M07 RMK AO1 SLP292 T00271073
53003=
METAR CWSP 180000Z AUTO 12011KT 07/M00 RMK AO1 SLP323 T00711004
55003=
METAR CWSR 180000Z AUTO 31010KT M19/M22 RMK AO1 SOG 13 3018 SLP321
T11881224=
METAR CWST 180000Z AUTO 21003KT M05/M08 RMK AO1 SOG 13 3014 SLP149
T10541081=
METAR CWSD 180000Z AUTO 21002KT M14/M15 RMK AO1 SLP176 T11391153
53021=
METAR CWSG 180000Z AUTO 19007KT M10/M13 RMK AO1 SLP157 T11041130
51013=
METAR CWSK 180000Z AUTO 06001KT 01/M02 RMK AO1 SLP318 T00061018
55001=
METAR CWSL 180000Z AUTO 29004KT 03/M07 RMK AO1 SLP292 T00271073
53003=
METAR CWSP 180000Z AUTO 12011KT 07/M00 RMK AO1 SLP323 T00711004
55003=
METAR CWSR 180000Z AUTO 31010KT M19/M22 RMK AO1 SOG 13 3018 SLP321
T11881224=
METAR CWST 180000Z AUTO 21003KT M05/M08 RMK AO1 SOG 13 3014 SLP149
T10541081=
METAR CWSD 180000Z AUTO 21002KT M14/M15 RMK AO1 SLP176 T11391153
53021=
METAR CWSG 180000Z AUTO 19007KT M10/M13 RMK AO1 SLP157 T11041130
51013=
METAR CWSK 180000Z AUTO 06001KT 01/M02 RMK AO1 SLP318 T00061018
55001=
METAR CWSL 180000Z AUTO 29004KT 03/M07 RMK AO1 SLP292 T00271073
53003=
METAR CWSP 180000Z AUTO 12011KT 07/M00 RMK AO1 SLP323 T00711004
55003=
METAR CWSR 180000Z AUTO 31010KT M19/M22 RMK AO1 SOG 13 3018 SLP321
T11881224=
METAR CWST 180000Z AUTO 21003KT M05/M08 RMK AO1 SOG 13 3014 SLP149
T10541081=
METAR CWSG 180000Z AUTO 19007KT M10/M13 RMK AO1 SLP157 T11041130
51013=
METAR CWSK 180000Z AUTO 06001KT 01/M02 RMK AO1 SLP318 T00061018
55001=
METAR CWSL 180000Z AUTO 29004KT 03/M07 RMK AO1 SLP292 T00271073
53003=
METAR CWSP 180000Z AUTO 12011KT 07/M00 RMK AO1 SLP323 T00711004
55003=
METAR CWSR 180000Z AUTO 31010KT M19/M22 RMK AO1 SOG 13 3018 SLP321
T11881224=
METAR CWST 180000Z AUTO 21003KT M05/M08 RMK AO1 SOG 13 3014 SLP149
T10541081=


879 
SPAK40 KNKA 180014
SPECI PAAK 180013Z AUTO 00000KT 10SM SCT003 SCT014 OVC019 04/04 
    A2897 RMK AO2 TSNO=
SPECI PADQ 180012Z 13009KT 4SM BR SCT009 OVC013 06/05 A3000 RMK AO2 
    T00560050=
SPECI PAPE 180013Z AUTO 10019G26KT 2 1/2SM RA BR OVC010 06/04 A2953 
    RMK AO2 PK WND 13028/0001 CIG 008V014 P0001=
SPECI PAPM 180013Z AUTO 12024G31KT 10SM BKN013 BKN070 OVC090 03/03 
    A2950 RMK AO2 PK WND 12034/0003 TSNO=
SPECI PATO 180012Z AUTO 11015G32KT 070V140 2SM -SN BKN017 OVC025 
    03/00 A3033 RMK AO2 PK WND 08036/2357 RAB00E07 P0000 T00280000 
    TSNO=


927 
SAMZ40 FQMA 180000
METAR FQQL 180000Z 25004KT 9999 TS SCT020 FEW025CB SCT/// 25/23 Q1011
RMK CB TO S=

928 
SAAO32 GOOY 180000 RRA
METAR GANR 180000Z 06006KT CAVOK 19/M05 Q1018=
METAR GAKD 180000Z 06006KT 8000 NSC 21/01 Q1016=


002 
SACN31 CWAO 180000 CCA
METAR CYZX 180000Z CCA 05003KT 15SM BKN035 M11/M12 A3008 RMK SC6 DENSITY ALT -3281FT SLP189=


337 
SPCN42 CWAO 180014
SPECI CYQZ 180014Z AUTO 34005KT 9SM -SN FEW034 OVC047 M01/M06 A3047 RMK SLP351=


342 
SPZZ40 KAWN 180014 RRB
SPECI CYDQ 180011Z AUTO 30008KT 6SM -SN FEW014 BKN033 M13/M16 A3066
      RMK SLP443=
SPECI CYEG 180009Z 26003KT 3SM -SN OVC024 M10/M11 A3035 RMK SC8 SLP334=
SPECI CYGW 180010Z AUTO 10006KT 9SM BKN021 OVC027 M11/M15 A2957 RMK
      SLP015=
SPECI CYMH 180013Z AUTO 22003KT 9SM SCT019 M07/M10 A2995 RMK SLP145=
SPECI CYNM 180010Z AUTO 15016KT 3/4SM -SN VV012 M10/M13 A2946 RMK SLP002=
SPECI CYQF 180009Z AUTO 00000KT 2 1/2SM -SN OVC032 M10/M13 A3031 RMK
      SLP335=
SPECI CYVT 180011Z AUTO 32015G21KT 9SM FEW008 SCT028 M22/M25 A3044
      RMK SLP362=
SPECI CYXR 180011Z AUTO 17022G29KT 9SM -FZRA -SN OVC018 M02/M04 A2943
      RMK ICE MISG SLP982=
SPECI CYYN 180011Z AUTO 32014KT 9SM OVC011 M15/M18 A3021 RMK SLP300=
SPECI CZUM 180012Z AUTO 12002KT 9SM -SN OVC100 M14/M16 A2976 RMK SLP120=
SPECI CZVL 180011Z AUTO 30004KT 2SM -SN BKN016 OVC055 M09/M10 A3036
      RMK ICE INTMT SLP333=
SPECI CZVL 180013Z AUTO 29004KT 3SM -SN BKN016 OVC055 M09/M10 A3036
      RMK ICE INTMT SLP333=
SPECI EKYT 180010Z AUTO 25016KT 1400 R08L/P1500N R26R/P1500N BR OVC002///
      06/06 Q1030=
SPECI ETAD 180010Z AUTO 09008KT 9000 BR OVC001 M01/M01 A3046 RMK AO2
      VIS 2200 RWY22 SLP321 FZRANO $=
SPECI ETHF 180010Z 11003KT 0800 FZFG OVC001 M02/M03 Q1036 RED=
SPECI KRCA 180010Z AUTO 34020G25KT 4SM -SN FEW002 BKN014 BKN023 OVC060
      M05/M09 A2999 RMK AO2 CIG 013 RWY13 SLP188 $=
SPECI PAGA 180011Z AUTO 11020KT 1/2SM -SN FZFG OVC018 M11/M12 A2995
      RMK AO2 PK WND 12026/0000 P0000 FZRANO TSNO $=
SPECI PGUA 180010Z AUTO 08013KT 10SM BKN017 29/23 A2990 RMK AO2 BKN
      V SCT SLP115 $=


426 
SASG21 GOOY 180000
METAR GOSS 180000Z 02006KT 350V070  CAVOK 19/04 Q1018=
METAR GOSP 180000Z NIL=
METAR GOOG 180000Z 06006KT CAVOK 21/03 Q1015=
METAR GOSM 180000Z NIL=
METAR GOOY 180000Z 02010KT 340V040 CAVOK 20/14 Q1016=
METAR GOBD 180000Z 03011KT 7000 NSC 20/06 Q1016 NOSIG=
METAR GOOD 180000Z 36002KT CAVOK 22/04 Q1016=
METAR GOOK 180000Z 08004KT CAVOK 21/02 Q1016=
METAR GOTT 180000Z 02006KT CAVOK 21/04 Q1016=
METAR GOGG 180000Z NIL=
METAR GOGS 180000Z NIL=
METAR GOGK 180000Z 04006KT CAVOK 22/03 Q1014=
METAR GOTK 180000Z 08006KT CAVOK 24/06 Q1014=

622 
SPCN44 CWAO 180014
SPECI CYCY 180014Z AUTO 27004KT 9SM CLR M34/M38 A3006 RMK SLP186=


637 
SAXX60 KAWN 180000 RRB
METAR PHMK 172354Z COR 03008KT 10SM SCT022 BKN039 24/18 A2994 RMK AO2
      SLP142 60000 T02440178 10256 20211 56020=


656 
SPPA41 KWBC 180015
SPECI
PGUA 180010Z AUTO 08013KT 10SM BKN017 29/23 A2990=


657 
SPCN31 KWBC 180015
SPECI
CYMH 180013Z AUTO 22003KT 9SM SCT019 M07/M10 A2995 RMK SLP145=


665 
SPPA31 KWBC 180015
SPECI
PGUA 180010Z AUTO 08013KT 10SM BKN017 29/23 A2990 RMK AO2 BKN V
SCT SLP115 $=


745 
SPXX61 KWBC 180015
SPECI
ETAD 180010Z AUTO 09008KT 9000 BR OVC001 M01/M01 A3046 RMK AO2 VIS
2200 RWY22 SLP321 FZRANO $=


909 
SAAP35 FAPR 180000
METAR FLKK 180000Z VRB02KT CAVOK 21/20 Q1018 NOSIG=


910 
SAAP31 FAPR 180000 RRA
METAR FAKN 180000Z AUTO 05006KT //// // ////// 18/16 Q1020=


911 
SAAP34 FAPR 180000
METAR FVRG 180000Z 10004KT 8000 -RA BKN080 18/18 Q1022=


912 
SAAP36 FAPR 180000 RRA
METAR FQQL 180000Z 25004KT 9999 TS SCT020 FEW025CB SCT/// 25/23 Q1011
    RMK CB TO S=


335 
SAIN33 VECC 180000 RRA
METAR VEGT 180000Z 13002KT 2000 BR FEW018 SCT100 15/15 Q1015 NOSIG=


336 
SANG31 YBBN 180000 RRA
METAR AGGH 180000Z 02005KT 9999 FEW018 FEW019CB BKN100 31/24 Q1008=


338 
SAPS31 NFFN 180000
METAR NCRG 180000Z AUTO 35004KT 310V060 9999 BKN033/// BKN065///
28/23 Q1010=
METAR NFFN 180000Z 30013KT 9999 FEW025TCU 31/25 Q1008 NOSIG=
METAR NFNA 180000Z 10007KT 9999 BKN020 32/26 Q1007=
METAR NFTF 180000Z 28006KT 9999 FEW016TCU 30/24 Q1009=
METAR NFTV 180000Z 02007KT 9999 FEW016TCU 29/24 Q1009=
METAR NGFU 180000Z NIL=
METAR NGTA 180000Z 07008KT 9999 VCSH SCT019 SCT040 BKN100 28/27 
Q1007=
METAR NIUE 180000Z AUTO 22005KT 170V270 9999 BKN031/// 29/23 Q1009=
METAR NSFA 180000Z 31006KT 9999 FEW020 SCT040 31/23 Q1009=
METAR NVSS 180000Z 11005KT 9999 FEW025 31/24 Q1008=
METAR NVVV 180000Z 22007KT 180V270 9999 FEW020 SCT300
31/24 Q1008=
METAR PLCH 180000Z 09011KT 9999 FEW020 SCT040 30/26 Q1009=
METAR NFTL 180000Z 34008KT 9999 FEW017 30/24 Q1009=


787 
SAML31 LMMM 180015
METAR LMML 180015Z 21014KT 9999 FEW030 14/07 Q1019 NOSIG=


854 
SPAK40 KNKA 180015
SPECI PAOM 180013Z 10020G27KT 1SM R28/5000V6000FT -SN BR OVC009 
    M02/M03 A2954 RMK AO2 PK WND 10027/0003 P0000 T10171028 $=
SPECI PAYA 180013Z AUTO 08003KT 2 1/2SM HZ FEW005 OVC013 02/M01 
    A3052 RMK AO2 T00221006 TSNO $=


983 
SPCN43 CWAO 180012
SPECI CYQL 180012Z 32005KT 15SM SCT027 BKN250 M10/M13 A3029 RMK SC4CI2 VIS SW-W 60 SLP324=


059 
SAKO51 RJTD 180000
METAR RKPC 180000Z 16005KT 100V180 CAVOK 05/M01 Q1026 NOSIG=
METAR RKPK 180000Z 32002KT CAVOK M01/M06 Q1026=
METAR RKSI 180000Z 05003KT CAVOK M02/M04 Q1027 NOSIG=
METAR RKSM 180000Z 15001KT 9999 SKC M04/M07 A3034=
METAR RKSS 180000Z 30003KT CAVOK M03/M04 Q1027 NOSIG=
METAR RKTN 180000Z 33001KT CAVOK M04/M08 Q1027=
METAR RKTU 180000Z 09001KT CAVOK M07/M08 Q1027=


371 
SPCN31 CWAO 180014
SPECI CYYC 180014Z 11005KT 4SM VCSH BKN016 OVC074 M10/M12 A3025 RMK SC5AS3 SLP326=


578 
SAAB31 LATI 180020
METAR LATI 180020Z 23004KT CAVOK 04/01 Q1028 NOSIG=


750 
SPAK31 KWBC 180016
SPECI
PAOM 180013Z 10020G27KT 1SM R28/5000V6000FT -SN BR OVC009 M02/M03
A2954=


751 
SPXX60 KWBC 180016
SPECI
KRCA 180010Z AUTO 34020G25KT 4SM -SN FEW002 BKN014 BKN023 OVC060
     M05/M09 A2999 RMK AO2 CIG 013 RWY13 SLP188 $=
PGUA 180010Z AUTO 08013KT 10SM BKN017 29/23 A2990 RMK AO2 BKN V
     SCT SLP115 $=


752 
SAAO32 KWBC 180000 RRB
METAR
GANR 180000Z 06006KT CAVOK 19/M05 Q1018=


753 
SAUS80 KWBC 180016
METAR
KNY0 180015Z AUTO 11003KT 10SM OVC039 M03/M05 A3000 RMK AO2
     T10331052=
K9MN 180003Z AUTO 30017G30KT 10SM SCT026 OVC035 M01/M07 A2959 RMK
     AO1=
KAID 180015Z AUTO 17010G16KT 10SM CLR 04/M02 A2973 RMK AO2
     T00401025=
KCBE 180005Z AUTO 33005KT 10SM CLR M01/M05 A3007 RMK AO2
     T10081051=


754 
SAUS70 KWBC 180016 RRA
METAR
KVER 180015Z AUTO 16003KT 10SM OVC060 09/01 A2958 RMK AO2
     T00920010=
KVGC 180015Z AUTO 15009KT 10SM OVC034 00/M05 A2995 RMK AO2=
KVJI 180015Z AUTO 10008KT 10SM CLR 05/M05 A2996 RMK AO2
     T00501049=
KW78 180015Z AUTO 11003KT 10SM CLR 04/M06 A3010 RMK AO1
     T00371057=
KW81 180015Z AUTO 15004KT 10SM CLR 00/M07 A3011 RMK AO1
     T10011066=
KX60 180015Z AUTO 00000KT 10SM SCT048 13/05 A3008 RMK AO2
     T01340051=
KXSA 180015Z AUTO 00000KT 10SM CLR 01/M04 A3016 RMK AO2
     T00101045=
KY19 180015Z AUTO 33017G22KT 8SM -SN FEW008 FEW014 BKN025 M11/M13
     A3008 RMK AO2=
K0W3 180005Z AUTO 17005KT 10SM CLR 00/M05 A3011 RMK AO2 T00011052
     $=
K10G 180015Z AUTO 18009G14KT 10SM CLR 01/M02 A2986 RMK AO2=
K2C8 180015Z AUTO 33017G27KT 3SM BR FEW031 M13/M14 A3003 RMK
     AO2=
K2G4 180005Z AUTO 17010KT 10SM CLR M02/M06 A2991 RMK AO2=
K2W6 180010Z AUTO 12003KT 10SM CLR 01/M04 A3016 RMK AO1=
KANQ 180015Z AUTO 17007KT 10SM CLR 01/M01 A2966 RMK AO2=
KBEA 180015Z AUTO 20010KT 10SM CLR 20/13 A2980 RMK AO2
     T01950125=
KCGE 180005Z AUTO 14004KT 10SM CLR M02/M05 A3016 RMK A01=
KCGS 180005Z AUTO 00000KT 10SM CLR M01/M05 A3013 RMK AO2
     T10131045=
KD55 180015Z AUTO 34016KT 10SM CLR M14/M14 A2999 RMK AO2=
KDMW 180005Z AUTO 15004KT 10SM CLR 02/M05 A3007 RMK AO2=
KFME 180009Z AUTO 14003KT 10SM CLR M01/M03 A3015 RMK AO1=
KGAF 180015Z AUTO 33019G30KT 10SM FEW019 FEW024 M12/M16 A3003 RMK
     AO2 PWINO=
KIUA 180015Z AUTO 18003KT 10SM CLR 00/M05 A2990 RMK AO2
     T10041053=
KORB 180013Z AUTO 32015G22KT 7SM -SN OVC030 M09/M13 A2963 RMK
     AO2=
KPLD 180015Z AUTO 18014G19KT 10SM CLR 04/M06 A2972 RMK AO2=
KRID 180015Z AUTO 14013KT 10SM CLR 01/M02 A2978 RMK AO2=
KVNW 180015Z AUTO 19015G19KT 10SM CLR 02/M02 A2972 RMK AO2=
KW29 180005Z AUTO 15004KT 10SM CLR 01/M05 A3015 RMK AO2
     T00071048=


755 
SAXX60 KWBC 180000 RRK
METAR
KPRN 180000Z AUTO 18004KT 10SM CLR 13/01 A3000 RMK AO2 SLP111
     T01330006 10167 20133 55012=
KMIB 172355Z COR 34013KT 10SM FEW025 M13/M17 A3007 RMK AO2A SLP217
     4/004 60000 T11301170 11085 21131 52029 $ COR 0010=


756 
SAUS70 KWBC 180016
METAR
K4I3 180008Z AUTO 16008KT 10SM CLR 01/M04 A2985 RMK AO2=
KFOZ 180013Z AUTO 33012G20KT 5SM SCT024 OVC030 M08/M13 A2976 RMK
     AO2=
KORB 180013Z AUTO 32015G22KT 7SM -SN OVC030 M09/M13 A2963 RMK
     AO2=
KXVG 180013Z 31015G27KT 7SM M08/M13 A2973 RMK AO2=
KJHN 180015Z AUTO 01020G25KT 10SM CLR 06/M07 A2977 RMK AO2
     T00641068=
K1P1 180015Z AUTO 00000KT OVC048 M05/M08 A3004 RMK AO2 T10521078
     PWINO=
K28J 180015Z AUTO 00000KT 10SM CLR 11/05 A3010 RMK AO2=
K2J9 180015Z AUTO 17005G10KT CLR 12/00 A3008 RMK AO2=
K35A 180015Z AUTO 00000KT 10SM CLR 07/M03 A3012 RMK A02
     T00711030=
K3R7 180015Z AUTO 13010G15KT 10SM SCT110 15/08 A2985 RMK AO2
     T01450081=
K6L4 180015Z AUTO 16009KT 10SM CLR 07/M09 A2991 RMK AO2=
KAQP 180014Z 34022G32KT 4SM -SN M08/M11 A2988 RMK AO2 TSNO=
KARW 180015Z AUTO 08004KT 10SM CLR 06/04 A3011 RMK AO2=
KBBP 180015Z AUTO 14005KT 10SM CLR 06/M01 A3013 RMK AO2=
KBVU 180015Z AUTO 10009KT 10SM CLR 16/M11 A2999 RMK AO2=
KCCA 180015Z AUTO 00000KT 10SM OVC050 07/05 A2973 RMK AO2=
KCFJ 180015Z AUTO 20011KT 10SM CLR 04/M04 A2969 RMK AO2
     T00391045=
KCKI 180015Z AUTO 13006KT 10SM CLR 06/00 A3014 RMK AO2=
KCLW 180015Z AUTO 00000KT 10SM SCT060 17/07 A3006 RMK AO2=
KCMR 180015Z AUTO 26010KT 10SM CLR 06/M10 A3005 RMK AO2=
KCPK 180015Z AUTO 00000KT 10SM CLR 01/M04 A3019 RMK AO2
     T00071043=
KETH 180013Z AUTO 34021G29KT 10SM SCT024 M10/M14 A2993 RMK AO2=
KFRH 180015Z AUTO 20007KT 10SM SCT065 SCT080 SCT090 08/00 A2977
     RMK AO1=
KGGE 180015Z AUTO 00000KT 10SM 05/02 A3014 RMK AO2=
KHAE 180015Z AUTO 00000KT 10SM OVC065 08/M01 A2958 RMK AO2=
KHYW 180015Z AUTO 00000KT 10SM CLR 02/00 A3015 RMK AO2=
KHZE 180015Z AUTO 32018G24KT 10SM OVC026 M11/M16 A3015 RMK AO2=
KIIY 180015Z AUTO 12003KT 10SM CLR 07/M01 A3008 RMK AO2
     T00691006=
KJAQ 180015Z AUTO 32004KT 10SM CLR 13/M02 A3018 RMK AO1
     T01251016=
KJFZ 180015Z AUTO 12006KT 10SM CLR A2995 RMK AO2=
KJYL 180015Z AUTO 16005KT 10SM CLR 09/00 A3011 RMK AO2
     T00871005=
KL35 180015Z AUTO 25005KT 10SM 04/M10 A3014 RMK AO2=
KLBO 180015Z AUTO 20010G16KT 10SM SCT042 OVC110 10/00 A2960 RMK
     AO2=
KLRU 180015Z AUTO 27025G32KT 10SM CLR 10/M07 A2996 RMK AO2
     T01001072=
KLRY 180015Z AUTO 35007KT 10SM SCT060 07/01 A2961 RMK AO2=
KLUA 180015Z AUTO 16003KT 10SM M01/M04 A3005 RMK AO2=
KLWB 180015Z AUTO 00000KT 10SM CLR 00/M06 A3000 RMK AO2
     T10051057=
KMBY 180015Z AUTO 00000KT 10SM OVC055 07/M01 A2959 RMK AO2=
KMDS 180015Z AUTO 35026G36KT 10SM UP BKN016 OVC023 M07/M09 A2988
     RMK AO2 TSNO=
KMHL 180015Z AUTO 00000KT 10SM OVC060 05/00 A2960 RMK AO2=
KMKS 180015Z AUTO 00000KT 10SM CLR 08/03 A3013 RMK AO2=
KMMH 180015Z AUTO 26008KT 10SM CLR 07/M12 A3013 RMK AO2=
KMNI 180015Z AUTO 14005KT 10SM 08/01 A3013 RMK AO2=
KMYJ 180015Z AUTO 18005KT 10SM OVC060 05/00 A2958 RMK AO2=
KOKV 180015Z AUTO 17003KT 10SM CLR 00/M06 A3004 RMK AO2=
KOMH 180015Z AUTO 00000KT 10SM CLR 00/M05 A3011 RMK AO2=
KONM 180015Z AUTO 31011KT 10SM CLR 11/M06 A2991 RMK AO2
     T01051061=
KPTB 180015Z AUTO 00000KT 10SM CLR M01/M04 A3015 RMK AO2
     T10061045=
KRBW 180015Z AUTO 12003KT 10SM CLR 07/00 A3013 RMK AO2=
KSDC 180015Z AUTO 00000KT 10SM CLR 00/M04 A2991 RMK AO2=
KSNK 180015Z AUTO 26021G27KT 10SM BKN100 18/M03 A2970 RMK AO2
     T01821035=
KSPA 180015Z AUTO 00000KT 10SM CLR 06/M05 A3007 RMK AO2=
KTPF 180015Z AUTO RMK AO2 PWINO=
KU42 180015Z AUTO 32012KT 10SM SCT043 BKN055 OVC080 02/M06 A3001
     RMK AO1 T00191059=
KUXL 180015Z AUTO 12010G15KT 10SM SCT036 A2985 RMK AO2 PWINO=
KVDF 180015Z AUTO 00000KT 10SM SCT031 BKN050 BKN075 15/09 A3009
     RMK AO2=


757 
SPUS80 KWBC 180016
SPECI
PADQ 180012Z 13009KT 4SM BR SCT009 OVC013 06/05 A3000 RMK AO2
     T00560050=
PADQ 180012Z 13009KT 4SM BR SCT009 OVC013 06/05 A3000 RMK AO2
     T00560050=
PAOM 180013Z 10020G27KT 1SM R28/5000V6000FT -SN BR OVC009 M02/M03
     A2954 RMK AO2 PK WND 10027/0003 P0000 T10171028 $=
PAYA 180013Z AUTO 08003KT 2 1/2SM HZ FEW005 OVC013 02/M01 A3052
     RMK AO2 T00221006 TSNO $=


758 
SAUS80 KWBC 180000 RRJ
METAR
PHMK 172354Z COR 03008KT 10SM SCT022 BKN039 24/18 A2994 RMK AO2
     SLP142 60000 T02440178 10256 20211 56020=
KSMS 172355Z AUTO 13004KT 10SM BKN041 07/M01 A3012 RMK AO2=


759 
SPUS70 KWBC 180016
SPECI
PAAK 180013Z AUTO 00000KT 10SM SCT003 SCT014 OVC019 04/04 A2897
     RMK AO2 TSNO=
PAPM 180013Z AUTO 12024G31KT 10SM BKN013 BKN070 OVC090 03/03 A2950
     RMK AO2 PK WND 12034/0003 TSNO=
PATO 180012Z AUTO 11015G32KT 070V140 2SM -SN BKN017 OVC025 03/00
     A3033 RMK AO2 PK WND 08036/2357 RAB00E07 P0000 T00280000
     TSNO=
KGXY 180013Z 04016KT 8SM -SN BKN027 OVC033 M02/M07 A2995 RMK AO2
     P0000 FZRANO=
PAAK 180013Z AUTO 00000KT 10SM SCT003 SCT014 OVC019 04/04 A2897
     RMK AO2 TSNO=
PAGA 180011Z AUTO 11020KT 1/2SM -SN FZFG OVC018 M11/M12 A2995 RMK
     AO2 PK WND 12026/0000 P0000 FZRANO TSNO $=
KFMY 180013Z 06006KT 5SM -RA BR SCT011 BKN016 OVC047 17/16 A3006
     RMK AO2 P0000 T01720161=


762 
SAMM31 KWBC 180000 RRA
METAR
LMML 180015Z 21014KT 9999 FEW030 14/07 Q1019 NOSIG=


763 
SPCN43 CWAO 180015
SPECI CYBQ 180015Z AUTO 32013G29KT 280V340 9SM CLR M32/M37 A3009 RMK ICE PAST HR SLP238=


764 
SAEM31 KWBC 180000 RRA
METAR
LATI 180020Z 23004KT CAVOK 04/01 Q1028 NOSIG=


765 
SACN31 KWBC 180000 CCA
METAR
CYZX 180000Z CCA 05003KT 15SM BKN035 M11/M12 A3008 RMK SC6 DENSITY
     ALT -3281FT SLP189=


766 
SPCN31 KWBC 180016
SPECI
CYYC 180014Z 11005KT 4SM VCSH BKN016 OVC074 M10/M12 A3025 RMK
SC5AS3 SLP326=


769 
SAAW33 KWBC 180000 RRB
METAR
OYAA 180000Z NIL=
OYSN 180000Z NIL=


770 
SAAW32 KWBC 180000 RRC
METAR
OTBH 180000Z NIL=


783 
SAXX62 KWBC 180000 RRB
METAR
RKSM 180000Z 15001KT 9999 SKC M04/M07 A3034=


784 
SAPA31 KWBC 180000 RRC
METAR
AGGH 180000Z 02005KT 9999 FEW018 FEW019CB BKN100 31/24 Q1008=


796 
SAPA32 KWBC 180000 RRA
METAR
NGFU 180000Z NIL=


802 
SAXX70 KAWN 180000 RRF
METAR KQER 180010Z AUTO 18001KT 9999 // CLR M11/M12 A3027 RMK A02 TSNO=
METAR KQEY 180010Z AUTO 13002KT 4800 HZ CLR M05/M08 A3003 RMK A02 TSNO=
METAR KQFW 180010Z AUTO 00000KT 4800 CLR M09/M10 A3016 RMK A02 TSNO=
METAR KQEW 180020Z AUTO 06001KT 9999 // CLR M02/M08 A3030 RMK A02 TSNO=


803 
SABZ34 SBBR 180000
NIL


804 
SABZ35 SBBR 180000
NIL


805 
SABZ33 SBBR 180000
NIL


806 
SABZ30 SBBR 180000
NIL


807 
SABZ32 SBBR 180000
NIL


808 
SABZ31 SBBR 180000
NIL


085 
SAAU31 YBBN 180000 RRA
METAR YPPH 180000Z 13012KT CAVOK 20/10 Q1015=


086 
SAAO23 DRRN 180000 RRA
METAR DXNG 180000Z NIL=


166 
SACS31 MROC 180000

METAR
MRLB 180000Z 08010KT 9999 FEW040 27/20 A2989=


382 
SAUS41 KCAR 180016
MTR40B
METAR K40B 180016Z AUTO 00000KT M10/M11 A2994 RMK AO1 SLP169
     T10991112 11050 21104 52007


598 
SACN93 CWAO 180015
WPF SA 0015 AUTO8 M M M 315/07/00/0304/M/ 5002 64MM=


599 
SAAP37 FAPR 180000
METAR FYLZ 180000Z AUTO /////KT //// // ////// 18/17 Q1013=


984 
SAUS46 KSGX 180016 COR
MTRNRS
METAR KNRS 172353Z COR 21006KT 10SM FEW025 14/08 A3018 RMK AO2 
SLP221 T01430082 56011


097 
SAUS46 KLOX 180016
MTRFHM
METAR KFHM 180015Z 03001KT 15/08


462 
SPCN41 CWAO 180016
SPECI CYDL 180016Z AUTO 03002KT 9SM FEW010 M17/M19 A3053 RMK SLP405=


463 
SPCN44 CWAO 180016
SPECI CYBW 180016Z AUTO 11003KT 9SM -SN FEW018 SCT030 BKN044 OVC095 M10/M13 A3022 RMK SLP319=


464 
SPCN41 CWAO 180016
SPECI CYZY 180016Z AUTO VRB02KT 9SM CLR M07/M13 A3052 RMK ICE PAST HR SLP387=


465 
SPCN43 CWAO 180016
SPECI CZVL 180016Z AUTO 29004KT 7SM -SN SCT016 OVC050 M09/M10 A3036 RMK ICE INTMT SLP333=


534 
SALC31 TLPC 180000
METAR TLPC 180000Z 08006KT 9999 SCT022 27/22 Q1017 NOSIG=


747 
SPCN31 KWBC 180017
SPECI
CYZY 180016Z AUTO VRB02KT 9SM CLR M07/M13 A3052 RMK ICE PAST HR
SLP387=


758 
SAUS14 KAWN 180000 RRL
METAR KBEA 180015Z AUTO 20010KT 10SM CLR 20/13 A2980 RMK AO2 T01950125=
METAR KBVU 180015Z AUTO 10009KT 10SM CLR 16/M11 A2999 RMK AO2=
METAR KCLS 180015Z AUTO 35004KT 10SM CLR 04/04 A3044 RMK AO2=
METAR KCMR 180015Z AUTO 26010KT 10SM CLR 06/M10 A3005 RMK AO2=
METAR KGNT 180015Z AUTO 28014G18KT 10SM CLR 06/M09 A2996 RMK AO2 T00571088=
METAR KJAQ 180015Z AUTO 32004KT 10SM CLR 13/M02 A3018 RMK AO1 T01251016=
METAR KL35 180015Z AUTO 25005KT 10SM 04/M10 A3014 RMK AO2=
METAR KLRU 180015Z AUTO 27025G32KT 10SM CLR 10/M07 A2996 RMK AO2 T01001072=
METAR KMCJ 180015Z AUTO 19007G18KT 170V230 10SM CLR 18/15 A2978 RMK
      A01=
METAR KMMH 180015Z AUTO 26008KT 10SM CLR 07/M12 A3013 RMK AO2=
METAR KNXP 172356Z AUTO 30014G22KT 10SM CLR 18/M07 A3010 RMK AO2 SLP173
      T01831072 10194 20139 55004=
METAR KONM 180015Z AUTO 31011KT 10SM CLR 11/M06 A2991 RMK AO2 T01051061=
METAR KSNK 180015Z AUTO 26021G27KT 10SM BKN100 18/M03 A2970 RMK AO2
      T01821035=
METAR KU42 180015Z AUTO 32012KT 10SM SCT043 BKN055 OVC080 02/M06 A3001
      RMK AO1 T00191059=


985 
SPCN46 CWAO 180016
SPECI CYYW 180016Z AUTO 33016G27KT 300V010 3SM -SN BKN024 OVC032 M11/M14 A2937 RMK PRESRR SLP979=


007 
SAUS17 KAWN 180000 RRC
METAR KMIB 172355Z COR 34013KT 10SM FEW025 M13/M17 A3007 RMK AO2A SLP217
      4/004 60000 T11301170 11085 21131 52029 $ COR 0010=


008 
SPNA14 KAWN 180017 RRA
SPECI KRCA 180010Z AUTO 34020G25KT 4SM -SN FEW002 BKN014 BKN023 OVC060
      M05/M09 A2999 RMK AO2 CIG 013 RWY13 SLP188 $=
SPECI KRDR 180015Z 01015G24KT 10SM FEW012 SCT019 BKN027 M10/M15 A3000
      RMK AO2A BKN V SCT SLP179 $=


009 
SANA14 KAWN 180000 RRC
METAR KNGU 172359Z 14005KT 10SM FEW250 04/M04 A3019 RMK AO2 SLP222
      T00391039 10072 20039 51008=
METAR KNXP 172356Z AUTO 30014G22KT 10SM CLR 18/M07 A3010 RMK AO2 SLP173
      T01831072 10194 20139 55004=


402 
SAUS46 KSGX 180017 COR
MTRNRS
METAR KNRS 172353Z COR 21006KT 10SM FEW025 14/08 A3018 RMK AO2 
SLP221 T01430082 56011


504 
SAUS14 KAWN 180000 RRM
METAR K3T5 180015Z AUTO 00000KT 10SM OVC180 13/13 A2980 RMK AO2 T01330127
      $=
METAR K6S2 180015Z AUTO 35003KT 10SM CLR 09/03 A3037 RMK AO2=
METAR KALM 180015Z AUTO 25009KT 10SM CLR 12/M08 A2991 RMK AO2=
METAR KASL 180015Z AUTO 17008KT 10SM CLR 10/08 A2974 RMK AO2 T00980085
      $=
METAR KBDG 180015Z AUTO 09003KT 10SM CLR 04/M16 A2991 RMK AO2 T00361157
      $=
METAR KBYY 180015Z AUTO 19003KT 6SM BR OVC160 18/17 A2977 RMK AO2 T01800166
      $=
METAR KCPT 180015Z AUTO 17010KT 10SM CLR 15/07 A2961 RMK AO2 T01510068
      $=
METAR KGDK 180015Z AUTO 18007G13KT 10SM CLR 03/M02 A2981 RMK AO2=
METAR KHAF 180015Z AUTO VRB04KT 6SM HZ BKN018 11/08 A3023 RMK AO2=
METAR KHBV 180015Z AUTO 20004KT 10SM CLR 19/13 A2983 RMK AO2 T01920127=
METAR KJDD 180015Z AUTO 17007KT 10SM CLR 13/08 A2969 RMK AO2 T01310082
      $=
METAR KJWY 180015Z AUTO 18010KT 10SM CLR 13/08 A2966 RMK AO2 T01320083=
METAR KMAN 180015Z AUTO 31013G19KT 10SM CLR 03/M07 A3022 RMK A01=
METAR KO22 180015Z AUTO 25003KT 10SM CLR 14/M02 A3017 RMK A01=
METAR KORS 180015Z AUTO 33005KT 10SM FEW019 06/04 A3048 RMK AO2=
METAR KPLU 180015Z AUTO 00000KT 10SM 04/02 A3044 RMK AO2=
METAR KPVF 180015Z AUTO 00000KT 10SM CLR 11/M04 A3019 RMK AO1=
METAR KRPH 180015Z AUTO 21008KT 7SM CLR 20/00 A2957 RMK AO2 T01960002=
METAR KSOW 180015Z AUTO 22015G22KT 10SM CLR 05/M05 A3005 RMK AO2=
METAR KT69 180015Z AUTO 19010KT 10SM CLR 20/17 A2981 RMK A01=
METAR KTMA 180015Z AUTO 00000KT 10SM OVC210 09/03 A3009 RMK AO2 T00930028
      $=
METAR KTSP 180015Z AUTO 30016G22KT 9SM CLR 09/M11 A3017 RMK AO2=

